X,Y,OBJECTID,NAME,ALIAS1,ALIAS2,ADDRESS,Address2,URL,PHONE,ARTSCENTER,BALLFIELDS,BOATRENTAL,CANOE,DISCGOLF,DOGPARK,ENVCTR,FISHING,GREENWAYACCESS,GYM,MULTIPURPOSEFIELD,OUTDOORBASKETBALL,PICNICSHELTER,PLAYGROUND,POOL,COMMUNITYCENTER,NEIGHBORHOODCENTER,TENNISCOURTS,TRACK,WALKINGTRAILS,JURISDICTION,RESTROOMS,Lat,Lon,Notes,ObjectID_1,GlobalID,CreationDate,Creator,EditDate,Editor,AMUSEMENTTRAIN,CAROUSEL,TENNISCENTER,THEATER,BOCCE,HANDBALL,HORSESHOE,INLINESKATING,SANDVOLLEYBALL,SKATEPARK,ACTIVE_ADULT,BMXTRACK,BOATRIDE,LIBRARY,MUSEUM,TEEN,BIKING,LIVEANIMALS,GARDENS,EQUESTRIAN
-78.54201310876492,35.77089388976519,1,Anderson Point Park,,,"20 Anderson Point Dr, Raleigh, NC","20 Anderson Point Dr, Raleigh, NC",http://www.raleighnc.gov/arts/content/PRecRecreation/Articles/AndersonPointMainPage.html,919-329-5994,No,No,No,Yes,No,No,No,No,Yes,No,No,No,Yes,Yes,No,No,No,No,No,Yes,City of Raleigh,Yes,35.77088681,-78.54201053,,,35b6ff53-86a5-4a9e-9ef2-f04c7cd96978,2017-08-30T20:48:29.798Z,ben.strauss1,2018-03-19T19:05:56.014Z,ben.strauss1,No,No,No,No,No,No,No,No,No,No,No,No,No,No,No,No,,,,
-78.598839174348441,35.92210293096359,2,"Annie Louise Wilkerson, MD Nature Preserve Park",,,"11408 Raven Ridge Rd, Raleigh, NC","11408 Raven Ridge Rd, Raleigh, NC",http://www.raleighnc.gov/arts/content/PRecRecreation/Articles/AnnieLWilkersonNaturePreservePark.html,919-996-6764,No,No,No,No,No,No,Yes,No,No,No,No,No,Yes,No,No,No,No,No,No,Yes,City of Raleigh,Yes,35.92209582,-78.59883657,,,d517f738-2730-4903-a5f7-ac93936a5295,2017-08-30T20:48:29.798Z,ben.strauss1,2018-03-19T19:05:54.216Z,ben.strauss1,No,No,No,No,No,No,No,No,No,No,No,No,No,No,No,No,,,,
-78.609243708783524,35.764911866084013,3,Apollo Heights Park,Ralph Campbell,,"756 Lunar Dr, Raleigh, NC","756 Lunar Dr, Raleigh, NC",http://www.raleighnc.gov/arts/content/PRecRecreation/Articles/AnnieLWilkersonNaturePreservePark.html,919-250-2757,No,No,No,No,No,No,No,No,Yes,No,No,Yes,Yes,Yes,No,Yes,Yes,No,No,No,City of Raleigh,No,35.76490479,-78.60924111,,,58522d65-c5aa-4b0a-8e20-7d40e211fa4c,2017-08-30T20:48:29.798Z,ben.strauss1,2017-09-22T13:49:58.463Z,ben.strauss1,No,No,No,No,No,No,No,No,No,No,No,No,No,No,No,No,,,,
-78.668551355090656,35.907955764822944,4,Baileywick Road Park,,,"9501 Baileywick Rd, Raleigh, NC","9501 Baileywick Rd, Raleigh, NC",http://www.raleighnc.gov/arts/content/PRecRecreation/Articles/BaileywickPark.html,919-870-2911,No,Yes,No,No,No,No,No,No,Yes,No,Yes,No,Yes,Yes,No,No,No,No,No,Yes,City of Raleigh,Yes,35.90794866,-78.66854873,,,9177fb9e-cafc-415f-adb0-0bcdfd522717,2017-08-30T20:48:29.798Z,ben.strauss1,2017-09-22T13:49:58.463Z,ben.strauss1,No,No,No,No,No,No,No,No,No,No,No,No,No,No,No,No,,,,
-78.551485999738958,35.730486051668301,5,Barwell Road Park,,,"3935 Barwell Rd, Raleigh, NC","3935 Barwell Rd, Raleigh, NC",http://www.raleighnc.gov/arts/content/PRecRecreation/Articles/BarwellRoadCommunityCenter.html,919-329-5994,No,No,No,No,No,No,No,No,No,Yes,No,No,No,No,No,Yes,No,No,No,No,City of Raleigh,No,35.73047898,-78.55148342,,,4b3305a9-7ab9-4bc0-b397-681cf29feb44,2017-08-30T20:48:29.798Z,ben.strauss1,2017-09-22T13:49:58.463Z,ben.strauss1,No,No,No,No,No,No,No,No,No,No,No,No,No,No,No,No,,,,
-78.55643593865895,35.88206418364156,6,Berkshire Downs West Park,,,"8105 McGuire Dr, Raleigh, NC","8105 McGuire Dr, Raleigh, NC",http://www.raleighnc.gov/arts/content/PRecParks/Articles/PlaygroundBerkshireDownsWest.html,919-831-6640,No,No,No,No,No,No,No,No,No,No,No,No,No,Yes,No,No,No,No,No,No,City of Raleigh,No,35.88205708,-78.55643335,,,51976e1f-f106-4720-b5f3-2762d3a3f7f7,2017-08-30T20:48:29.798Z,ben.strauss1,2017-09-22T13:49:58.463Z,ben.strauss1,No,No,No,No,No,No,No,No,No,No,No,No,No,No,No,No,,,,
-78.627028783143928,35.74595440168774,7,Biltmore Hills Park,,,"2615 Fitzgerald Dr, Raleigh, NC","2615 Fitzgerald Dr, Raleigh, NC",http://www.raleighnc.gov/arts/content/PRecRecreation/Articles/BiltmoreHills.html,919-831-6895,No,Yes,No,No,No,No,No,No,No,Yes,No,Yes,Yes,Yes,Yes,Yes,No,Yes,No,Yes,City of Raleigh,Yes,35.74594733,-78.62702618,,,2683045b-5d44-4beb-90c0-7a0c889c907d,2017-08-30T20:48:29.798Z,ben.strauss1,2017-09-22T13:49:58.463Z,ben.strauss1,No,No,No,No,No,No,No,No,No,No,No,No,No,No,No,No,,,,
-78.635933697878812,35.765966395805741,8,Bragg Street Park,,,"1116 South Person St, Raleigh, NC","1116 South Person St, Raleigh, NC",http://www.raleighnc.gov/arts/content/PRecRecreation/Articles/BraggStreetPark.html,919-831-6640,No,No,No,No,No,No,No,No,No,No,No,Yes,No,Yes,No,No,No,No,No,No,City of Raleigh,No,35.76595932,-78.63593109,,,aea05d5f-2071-4bdc-ba96-302155894eef,2017-08-30T20:48:29.798Z,ben.strauss1,2017-09-22T13:49:58.463Z,ben.strauss1,No,No,No,No,No,No,No,No,No,No,No,No,No,No,No,No,,,,
-78.599550489509582,35.828506911047853,9,Brentwood Park,,,"3315 Vinson Ct, Raleigh, NC","3315 Vinson Ct, Raleigh, NC",http://www.raleighnc.gov/arts/content/PRecRecreation/Articles/BrentwoodCenter.html,919-872-41040,No,Yes,No,No,No,No,No,No,No,No,No,Yes,Yes,Yes,No,Yes,Yes,Yes,No,Yes,City of Raleigh,No,35.82849982,-78.59954789,,,1ff0c88f-154e-49df-aa52-ff1a58717f21,2017-08-30T20:48:29.798Z,ben.strauss1,2017-09-22T13:49:58.463Z,ben.strauss1,No,No,No,No,No,No,No,No,No,No,No,No,No,No,No,No,,,,
-78.806365866039059,35.900533928744863,10,Brier Creek Park,,,"10810 Globe Rd, Raleigh, NC","10810 Globe Rd, Raleigh, NC",http://www.raleighnc.gov/arts/content/PRecRecreation/Articles/BrierCreekCommunityCenter.html,919-420-2340,No,No,No,No,No,No,No,No,No,Yes,Yes,No,Yes,Yes,No,No,No,No,No,Yes,City of Raleigh,Yes,35.90052683,-78.8063632,,,74001590-c267-417b-8155-1325c5aa86f7,2017-08-30T20:48:29.798Z,ben.strauss1,2017-09-22T13:49:58.463Z,ben.strauss1,No,No,No,No,No,No,No,No,No,No,No,No,No,No,No,No,,,,
-78.686232967108197,35.853886722943315,11,Brookhaven Nature Park,,,"5125 Berkeley St, Raleigh, NC","5125 Berkeley St, Raleigh, NC",http://www.raleighnc.gov/arts_parks/,919-831-6856,No,No,No,No,No,No,No,No,No,No,No,No,No,No,No,No,No,No,No,Yes,City of Raleigh,No,35.85387963,-78.68623034,,,1e0178de-03d3-4794-8934-23fa58082c59,2017-08-30T20:48:29.798Z,ben.strauss1,2017-09-22T13:49:58.463Z,ben.strauss1,No,No,No,No,No,No,No,No,No,No,No,No,No,No,No,No,,,,
-78.537284840760833,35.838369304922544,12,Buffaloe Road Athletic Park,Buffaloe Road Aquatic Center,,"5900 Buffaloe Rd, Raleigh, NC","5900 Buffaloe Rd, Raleigh, NC",http://www.raleighnc.gov/arts/content/PRecRecreation/Articles/BuffaloeRoadAthleticPark.html,919-831-6836,No,Yes,No,No,No,No,No,No,Yes,No,Yes,No,No,Yes,Yes,No,No,No,Yes,Yes,City of Raleigh,Yes,35.83836221,-78.53728226,,,ec312677-652e-4691-a96e-6b7d52322e33,2017-08-30T20:48:29.798Z,ben.strauss1,2017-09-22T13:49:58.463Z,ben.strauss1,No,No,No,No,No,No,No,No,No,No,No,No,No,No,No,No,,,,
-78.577229588813779,35.939752125120705,13,Canoe Launch at Falls Lake,,,"12028 Falls of Neuse Rd, Raleigh, NC","12028 Falls of Neuse Rd, Raleigh, NC",http://www.raleighnc.gov/arts_parks/,919-831-6610,No,No,No,Yes,No,No,No,No,Yes,No,No,No,No,No,No,No,No,No,No,No,City of Raleigh,No,35.93974501,-78.57722699,,,3c17e3aa-1999-413f-b049-d1c42f099b05,2017-08-30T20:48:29.798Z,ben.strauss1,2017-09-22T13:49:58.463Z,ben.strauss1,No,No,No,No,No,No,No,No,No,No,No,No,No,No,No,No,,,,
-78.646215160630163,35.761016644070921,14,Caraleigh Park,,,"110 Maywood Ave, Raleigh, NC","110 Maywood Ave, Raleigh, NC",http://www.raleighnc.gov/arts/content/PRecRecreation/Articles/CaraleighPark.html,919-831-6640,No,No,No,No,No,No,No,No,No,No,No,Yes,No,Yes,No,No,No,No,No,No,City of Raleigh,No,35.76100957,-78.64621255,,,4713ab2a-6f21-4b41-92d5-8e142f8c93a8,2017-08-30T20:48:29.798Z,ben.strauss1,2017-09-22T13:49:58.463Z,ben.strauss1,No,No,No,No,No,No,No,No,No,No,No,No,No,No,No,No,,,,
-78.667708046250837,35.748503990789985,15,Carolina Pines Park,,,"2305 Lake Wheeler Rd, Raleigh, NC","2305 Lake Wheeler Rd, Raleigh, NC",http://www.raleighnc.gov/arts/content/PRecRecreation/Articles/CarolinaPines.html,919-831-6435,No,Yes,No,No,No,Yes,No,No,No,Yes,No,No,Yes,Yes,No,Yes,No,Yes,No,No,City of Raleigh,No,35.74849692,-78.66770543,,,bb4ec2f8-990c-46af-889d-0dacde2de1f1,2017-08-30T20:48:29.798Z,ben.strauss1,2017-09-22T13:49:58.463Z,ben.strauss1,No,No,No,No,No,No,No,No,Yes,No,No,No,No,No,No,No,,,,
-78.615635712145078,35.782249139556043,16,Carver Park,Pender Street Mini Park,John Stokes Garden,"1600 Pender St, Raleigh, NC","1600 Pender St, Raleigh, NC",http://www.raleighnc.gov/arts_parks/,919-831-6640,No,No,No,No,No,No,No,No,No,No,No,No,No,No,No,No,No,No,No,No,City of Raleigh,No,35.78224206,-78.61563311,,,2f3b7886-473c-44d1-928a-6a828a5181fc,2017-08-30T20:48:29.798Z,ben.strauss1,2017-09-22T13:49:58.463Z,ben.strauss1,No,No,No,No,No,No,No,No,No,No,No,No,No,No,No,No,,,,
-78.630626400251501,35.859301816359633,17,Cedar Hills Park,,,"5600 Sweetbriar Dr, Raleigh, NC","5600 Sweetbriar Dr, Raleigh, NC",http://www.raleighnc.gov/arts/content/PRecRecreation/Articles/CedarHillsPark.html,919-870-2880,No,Yes,No,No,Yes,No,No,No,No,No,No,Yes,Yes,Yes,No,No,No,Yes,No,No,City of Raleigh,No,35.85929472,-78.63062379,,,d386e50c-b1db-4347-bfe2-ec716cc449f7,2017-08-30T20:48:29.798Z,ben.strauss1,2017-09-22T13:49:58.463Z,ben.strauss1,No,No,No,No,No,No,No,No,No,No,No,No,No,No,No,No,,,,
-78.664642566825066,35.792089420409845,18,Chamberlain Park,,,"500 Chamberlain St, Raleigh, NC","500 Chamberlain St, Raleigh, NC",http://www.raleighnc.gov/arts/content/PRecRecreation/Articles/ChamberlainPark.html,919-831-6640,No,No,No,No,No,No,No,No,No,No,No,Yes,No,Yes,No,No,No,No,No,No,City of Raleigh,No,35.79208234,-78.66463995,,,3e5f311e-b059-4f13-8207-b6eb7d6f2a93,2017-08-30T20:48:29.798Z,ben.strauss1,2017-09-22T13:49:58.463Z,ben.strauss1,No,No,No,No,No,No,No,No,No,No,No,No,No,No,No,No,,,,
-78.630048865978765,35.76959393649738,19,John Chavis Memorial Park,,,"505 Martin Luther King Jr Blvd, Raleigh, NC","505 Martin Luther King Jr Blvd, Raleigh, NC",http://www.raleighnc.gov/arts/content/PRecRecreation/Articles/ChavisCommunityCenter.html,919-831-6989,No,Yes,No,No,No,No,No,No,Yes,Yes,Yes,No,Yes,Yes,Yes,Yes,No,Yes,Yes,Yes,City of Raleigh,No,35.76958686,-78.63004626,,,21a78e27-bf12-427d-a212-dcc779ad365d,2017-08-30T20:48:29.798Z,ben.strauss1,2017-09-22T13:49:58.463Z,ben.strauss1,No,Yes,No,No,No,No,No,No,No,No,No,No,No,No,No,No,,,,
-78.666171347580672,35.78815739994134,20,Compiegne Park,,,"106 Chamberlain St, Raleigh, NC","106 Chamberlain St, Raleigh, NC",http://www.raleighnc.gov/arts_parks/,919-831-6640,No,No,No,No,No,No,No,No,No,No,No,No,No,No,No,No,No,No,No,No,City of Raleigh,No,35.78815032,-78.66616873,,,e966b256-49db-4fa0-b263-40a7cc455a76,2017-08-30T20:48:29.798Z,ben.strauss1,2017-09-22T13:49:58.463Z,ben.strauss1,No,No,No,No,No,No,No,No,No,No,No,No,No,No,No,No,,,,
-78.601609776656304,35.762104346620319,21,Dacian Road Park,,,"566 Dacian Rd, Raleigh, NC","566 Dacian Rd, Raleigh, NC",http://www.raleighnc.gov/arts/content/PRecParks/Articles/PlaygroundDacianRoad.html,919-831-6640,No,No,No,No,No,No,No,No,No,No,No,Yes,No,Yes,No,No,No,No,No,No,City of Raleigh,No,35.76209727,-78.60160718,,,20580d4a-a8ed-4276-b4f5-d28283e9c876,2017-08-30T20:48:29.798Z,ben.strauss1,2017-09-22T13:49:58.463Z,ben.strauss1,No,No,No,No,No,No,No,No,No,No,No,No,No,No,No,No,,,,
-78.624330924845623,35.77497130845677,22,Davie Street Park,,,"908 East Davie St, Raleigh, NC","908 East Davie St, Raleigh, NC",http://www.raleighnc.gov/arts/content/PRecRecreation/Articles/DavieStreetPark.html,919-831-6640,No,No,No,No,No,No,No,No,No,No,No,Yes,Yes,Yes,No,No,No,No,No,No,City of Raleigh,No,35.77496423,-78.62432832,,,b5ab95b2-77bf-44db-8cbf-4f1aa5466522,2017-08-30T20:48:29.798Z,ben.strauss1,2017-09-22T13:49:58.463Z,ben.strauss1,No,No,No,No,No,No,No,No,No,No,No,No,No,No,No,No,,,,
-78.651438986459809,35.863190555964628,23,Dixon Drive Park,,,"6100 Dixon Dr, Raleigh, NC","6100 Dixon Dr, Raleigh, NC",http://www.raleighnc.gov/arts/content/PRecParks/Articles/PlaygroundDixonDrive.html,919-831-6640,No,No,No,No,No,No,No,No,No,No,No,No,No,Yes,No,No,No,No,No,No,City of Raleigh,No,35.86318346,-78.65143637,,,cba0d6ba-f2a9-4bbb-a982-efbcfa7a3628,2017-08-30T20:48:29.798Z,ben.strauss1,2017-09-22T13:49:58.463Z,ben.strauss1,No,No,No,No,No,No,No,No,No,No,No,No,No,No,No,No,,,,
-78.660451324535458,35.773947926349067,24,Dorothea Dix Soccer Park,,,"900 S Boylan Ave, Raleigh, NC","900 S Boylan Ave, Raleigh, NC",http://www.raleighnc.gov/arts_parks/,919-831-6640,No,No,No,No,No,No,No,No,No,No,Yes,No,No,No,No,No,No,No,No,No,City of Raleigh,No,35.77394085,-78.66044871,,,ec2b65f5-4dd8-4100-a154-6ca63a900aa1,2017-08-30T20:48:29.798Z,ben.strauss1,2017-09-22T13:49:58.463Z,ben.strauss1,No,No,No,No,No,No,No,No,No,No,No,No,No,No,No,No,,,,
-78.578746316670504,35.894712875562767,25,Durant Nature Preserve,,,"8305 Camp Durant Rd, Raleigh, NC","8305 Camp Durant Rd, Raleigh, NC",http://www.raleighnc.gov/arts/content/PRecRecreation/Articles/DurantNaturePark.html,919-870-2871,No,No,No,No,No,No,No,Yes,No,No,Yes,Yes,Yes,Yes,No,No,No,No,No,Yes,City of Raleigh,Yes,35.89470577,-78.57874372,,,35c3d991-829d-425c-bcd5-0dbfdb86ab06,2017-08-30T20:48:29.798Z,ben.strauss1,2017-09-22T13:49:58.463Z,ben.strauss1,No,No,No,No,No,No,No,No,Yes,No,No,No,No,No,No,No,,,,
-78.62311227768167,35.839523811754702,26,Eastgate Park,,,"4200 Quail Hollow Dr, Raleigh, NC","4200 Quail Hollow Dr, Raleigh, NC",http://www.raleighnc.gov/arts/content/PRecRecreation/Articles/EastgateParkAndCenter.html,919-872-4156,No,No,No,No,No,No,No,Yes,No,No,Yes,Yes,Yes,Yes,No,Yes,Yes,Yes,No,Yes,City of Raleigh,Yes,35.83951672,-78.62310967,,,bb8d16a3-c6e8-4576-b378-495af41dce70,2017-08-30T20:48:29.798Z,ben.strauss1,2017-09-22T13:49:58.463Z,ben.strauss1,No,No,No,No,No,No,No,No,No,No,No,No,No,No,No,No,,,,
-78.655227324486333,35.788083670212693,27,Edna Metz Wells Park,,,"1600 Park Dr, Raleigh, NC","1600 Park Dr, Raleigh, NC",http://www.raleighnc.gov/arts_parks/,919-831-6640,No,No,No,No,No,No,No,No,No,No,No,No,No,No,No,No,No,No,No,Yes,City of Raleigh,No,35.78807659,-78.65522471,,,1e9fb12a-7e11-4d59-ac41-fa7381a0ee83,2017-08-30T20:48:29.798Z,ben.strauss1,2017-09-22T13:49:58.463Z,ben.strauss1,No,No,No,No,No,No,No,No,No,No,No,No,No,No,No,No,,,,
-78.642968919231308,35.759218563931768,28,Eliza Pool Park,,,"1600 Fayetteville St, Raleigh, NC","1600 Fayetteville St, Raleigh, NC",http://www.raleighnc.gov/arts/content/PRecParks/Articles/PlaygroundElizaPool.html,919-831-6640,No,No,No,No,No,No,No,No,Yes,No,No,No,Yes,Yes,No,No,No,No,No,Yes,City of Raleigh,No,35.75921149,-78.64296631,,,7b4233b9-8d77-4ee7-b50e-e664ac7731e3,2017-08-30T20:48:29.798Z,ben.strauss1,2017-09-22T13:49:58.463Z,ben.strauss1,No,No,No,No,No,No,No,No,Yes,No,No,No,No,No,No,No,,,,
-78.636628509559017,35.815730996132231,29,Fallon Park,,,"2601 Oxford Rd, Raleigh, NC","2601 Oxford Rd, Raleigh, NC",http://www.raleighnc.gov/arts/content/PRecRecreation/Articles/FallonPark.html,919-831-6640,No,No,No,No,No,No,No,No,No,No,No,No,Yes,No,No,No,No,No,No,Yes,City of Raleigh,No,35.81572391,-78.6366259,,,128f0723-5cf2-48ec-bc8d-9cd9f740aec8,2017-08-30T20:48:29.798Z,ben.strauss1,2017-09-22T13:49:58.463Z,ben.strauss1,No,No,No,No,No,No,No,No,No,No,No,No,No,No,No,No,,,,
-78.614536151322355,35.783579630578132,30,Fisher Street Park,,,"324 N Fisher St, Raleigh, NC","324 N Fisher St, Raleigh, NC",http://www.raleighnc.gov/arts/content/PRecRecreation/Articles/FisherStreetPark.html,919-831-6640,No,No,No,No,No,No,No,No,No,No,No,Yes,No,Yes,No,No,No,No,No,No,City of Raleigh,No,35.78357255,-78.61453355,,,49372f57-341e-4361-9cb4-609778ccd729,2017-08-30T20:48:29.798Z,ben.strauss1,2017-09-22T13:49:58.463Z,ben.strauss1,No,No,No,No,No,No,No,No,No,No,No,No,No,No,No,No,,,,
-78.649622203040934,35.792839820590807,31,Fred Fletcher Park,Borden Building,,"805 Washington St, Raleigh, NC","805 Washington St, Raleigh, NC",http://www.raleighnc.gov/arts/content/PRecRecreation/Articles/FletcherPark.html,919-831-6640,No,Yes,No,No,No,No,No,No,No,No,Yes,Yes,Yes,Yes,No,Yes,Yes,Yes,No,Yes,City of Raleigh,No,35.79283274,-78.64961959,,,75856265-9f88-4c01-8668-206be964c2ab,2017-08-30T20:48:29.798Z,ben.strauss1,2017-09-22T13:49:58.463Z,ben.strauss1,No,No,No,No,No,No,No,No,No,No,No,No,No,No,No,No,,,,
-78.683526014355053,35.828338338041199,32,Glen Eden Pilot Park,,,"1500 Glen Eden Dr, Raleigh, NC","1500 Glen Eden Dr, Raleigh, NC",http://www.raleighnc.gov/arts/content/PRecRecreation/Articles/GlenEdenPilotParkAndCenter.html,919-831-6833,No,No,No,No,No,No,No,No,Yes,No,No,Yes,Yes,Yes,No,No,Yes,Yes,No,No,City of Raleigh,No,35.82833125,-78.68352339,,,31ed61fa-e0de-4ab4-9881-6ce1adba1446,2017-08-30T20:48:29.798Z,ben.strauss1,2017-09-22T13:49:58.463Z,ben.strauss1,No,No,No,No,No,Yes,No,No,No,No,No,No,No,No,No,No,,,,
-78.591796328440566,35.840960382977535,33,Green Road Park,,,"4201 Green Rd, Raleigh, NC","4201 Green Rd, Raleigh, NC",http://www.raleighnc.gov/arts/content/PRecRecreation/Articles/GreenRoadCommunityCenter.html,919-872-4140,No,Yes,No,No,No,No,No,No,No,Yes,No,Yes,Yes,Yes,No,Yes,No,Yes,No,No,City of Raleigh,Yes,35.84095329,-78.59179373,,,2394a3de-4398-4829-b3e7-3a1d81f9c012,2017-08-30T20:48:29.798Z,ben.strauss1,2017-09-22T13:49:58.463Z,ben.strauss1,No,No,No,No,No,No,No,No,Yes,No,No,No,No,Yes,No,No,,,,
-78.660223101647333,35.886826440791857,34,Greystone Recreation Center,,,"7713-55 Leadmine Rd, Raleigh, NC","7713 Leadmine Rd, Raleigh, NC",http://www.raleighnc.gov/arts/content/PRecRecreation/Articles/GreystoneRecreationCenter.html,919-996-4848,No,No,No,No,No,No,No,No,No,No,No,No,No,Yes,No,Yes,Yes,No,No,No,City of Raleigh,Yes,35.88681934,-78.66022048,,,4d14cc9e-6edb-49a4-b182-879183e0b4b1,2017-08-30T20:48:29.798Z,ben.strauss1,2017-09-22T13:49:58.463Z,ben.strauss1,No,No,No,No,No,No,No,No,No,No,No,No,No,No,No,No,,,,
-78.638722579531759,35.793230821838577,35,Halifax Park,,,"1015 Halifax St, Raleigh, NC","1015 Halifax St, Raleigh, NC",http://www.raleighnc.gov/arts/content/PRecRecreation/Articles/HalifaxCommunityCenter.html,919-831-6378,No,No,No,No,No,No,No,No,No,Yes,Yes,Yes,No,Yes,No,Yes,No,No,No,No,City of Raleigh,Yes,35.79322374,-78.63871997,,,4ad431f7-4df3-4588-8328-fc4a5ed96423,2017-08-30T20:48:29.798Z,ben.strauss1,2017-09-22T13:49:58.463Z,ben.strauss1,No,No,No,No,No,No,No,No,No,No,No,No,No,No,No,No,,,,
-78.643008057939866,35.744258300882656,36,Hertford Village Park,,,"205 Blanchard St, Raleigh, NC","205 Blanchard St, Raleigh, NC",http://www.raleighnc.gov/arts/content/PRecRecreation/Articles/HertfordVillagePark.html,919-831-6640,No,No,No,No,No,No,No,No,No,No,No,Yes,No,Yes,No,No,No,No,No,No,City of Raleigh,No,35.74425123,-78.64300545,,,efc4f6d5-a5a5-4338-8a4b-67bcdad68352,2017-08-30T20:48:29.798Z,ben.strauss1,2017-09-22T13:49:58.463Z,ben.strauss1,No,No,No,No,No,No,No,No,No,No,No,No,No,No,No,No,,,,
-78.590710526103862,35.812913597032292,37,Hill Street Park,,,"2307 Hill St, Raleigh, NC","2307 Hill St, Raleigh, NC",http://www.raleighnc.gov/arts_parks/,919-831-6640,No,No,No,No,No,No,No,No,No,No,No,No,Yes,Yes,No,No,No,No,No,No,City of Raleigh,No,35.81290651,-78.59070793,,,d77f0fea-cd5b-4b74-97a5-69aa925edd4c,2017-08-30T20:48:29.798Z,ben.strauss1,2017-09-22T13:49:58.463Z,ben.strauss1,No,No,No,No,No,No,No,No,No,No,No,No,No,No,No,No,,,,
-78.625588781627158,35.902870495934124,38,Honeycutt Park,,,"1032 Clear Creek Farm Rd, Raleigh, NC","1032 Clear Creek Farm Rd, Raleigh, NC",http://www.raleighnc.gov/arts/content/PRecRecreation/Articles/HoneycuttPark.html,919-872-4156,No,Yes,No,No,No,No,No,No,Yes,No,No,Yes,Yes,Yes,No,No,No,No,No,No,City of Raleigh,Yes,35.90286339,-78.62558617,,,a0461d55-250e-4066-bc3b-cfe58d82070d,2017-08-30T20:48:29.798Z,ben.strauss1,2017-09-22T13:49:58.463Z,ben.strauss1,No,No,No,No,No,No,No,No,Yes,No,No,No,No,No,No,No,,,,
-78.536055753904023,35.885143094359115,39,Horseshoe Farm Nature Preserve,,,"2900 Horseshoe Farm Rd, Raleigh, NC","2900 Horseshoe Farm Rd, Raleigh, NC",http://www.raleighnc.gov/arts_parks/,919-831-6640,No,No,No,No,No,No,No,No,No,No,No,No,No,No,No,No,No,No,No,No,City of Raleigh,No,35.88513599,-78.53605317,,,9ad121df-956d-4e71-a0e2-71ce2be891bc,2017-08-30T20:48:29.798Z,ben.strauss1,2017-09-22T13:49:58.463Z,ben.strauss1,No,No,No,No,No,No,No,No,No,No,No,No,No,No,No,No,,,,
-78.676730531822955,35.801726682153415,40,Hymettus Woods Park,,,"901 Dixie Trl, Raleigh, NC","901 Dixie Trl, Raleigh, NC",http://www.raleighnc.gov/arts_parks/,919-831-6640,No,No,No,No,No,No,No,No,No,No,No,No,No,No,No,No,No,No,No,Yes,City of Raleigh,No,35.8017196,-78.67672791,,,e0736a41-dc45-4a52-9d57-cfcc22a61772,2017-08-30T20:48:29.798Z,ben.strauss1,2017-09-22T13:49:58.463Z,ben.strauss1,No,No,No,No,No,No,No,No,No,No,No,No,No,No,No,No,,,,
-78.669159208381004,35.792638960797937,41,Isabella Cannon Park,,,"2601 Kilgore Ave, Raleigh, NC","2601 Kilgore Ave, Raleigh, NC",http://www.raleighnc.gov/arts/content/PRecRecreation/Articles/IsabellaCannonPark.html,919-831-6640,No,Yes,No,No,No,No,No,No,No,No,No,Yes,Yes,Yes,No,No,No,No,No,No,City of Raleigh,Yes,35.79263188,-78.66915659,,,3e2dcfca-68db-44a7-818c-03b0b2a0c4ac,2017-08-30T20:48:29.798Z,ben.strauss1,2017-09-22T13:49:58.463Z,ben.strauss1,No,No,No,No,No,No,No,No,No,No,No,No,No,No,No,No,,,,
-78.663603077116548,35.799263492345531,42,Jaycee Park,,,"2405 Wade Ave, Raleigh, NC","2405 Wade Ave, Raleigh, NC",http://www.raleighnc.gov/arts/content/PRecRecreation/Articles/JayceeCommunityCenter.html,919-831-6833,No,Yes,No,No,No,No,No,No,Yes,Yes,No,No,Yes,Yes,No,Yes,No,Yes,No,Yes,City of Raleigh,No,35.79925641,-78.66360046,,,44a08082-7b08-4fa3-8f8e-644d328f6e21,2017-08-30T20:48:29.798Z,ben.strauss1,2017-09-22T13:49:58.463Z,ben.strauss1,No,No,No,No,No,No,No,No,Yes,No,No,No,No,No,No,No,,,,
-78.633230467247159,35.769542656380885,43,John P Top Greene Park,,,"401 Martin Luther King Jr. Blvd, Raleigh, NC","401 Martin Luther King Jr. Blvd, Raleigh, NC",http://www.raleighnc.gov/arts/content/PRecRecreation/Articles/TopGreene.html,919-831-6527,No,No,No,No,No,No,No,No,No,No,No,No,No,No,No,Yes,Yes,No,No,No,City of Raleigh,No,35.76953558,-78.63322786,,,1a186ea0-fc87-465d-8998-0ccd46c96fe2,2017-08-30T20:48:29.798Z,ben.strauss1,2017-09-22T13:49:58.463Z,ben.strauss1,No,No,No,No,No,No,No,No,No,No,No,No,No,No,No,No,,,,
-78.711898530297901,35.774798904561941,44,Kaplan Park,,,"5208 Kaplan Dr, Raleigh, NC","5208 Kaplan Dr, Raleigh, NC",http://www.raleighnc.gov/arts_parks/,919-831-6640,No,No,No,No,No,No,No,No,No,No,No,No,No,No,No,No,No,No,No,Yes,City of Raleigh,No,35.77479183,-78.7118959,,,e39596c8-90a7-4b04-bf0f-e31f7dd9a2c5,2017-08-30T20:48:29.798Z,ben.strauss1,2017-09-22T13:49:58.463Z,ben.strauss1,No,No,No,No,No,No,No,No,No,No,No,No,No,No,No,No,,,,
-78.69596776591446,35.776073466040842,45,Kentwood Park,,,"4531 Kaplan Dr, Raleigh, NC","4531 Kaplan Dr, Raleigh, NC",http://www.raleighnc.gov/arts/content/PRecRecreation/Articles/KentwoodPark.html,919-831-6640,No,Yes,No,No,Yes,No,No,No,No,No,No,No,Yes,Yes,No,No,No,Yes,No,No,City of Raleigh,Yes,35.77606639,-78.69596514,,,04f879ed-d40e-4e66-9927-ce3c8688ab26,2017-08-30T20:48:29.798Z,ben.strauss1,2017-09-22T13:49:58.463Z,ben.strauss1,No,No,No,No,No,No,No,No,No,No,No,No,No,No,No,No,,,,
-78.618478190421783,35.744615082304001,46,Kingwood Forest Park,,,"2610 Evers Dr, Raleigh, NC","2610 Evers Dr, Raleigh, NC",http://www.raleighnc.gov/arts/content/PRecParks/Articles/PlaygroundKingwoodForest.html,919-831-6640,No,No,No,No,No,No,No,No,No,No,No,Yes,Yes,Yes,No,No,No,No,No,No,City of Raleigh,No,35.74460801,-78.61847559,,,2a17087c-6124-4441-b357-3d3e58684923,2017-08-30T20:48:29.798Z,ben.strauss1,2017-09-22T13:49:58.463Z,ben.strauss1,No,No,No,No,No,No,Yes,No,No,No,No,No,No,No,No,No,,,,
-78.631777909147516,35.817185756615743,47,Kiwanis Park,,,"2525 Noble Rd, Raleigh, NC","2525 Noble Rd, Raleigh, NC",http://www.raleighnc.gov/arts/content/PRecRecreation/Articles/KiwanisParkAndCenter.html,919-870-2880,No,No,No,No,No,No,No,No,No,No,No,Yes,Yes,Yes,No,Yes,Yes,No,No,No,City of Raleigh,No,35.81717867,-78.6317753,,,2045b778-9176-469b-a650-f33e789ff433,2017-08-30T20:48:29.798Z,ben.strauss1,2017-09-22T13:49:58.463Z,ben.strauss1,No,No,No,No,No,No,Yes,No,Yes,No,No,No,No,No,No,No,,,,
-78.713812270918169,35.76321691227453,48,Lake Johnson Park,,,"4601 Avent Ferry Rd, Raleigh, NC","4601 Avent Ferry Rd, Raleigh, NC",http://www.raleighnc.gov/arts/content/PRecRecreation/Articles/LakeJohnsonPark.html,919-233-2121,No,No,Yes,Yes,No,No,No,No,Yes,No,No,No,Yes,No,No,No,No,No,No,No,City of Raleigh,Yes,35.76320984,-78.71380964,,,9d934a97-0e58-4471-9830-2d45c50a2ff0,2017-08-30T20:48:29.798Z,ben.strauss1,2017-09-22T13:49:58.463Z,ben.strauss1,No,No,No,No,No,No,No,No,No,No,No,No,No,No,No,No,,,,
-78.714032450841032,35.757828401443263,49,Lake Johnson Nature Preserve,,,"4601 Avent Ferry Rd, Raleigh, NC","4601 Avent Ferry Rd, Raleigh, NC",http://www.raleighnc.gov/arts/content/PRecRecreation/Articles/LakeJohnsonPark.html,919-233-2121,No,No,No,No,No,No,No,No,Yes,No,No,No,Yes,No,No,No,No,No,No,No,City of Raleigh,No,35.75782133,-78.71402982,,,77470773-1304-4fd4-94b0-f3537afa4399,2017-08-30T20:48:29.798Z,ben.strauss1,2017-09-22T13:49:58.463Z,ben.strauss1,No,No,No,No,No,No,No,No,No,No,No,No,No,No,No,No,,,,
-78.698047812969449,35.888002930141333,50,Lake Lynn Park,,,"7921 Ray Rd, Raleigh, NC","7921 Ray Rd, Raleigh, NC",http://www.raleighnc.gov/arts/content/PRecRecreation/Articles/LakeLynnCommunityCenter.html,919-870-2911,No,Yes,No,No,No,No,No,Yes,Yes,Yes,No,No,No,Yes,No,Yes,No,Yes,No,No,City of Raleigh,No,35.88799583,-78.69804518,,,8dc26499-b8f7-4480-b172-315bf18f0bcb,2017-08-30T20:48:29.798Z,ben.strauss1,2017-09-22T13:49:58.463Z,ben.strauss1,No,No,No,No,Yes,No,No,No,No,No,No,No,No,No,No,No,,,,
-78.699473212358782,35.691762737663964,51,Lake Wheeler Park,,,"6404 Lake Wheeler Rd, Raleigh, NC","6404 Lake Wheeler Rd, Raleigh, NC",http://www.raleighnc.gov/arts/content/PRecRecreation/Articles/LakeWheeler.html,919-662-5704,No,No,Yes,Yes,No,No,No,Yes,No,No,No,No,Yes,Yes,No,Yes,No,No,No,Yes,City of Raleigh,Yes,35.69175568,-78.69947059,,,7e6f4961-bb23-4533-a98a-ff27557222df,2017-08-30T20:48:29.798Z,ben.strauss1,2017-09-22T13:49:58.463Z,ben.strauss1,No,No,No,No,No,No,No,No,Yes,No,No,No,No,No,No,No,,,,
-78.626007855207277,35.783249200261928,52,Lane Street Park,,,"920 E Lane St, Raleigh, NC","920 E Lane St, Raleigh, NC",http://www.raleighnc.gov/arts/content/PRecRecreation/Articles/LaneStreetPark.html,919-831-6640,No,No,No,No,No,No,No,No,No,No,No,Yes,No,Yes,No,No,No,No,No,No,City of Raleigh,No,35.78324212,-78.62600525,,,bb72f07d-39d4-4168-bd47-0a359707d73d,2017-08-30T20:48:29.798Z,ben.strauss1,2017-09-22T13:49:58.463Z,ben.strauss1,No,No,No,No,No,No,No,No,No,No,No,No,No,No,No,No,,,,
-78.663084546805237,35.7963007314126,53,Latta Property,,,"1001 Parker St, Raleigh, NC","1001 Parker St, Raleigh, NC",http://www.raleighnc.gov/arts_parks/,919-831-6640,No,No,No,No,No,No,No,No,No,No,No,No,No,No,No,No,No,No,No,No,City of Raleigh,No,35.79629365,-78.66308193,,,b8abd679-c0df-47d2-a618-864f5837c930,2017-08-30T20:48:29.798Z,ben.strauss1,2017-09-22T13:49:58.463Z,ben.strauss1,No,No,No,No,No,No,No,No,No,No,No,No,No,No,No,No,,,,
-78.697489879244813,35.829768837070503,54,Laurel Hills Park,,,"3808 Edwards Mill Rd, Raleigh, NC","3808 Edwards Mill Rd, Raleigh, NC",http://www.raleighnc.gov/arts/content/PRecRecreation/Articles/LaurelHillsMainPage.html,919-420-2383,No,Yes,No,No,No,No,No,No,No,Yes,No,Yes,Yes,Yes,No,Yes,No,No,No,No,City of Raleigh,Yes,35.82976175,-78.69748725,,,57b7eeb7-065a-4914-8359-d5be2388fe9d,2017-08-30T20:48:29.798Z,ben.strauss1,2017-09-22T13:49:58.463Z,ben.strauss1,No,No,No,No,No,No,No,No,No,No,No,No,No,No,No,No,,,,
-78.715158048169002,35.884554568328255,56,Leesville Park,,,"8000 Hilburn Dr, Raleigh, NC","8000 Hilburn Dr, Raleigh, NC",http://www.raleighnc.gov/arts/content/PRecParks/Articles/PlaygroundLeesville.html,919-831-6640,No,No,No,No,No,No,No,No,No,No,No,No,No,Yes,No,No,No,No,No,No,City of Raleigh,Yes,35.88454747,-78.71515541,,,91cfbd29-966b-4f5c-a344-bf93d4a268e4,2017-08-30T20:48:29.798Z,ben.strauss1,2017-09-22T13:49:58.463Z,ben.strauss1,No,No,No,No,No,No,No,No,No,No,No,No,No,Yes,No,No,,,,
-78.648757001312205,35.773453616792466,57,Lenoir Street Park,,,"626 W Lenoir St, Raleigh, NC","626 W Lenoir St, Raleigh, NC",http://www.raleighnc.gov/arts/content/PRecParks/Articles/PlaygroundLenoirStreet.html,919-831-6640,No,No,No,No,No,No,No,No,No,No,No,Yes,No,Yes,No,No,No,No,No,No,City of Raleigh,No,35.77344654,-78.64875439,,,7eb1a31a-fa8e-49ff-aec1-ccc3364335d8,2017-08-30T20:48:29.798Z,ben.strauss1,2017-09-22T13:49:58.463Z,ben.strauss1,No,No,No,No,No,No,No,No,No,No,No,No,No,No,No,No,,,,
-78.613674792564737,35.796964533777277,58,Lions Park,,,"516 Dennis Ave, Raleigh, NC","516 Dennis Ave, Raleigh, NC",http://www.raleighnc.gov/arts/content/PRecRecreation/Articles/LionsPrkFrontPage.html,919-831-6995,No,Yes,No,No,No,No,No,No,No,Yes,No,Yes,Yes,Yes,No,Yes,No,Yes,No,No,City of Raleigh,No,35.79695745,-78.61367219,,,4c34fb1f-fd0a-4520-b0d2-4ee8bfc8e7b7,2017-08-30T20:48:29.798Z,ben.strauss1,2017-09-22T13:49:58.463Z,ben.strauss1,No,No,No,No,No,No,Yes,No,No,No,No,Yes,No,No,No,No,,,,
-78.598513667036841,35.795173883937849,59,Lockwood Park,,,"1000 Crabtree Blvd, Raleigh, NC","1000 Crabtree Blvd, Raleigh, NC",http://www.raleighnc.gov/arts/content/PRecParks/Articles/PlaygroundLockwood.html,919-831-6640,No,No,No,No,No,No,No,No,No,No,No,No,No,Yes,No,No,No,No,No,No,City of Raleigh,No,35.7951668,-78.59851107,,,f064a50e-058e-4157-914e-55a5f8f8ad99,2017-08-30T20:48:29.798Z,ben.strauss1,2017-09-22T13:49:58.463Z,ben.strauss1,No,No,No,No,No,No,No,No,No,No,No,No,No,No,No,No,,,,
-78.650474077104548,35.875972388392398,60,Longstreet Park,,,"7334 Stuart Dr, Raleigh, NC","7334 Stuart Dr, Raleigh, NC",http://www.raleighnc.gov/arts/content/PRecParks/Articles/PlaygroundLongstreet.html,919-831-6640,No,No,No,No,No,No,No,No,No,No,No,No,No,Yes,No,No,No,No,No,No,City of Raleigh,No,35.87596529,-78.65047146,,,6f444efa-f982-46a6-aa3a-088bd4542ed1,2017-08-30T20:48:29.798Z,ben.strauss1,2017-09-22T13:49:58.463Z,ben.strauss1,No,No,No,No,No,No,No,No,No,No,No,No,No,No,No,No,,,,
-78.608092300370089,35.786280591007866,61,Longview Park,,,"321 Bertie Dr, Raleigh, NC","321 Bertie Dr, Raleigh, NC",http://www.raleighnc.gov/arts_parks/,919-831-6640,No,No,No,No,No,No,No,No,No,No,No,No,No,No,Yes,No,No,No,No,No,City of Raleigh,No,35.78627351,-78.6080897,,,749005a9-46d5-40af-bf31-776ee8fbb45d,2017-08-30T20:48:29.798Z,ben.strauss1,2017-09-22T13:49:58.463Z,ben.strauss1,No,No,No,No,No,No,No,No,Yes,No,No,No,No,No,No,No,,,,
-78.677364853182183,35.832718888185028,62,Lt. Col. George F. Marshall Memorial Park,,,"3970 Blue Ridge Rd, Raleigh, NC","3970 Blue Ridge Rd, Raleigh, NC",http://www.raleighnc.gov/arts_parks/,919-831-6640,No,No,No,No,No,No,No,No,Yes,No,No,No,No,No,No,No,No,No,No,No,City of Raleigh,No,35.8327118,-78.67736223,,,eeddad47-2eeb-4b4e-86ce-05676406139a,2017-08-30T20:48:29.798Z,ben.strauss1,2017-09-22T13:49:58.463Z,ben.strauss1,No,No,No,No,No,No,No,No,No,No,No,No,No,No,No,No,,,,
-78.564395559058568,35.822931160513534,63,Marsh Creek Park,,,"3016 New Hope Rd, Raleigh, NC","3016 New Hope Rd, Raleigh, NC",http://www.raleighnc.gov/arts/content/PRecRecreation/Articles/MarshCreekCommunityCenter.html,919-996-4920,No,Yes,No,No,No,No,No,No,No,Yes,Yes,No,Yes,Yes,No,Yes,No,No,No,No,City of Raleigh,Yes,35.82292407,-78.56439297,,,eb8b0e25-051f-41d4-b148-c577d4ff1981,2017-08-30T20:48:29.798Z,ben.strauss1,2017-09-22T13:49:58.463Z,ben.strauss1,No,No,No,No,No,No,No,Yes,No,Yes,No,No,No,No,No,No,,,,
-78.617506962022375,35.768303637047552,64,"Dr. Martin Luther King, Jr. Memorial Gardens",,,"900 Rock Quarry Rd, Raleigh, NC","900 Rock Quarry Rd, Raleigh, NC",http://www.raleighnc.gov/arts/content/PRecRecreation/Articles/MLKGardens.html,919-996-4115,No,No,No,No,No,No,No,No,No,No,No,No,No,No,No,No,No,No,No,No,City of Raleigh,No,35.76829656,-78.61750436,,,0c4e7703-837b-4e19-816a-12c0ee02b014,2017-08-30T20:48:29.798Z,ben.strauss1,2017-09-22T13:49:58.463Z,ben.strauss1,No,No,No,No,No,No,No,No,No,No,No,No,No,No,No,No,,,,
-78.694515746586191,35.79282183969611,65,Method Community Park,,,"514 Method Rd, Raleigh, NC","514 Method Rd, Raleigh, NC",http://www.raleighnc.gov/arts/content/PRecRecreation/Articles/MethodCommunityCenter.html,919-831-6066,No,Yes,No,No,No,No,No,No,No,Yes,No,Yes,Yes,Yes,No,Yes,Yes,Yes,No,No,City of Raleigh,No,35.79281476,-78.69451312,,,2d448b38-4167-4dc5-9950-dd8d12207fd6,2017-08-30T20:48:29.798Z,ben.strauss1,2017-09-22T13:49:58.463Z,ben.strauss1,No,No,No,No,No,No,No,No,No,No,No,No,No,No,No,No,,,,
-78.538623370096531,35.798418996666946,66,Milburnie,,,"1101 Old Milburnie Rd, Raleigh, NC","1101 Old Milburnie Rd, Raleigh, NC",http://www.raleighnc.gov/arts_parks/,919-831-6640,No,No,No,Yes,No,No,No,Yes,Yes,No,No,No,No,No,No,No,No,No,No,No,City of Raleigh,No,35.79841191,-78.53862079,,,fd6e095d-59c2-4e07-8ba7-ee83a08f0470,2017-08-30T20:48:29.798Z,ben.strauss1,2017-09-22T13:49:58.463Z,ben.strauss1,No,No,No,No,No,No,No,No,No,No,No,No,No,No,No,No,,,,
-78.605257962826812,35.869472119575171,67,Millbrook Exchange Park,Anne Gordon Center for Active Adults,,"1815 Spring Forest Rd, Raleigh, NC","1815 Spring Forest Rd, Raleigh, NC",http://www.raleighnc.gov/arts/content/PRecRecreation/Articles/MillbrookExchangeCommunityCenter.html,919-996-4720,No,Yes,No,No,No,Yes,No,No,No,Yes,No,Yes,Yes,Yes,Yes,Yes,No,Yes,No,Yes,City of Raleigh,No,35.86946502,-78.60525536,,,498cd362-e12a-40ba-9fce-841fe1c02a6b,2017-08-30T20:48:29.798Z,ben.strauss1,2017-09-22T13:49:58.463Z,ben.strauss1,No,No,Yes,No,No,Yes,Yes,No,No,No,Yes,No,No,No,No,No,,,,
-78.635803087960298,35.777409178089734,68,Moore Square,,,"201 South Blount St, Raleigh, NC","201 South Blount St, Raleigh, NC",http://www.raleighnc.gov/arts_parks/,919-832-1231,No,No,No,No,No,No,No,No,No,No,No,No,No,No,No,No,No,No,No,No,City of Raleigh,No,35.7774021,-78.63580048,,,9978eec5-8b4a-488f-8211-5fe047cd3e19,2017-08-30T20:48:29.798Z,ben.strauss1,2017-09-22T13:49:58.463Z,ben.strauss1,No,No,No,No,No,No,No,No,No,No,No,No,No,No,No,No,,,,
-78.635212669128464,35.795785222618967,69,Mordecai Mini Park,,,"1122 North Blount St, Raleigh, NC","1122 North Blount St, Raleigh, NC",http://www.raleighnc.gov/arts/content/PRecParks/Articles/PlaygroundMordecai.html,919-831-6640,No,No,No,No,No,No,No,No,No,No,No,No,No,Yes,No,No,No,No,No,No,City of Raleigh,No,35.79577814,-78.63521006,,,9baf7485-c256-41d8-ad64-34656c38f3f4,2017-08-30T20:48:29.798Z,ben.strauss1,2017-09-22T13:49:58.463Z,ben.strauss1,No,No,No,No,No,No,No,No,No,No,No,No,No,No,No,No,,,,
-78.633104207317487,35.792690421176417,70,Mordecai Historic Park,Mordecai Historic Park,,"1 Mimosa St, Raleigh, NC","1 Mimosa St, Raleigh, NC",http://www.raleighnc.gov/arts/content/PRecRecreation/Articles/MordecaiHistoricPark2.html,919-857-4364,No,No,No,No,No,No,No,No,No,No,No,No,No,No,No,No,No,No,No,No,City of Raleigh,Yes,35.79268334,-78.6331016,,,f205c585-327d-42a6-bfd5-55842072beb3,2017-08-30T20:48:29.798Z,ben.strauss1,2017-09-22T13:49:58.463Z,ben.strauss1,No,No,No,No,No,No,No,No,No,No,No,No,No,No,Yes,No,,,,
-78.642704860115401,35.777585898143506,71,Nash Square,,,"200 S McDowell St, Raleigh, NC","200 S McDowell St, Raleigh, NC",http://www.raleighnc.gov/arts_parks/,919-832-1231,No,No,No,No,No,No,No,No,No,No,No,No,No,No,No,No,No,No,No,No,City of Raleigh,No,35.77757882,-78.64270225,,,79a64eac-1a4d-484c-bde1-a444d52b0d05,2017-08-30T20:48:29.798Z,ben.strauss1,2017-09-22T13:49:58.463Z,ben.strauss1,No,No,No,No,No,No,No,No,No,No,No,No,No,No,No,No,,,,
-78.658196537418306,35.838592820716705,72,North Hills Park,,,"100 Chowan Cir, Raleigh, NC","100 Chowan Cir, Raleigh, NC",http://www.raleighnc.gov/arts/content/PRecRecreation/Articles/NorthHillsPark.html,919-870-2880,No,Yes,No,No,No,No,No,No,Yes,No,No,No,Yes,Yes,No,No,No,Yes,No,No,City of Raleigh,Yes,35.83858573,-78.65819392,,,312f6db6-8e0d-4d94-8167-a96642aa9eed,2017-08-30T20:48:29.798Z,ben.strauss1,2017-09-22T13:49:58.463Z,ben.strauss1,No,No,No,No,No,No,No,No,No,No,No,No,No,No,No,No,,,,
-78.62404683491107,35.791095541376414,73,Oakwood Park,,,"910 Brookside Dr, Raleigh, NC","910 Brookside Dr, Raleigh, NC",http://www.raleighnc.gov/arts/content/PRecRecreation/Articles/OakwoodPark.html,919-831-6995,No,Yes,No,No,No,Yes,No,No,No,No,No,Yes,Yes,No,No,No,No,No,No,No,City of Raleigh,Yes,35.79108846,-78.62404423,,,81ea1343-ef59-432c-ab2c-2de990fc9570,2017-08-30T20:48:29.798Z,ben.strauss1,2017-09-22T13:49:58.463Z,ben.strauss1,No,No,No,No,No,No,Yes,No,No,No,No,No,No,No,No,No,,,,
-78.63213597739508,35.787857870304187,74,Oakwood Commons Park,,,"535 N East St, Raleigh, NC","535 N East St, Raleigh, NC",http://www.raleighnc.gov/arts/content/PRecParks/Articles/PlaygroundOakwoodCommons.html,919-831-6640,No,No,No,No,No,No,No,No,No,No,No,No,No,Yes,No,No,No,No,No,No,City of Raleigh,No,35.78785079,-78.63213337,,,0ea8335e-fd9e-493b-89f5-1c5ab755b6fe,2017-08-30T20:48:29.798Z,ben.strauss1,2017-09-22T13:49:58.463Z,ben.strauss1,No,No,No,No,No,No,No,No,No,No,No,No,No,No,No,No,,,,
-78.646734186080892,35.863500316819589,75,Optimist Park,,,"5900 Whittier Dr, Raleigh, NC","5900 Whittier Dr, Raleigh, NC",http://www.raleighnc.gov/arts/content/PRecRecreation/Articles/OptimistCommunityCenter.html,919-870-2880,No,Yes,No,No,No,No,No,No,Yes,Yes,No,No,No,Yes,Yes,Yes,No,Yes,No,Yes,City of Raleigh,Yes,35.86349322,-78.64673157,,,2b9ac443-f4b8-4a56-ae0f-cd41e7e1af23,2017-08-30T20:48:29.798Z,ben.strauss1,2017-09-22T13:49:58.463Z,ben.strauss1,No,No,No,No,No,No,No,No,No,No,No,No,No,No,No,No,,,,
-78.654972141950722,35.742249329875008,76,Peach Road Park,,,"911 Ileagnes Rd, Raleigh, NC","911 Ileagnes Rd, Raleigh, NC",http://www.raleighnc.gov/arts/content/PRecRecreation/Articles/PeachRoadMainPage.html,919-807-8545,No,No,No,No,No,No,No,No,No,No,Yes,Yes,No,Yes,No,Yes,Yes,No,No,No,City of Raleigh,No,35.74224226,-78.65496953,,,fc4b30c3-a0a3-4258-baa8-0ee49e2f4797,2017-08-30T20:48:29.798Z,ben.strauss1,2017-09-22T13:49:58.463Z,ben.strauss1,No,No,No,No,No,Yes,No,No,No,No,No,No,No,No,No,No,,,,
-78.679981622071267,35.794688160844181,77,Pollock Place Park,,,"3301 Pollock Pl, Raleigh, NC","3301 Pollock Pl, Raleigh, NC",http://www.raleighnc.gov/arts/content/PRecParks/Articles/PlaygroundPollockPlace.html,919-831-6640,No,No,No,No,No,No,No,No,No,No,No,No,No,Yes,No,No,No,No,No,No,City of Raleigh,No,35.79468108,-78.679979,,,a0d5ddbd-b9d5-4921-9073-0a3ff6b86c46,2017-08-30T20:48:29.798Z,ben.strauss1,2017-09-22T13:49:58.463Z,ben.strauss1,No,No,No,No,No,No,No,No,No,No,No,No,No,No,No,No,,,,
-78.638214537703263,35.773712237762474,78,Pope House,,,"511 S Wilmington St, Raleigh, NC","511 S Wilmington St, Raleigh, NC",http://www.raleighnc.gov/arts_parks/,919-996-2220,No,No,No,No,No,No,No,No,No,No,No,No,No,No,No,No,No,No,No,No,City of Raleigh,No,35.77370516,-78.63821193,,,f68e64d7-7f13-4457-b305-4e90a9f5f40c,2017-08-30T20:48:29.798Z,ben.strauss1,2017-09-22T13:49:58.463Z,ben.strauss1,No,No,No,No,No,No,No,No,No,No,No,No,No,No,Yes,No,,,,
-78.714174351802157,35.778929796353736,79,Powell Drive Park,,,"740 Powell Dr, Raleigh, NC","740 Powell Dr, Raleigh, NC",http://www.raleighnc.gov/arts/content/PRecRecreation/Articles/PowellDriveParkAndCenter.html,919-831-6640,No,No,No,No,No,No,No,No,No,No,No,Yes,Yes,Yes,No,Yes,Yes,Yes,No,No,City of Raleigh,No,35.77892272,-78.71417172,,,60773076-4729-4085-af14-af52e54b7a1b,2017-08-30T20:48:29.798Z,ben.strauss1,2017-09-22T13:49:58.463Z,ben.strauss1,No,No,No,No,No,No,No,No,No,No,No,No,No,No,No,No,,,,
-78.663932346736075,35.780914768196162,80,Pullen Park,Pullen Amusement Center,Pullen Aquatic Center,"410 Park Ave, Raleigh, NC","410 Park Ave, Raleigh, NC",http://www.raleighnc.gov/arts/content/PRecRecreation/Articles/PullenPark.html,919-996-6468,No,No,Yes,No,No,No,No,No,No,No,Yes,No,Yes,Yes,Yes,Yes,No,Yes,No,Yes,City of Raleigh,Yes,35.78090769,-78.66392973,,,345bc98e-5349-4bbe-ab84-fd2252f9686c,2017-08-30T20:48:29.798Z,ben.strauss1,2017-09-22T13:49:58.463Z,ben.strauss1,Yes,Yes,No,No,No,No,No,No,No,No,No,No,Yes,No,No,No,,,,
-78.623231003457192,35.768973237400203,81,Quarry Street Park,,,"731 Quarry St, Raleigh, NC","731 Quarry St, Raleigh, NC",http://www.raleighnc.gov/arts/content/PRecParks/Articles/PlaygroundQuarryStreet.html,919-831-6640,No,No,No,No,No,No,No,No,No,No,No,Yes,No,Yes,No,No,No,No,No,No,City of Raleigh,No,35.76896616,-78.6232284,,,b5870a49-596b-43ef-9e4e-4067cefe5c4e,2017-08-30T20:48:29.798Z,ben.strauss1,2017-09-22T13:49:58.463Z,ben.strauss1,No,No,No,No,No,No,No,No,No,No,No,No,No,No,No,No,,,,
-78.639499379491667,35.777650027861725,82,Raleigh City Museum,,,"220 Fayetteville St, Raleigh, NC","220 Fayetteville St, Raleigh, NC",http://www.raleighnc.gov/arts/content/PRecRecreation/Articles/HRMCityMuseum.html,919-996-2220,No,No,No,No,No,No,No,No,No,No,No,No,No,No,No,No,No,No,No,No,City of Raleigh,No,35.77764295,-78.63949677,,,29f13707-9e62-456b-b589-a0400f122f3a,2017-08-30T20:48:29.798Z,ben.strauss1,2017-09-22T13:49:58.463Z,ben.strauss1,No,No,No,No,No,No,No,No,No,No,No,No,No,No,Yes,No,,,,
-78.685094765275082,35.813842764331902,83,Ridge Road,,,"1709 Ridge Rd, Raleigh, NC","1709 Ridge Rd, Raleigh, NC",http://www.raleighnc.gov/arts_parks/,919-831-6640,No,No,No,No,No,No,No,No,No,No,No,No,No,No,Yes,No,No,No,No,No,City of Raleigh,No,35.81383568,-78.68509214,,,7c57a38f-972f-4347-b295-58f468eef153,2017-08-30T20:48:29.798Z,ben.strauss1,2017-09-22T13:49:58.463Z,ben.strauss1,No,No,No,No,No,No,No,No,No,No,No,No,No,No,No,No,,,,
-78.639937350510237,35.801691353342768,84,Roanoke Park,,,"1500 Cherokee Dr, Raleigh, NC","1500 Cherokee Dr, Raleigh, NC",http://www.raleighnc.gov/arts/content/PRecRecreation/Articles/RoanokePark.html,919-831-6640,No,No,No,No,No,No,No,No,No,No,No,Yes,Yes,Yes,No,No,No,No,No,No,City of Raleigh,No,35.80168427,-78.63993474,,,879a1d5e-1d64-4aef-9258-8eaa0fc2f29c,2017-08-30T20:48:29.798Z,ben.strauss1,2017-09-22T13:49:58.463Z,ben.strauss1,No,No,No,No,No,No,No,No,Yes,No,No,No,No,No,No,No,,,,
-78.61824990253703,35.775495248091708,85,Roberts Park,,,"1300 E Martin St, Raleigh, NC","1300 E Martin St, Raleigh, NC",http://www.raleighnc.gov/arts/content/PRecRecreation/Articles/RobertsCommunityCenterMain.html,919-831-6830,No,Yes,No,No,No,No,No,No,No,Yes,No,Yes,Yes,Yes,No,Yes,Yes,Yes,No,No,City of Raleigh,No,35.77548817,-78.6182473,,,9b4129ed-d5dd-4f8c-b50c-37fbe463ec58,2017-08-30T20:48:29.798Z,ben.strauss1,2017-09-22T13:49:58.463Z,ben.strauss1,No,No,No,No,No,No,No,No,No,No,No,No,No,No,No,No,,,,
-78.668784688237835,35.79160666066327,86,Rose Garden & Raleigh Little Theatre,,,"301 Pogue St, Raleigh, NC","301 Pogue St, Raleigh, NC",http://www.raleighlittletheatre.org/,919-996-6468,No,No,No,No,No,No,No,No,No,No,No,No,Yes,No,No,No,No,No,No,No,City of Raleigh,No,35.79159958,-78.66878207,,,1171f599-48c9-4c9e-962f-9704d70cd6a1,2017-08-30T20:48:29.798Z,ben.strauss1,2017-09-22T13:49:58.463Z,ben.strauss1,No,No,No,Yes,No,No,No,No,No,No,No,No,No,No,No,No,,,,
-78.64201688223099,35.821666828062874,87,Rothgeb Park,,,"2739 Rothgeb Dr, Raleigh, NC","2739 Rothgeb Dr, Raleigh, NC",http://www.raleighnc.gov/arts_parks/,919-831-6640,No,No,No,No,No,No,No,No,Yes,No,No,No,No,No,No,No,No,No,No,No,City of Raleigh,No,35.82165974,-78.64201427,,,7c872a37-c136-42d0-884d-b5ef9f15a200,2017-08-30T20:48:29.798Z,ben.strauss1,2017-09-22T13:49:58.463Z,ben.strauss1,No,No,No,No,No,No,No,No,No,No,No,No,No,No,No,No,,,,
-78.612297248734663,35.743090771552069,88,Sanderford Road Park,,,"2623 Sanderford Rd, Raleigh, NC","2623 Sanderford Rd, Raleigh, NC",http://www.raleighnc.gov/arts/content/PRecRecreation/Articles/SanderfordRoad.html,919-831-1898,No,Yes,No,No,No,No,No,No,No,No,No,Yes,Yes,Yes,No,Yes,Yes,Yes,No,Yes,City of Raleigh,No,35.7430837,-78.61229465,,,138ea80b-3cdb-4cb0-87de-1c1d68be1042,2017-08-30T20:48:29.798Z,ben.strauss1,2017-09-22T13:49:58.463Z,ben.strauss1,No,No,No,No,No,No,Yes,No,No,No,No,No,No,No,No,No,,,,
-78.660981788985623,35.856308443805197,89,Shelley Lake Park,,,"1400 W Millbrook Rd, Raleigh, NC","1400 W Millbrook Rd, Raleigh, NC",http://www.raleighnc.gov/arts/content/PRecRecreation/Articles/ShelleyLake.html,919-420-2329,No,No,No,No,No,No,No,Yes,Yes,No,Yes,No,No,No,No,No,No,No,No,No,City of Raleigh,Yes,35.85630135,-78.66097917,,,84f00690-5dc4-4d04-976e-a19ac1d5ab87,2017-08-30T20:48:29.798Z,ben.strauss1,2017-09-22T13:49:58.463Z,ben.strauss1,No,No,No,No,No,No,No,No,No,No,No,No,No,No,No,No,,,,
-78.607828078787378,35.755119514072241,90,Southgate Park,Sgt. Courtney T. Johnson Community Center,,"1801 Proctor Rd, Raleigh, NC","1801 Proctor Rd, Raleigh, NC",http://www.raleighnc.gov/arts/content/PRecRecreation/Articles/SgtCourtneyTJohnsonCommunityCenter.html,919-831-6719,No,Yes,No,No,No,No,No,No,No,No,No,Yes,Yes,Yes,No,Yes,Yes,No,No,No,City of Raleigh,No,35.75511244,-78.60782548,,,43e1df40-48bc-4340-ba0d-8fb7c2b67f25,2017-08-30T20:48:29.798Z,ben.strauss1,2017-09-22T13:49:58.463Z,ben.strauss1,No,No,No,No,No,No,No,No,Yes,No,No,No,No,No,No,No,,,,
-78.686082733554528,35.778308467079967,91,Spring Park,,,"1422 Collegeview Ave, Raleigh, NC","1422 Collegeview Ave, Raleigh, NC",http://www.raleighnc.gov/arts/content/PRecRecreation/Articles/SpringPark.html,919-831-6640,No,No,No,No,No,No,No,No,No,No,No,Yes,Yes,Yes,No,No,No,No,No,No,City of Raleigh,No,35.77830139,-78.68608011,,,490d92c8-24dc-4ccb-aafd-bb318345bf6e,2017-08-30T20:48:29.798Z,ben.strauss1,2017-09-22T13:49:58.463Z,ben.strauss1,No,No,No,No,No,No,No,No,No,No,No,No,No,No,No,No,,,,
-78.568835122034614,35.858885007969938,92,Spring Forest Road Park,,,"4203 Spring Forest Rd, Raleigh, NC","4203 Spring Forest Rd, Raleigh, NC",http://www.raleighnc.gov/arts/content/PRecRecreation/Articles/SpringForestRoadPark.html,919-872-4140,No,Yes,No,No,No,No,No,No,No,No,No,No,Yes,Yes,No,No,No,Yes,No,Yes,City of Raleigh,No,35.85887791,-78.56883253,,,f1dcc4f2-7c40-4449-a6c6-3730f1f7bd14,2017-08-30T20:48:29.798Z,ben.strauss1,2017-09-22T13:49:58.463Z,ben.strauss1,No,No,No,No,No,No,No,No,No,No,No,No,No,No,No,No,,,,
-78.71474177856139,35.910077473450833,93,Strickland Road Neighborhood Park,,,"12804 Strickland Rd, Raleigh, NC","12804 Strickland Rd, Raleigh, NC",http://www.raleighnc.gov/arts/content/PRecParks/Articles/PlaygroundStricklandRoad.html,919-831-6640,No,No,No,No,No,No,No,No,No,No,No,No,No,Yes,No,No,No,No,No,No,City of Raleigh,No,35.91007037,-78.71473914,,,9e0497cd-5539-464c-b459-5ba41851667f,2017-08-30T20:48:29.798Z,ben.strauss1,2017-09-22T13:49:58.463Z,ben.strauss1,No,No,No,No,No,No,No,No,No,No,No,No,No,No,No,No,,,,
-78.622864094728911,35.781210949852571,94,Tarboro Road Park,Saint Monica Teen Center,,"121 N Tarboro St, Raleigh, NC","121 N Tarboro St, Raleigh, NC",http://www.raleighnc.gov/arts/content/PRecRecreation/Articles/TarboroRdMainPage.html,919-831-6505,No,No,No,No,No,No,No,No,No,Yes,No,No,Yes,Yes,No,Yes,Yes,Yes,No,No,City of Raleigh,No,35.78120387,-78.62286149,,,27ac710d-6146-4ae0-b491-ac0fee3f3ebb,2017-08-30T20:48:29.798Z,ben.strauss1,2017-09-22T13:50:23.618Z,ben.strauss1,No,No,No,No,No,No,No,No,No,No,No,No,No,No,No,Yes,,,,
-78.634268047702577,35.785323410220279,95,Tucker House,,,"418 N Person St, Raleigh, NC","418 N Person St, Raleigh, NC",http://www.raleighnc.gov/arts/content/PRecRecreation/Articles/HRMTucker.html,919-831-6009,No,No,No,No,No,No,No,No,No,No,No,No,No,No,No,No,No,No,No,No,City of Raleigh,No,35.78531633,-78.63426544,,,721f657e-7a6c-4a4f-acb1-c75c2948cc7c,2017-08-30T20:48:29.798Z,ben.strauss1,2017-09-22T13:49:58.463Z,ben.strauss1,No,No,No,No,No,No,No,No,No,No,No,No,No,No,No,No,,,,
-78.629085286516357,35.784477459906547,96,Vallie Henderson Park,,,"314 Linden Ave, Raleigh, NC","314 Linden Ave, Raleigh, NC",http://www.raleighnc.gov/arts_parks/,919-831-6640,No,No,No,No,No,No,No,No,No,No,No,No,No,No,No,No,No,No,No,No,City of Raleigh,No,35.78447038,-78.62908268,,,b1f69083-edcf-461f-8b9b-2c8567ad9aa0,2017-08-30T20:48:29.798Z,ben.strauss1,2017-09-22T13:49:58.463Z,ben.strauss1,No,No,No,No,No,No,No,No,No,No,No,No,No,No,No,No,,,,
-78.672771042476583,35.833481579006822,97,Varnell Park,,,"2104 Varnell Ave, Raleigh, NC","2104 Varnell Ave, Raleigh, NC",http://www.raleighnc.gov/arts_parks/,919-831-6640,No,No,No,No,No,No,No,No,No,No,No,Yes,No,No,No,No,No,No,No,No,City of Raleigh,No,35.83347449,-78.67276842,,,5a8351dc-723e-4535-aae3-0be58522c651,2017-08-30T20:48:29.798Z,ben.strauss1,2017-09-22T13:49:58.463Z,ben.strauss1,No,No,No,No,No,No,No,No,No,No,No,No,No,No,No,No,,,,
-78.578909919811068,35.761011787227169,98,Walnut Creek Softball Complex,Walnut Creek Softball Complex,,"1201 Sunnybrook Rd, Raleigh, NC","1201 Sunnybrook Rd, Raleigh, NC",http://www.raleighnc.gov/arts_parks/,919-250-2725,No,Yes,No,No,No,No,No,No,Yes,No,No,No,No,No,No,No,No,No,No,No,City of Raleigh,No,35.76100471,-78.57890733,,,160fa098-3936-478f-9f36-94a278c528b6,2017-08-30T20:48:29.798Z,ben.strauss1,2017-09-22T13:49:58.463Z,ben.strauss1,No,No,No,No,No,No,No,No,No,No,No,No,No,No,No,No,,,,
-78.665657502374302,35.869595947237187,99,Williams Park,,,"1525 Lynn Rd, Raleigh, NC","1525 Lynn Rd, Raleigh, NC",http://www.raleighnc.gov/arts/content/PRecRecreation/Articles/WilliamsPark.html,919-420-2329,No,No,No,No,No,No,No,No,No,No,Yes,No,Yes,Yes,No,No,No,Yes,No,Yes,City of Raleigh,No,35.86958885,-78.66565488,,,896130e6-57bb-459f-946a-c9736b908fb8,2017-08-30T20:48:29.798Z,ben.strauss1,2017-09-22T13:49:58.463Z,ben.strauss1,No,No,No,No,No,No,No,No,Yes,No,No,No,No,No,No,No,,,,
-78.673822320997473,35.807330303117162,100,Windemere Beaver Dam Park,,,"1500 Nottingham Rd, Raleigh, NC","1500 Nottingham Rd, Raleigh, NC",http://www.raleighnc.gov/arts/content/PRecRecreation/Articles/WindemereBeaverDamPark.html,919-831-6640,No,No,No,No,No,No,No,No,Yes,No,No,No,No,Yes,No,No,No,No,No,Yes,City of Raleigh,No,35.80732322,-78.6738197,,,73677aa7-dbeb-40c1-bf90-cf6336b6c329,2017-08-30T20:48:29.798Z,ben.strauss1,2017-09-22T13:49:58.463Z,ben.strauss1,No,No,No,No,No,No,No,No,No,No,No,No,No,No,No,No,,,,
-78.694758169517428,35.860403143539855,101,Wooten Meadows Park,,,"2801 West Millbrook Rd, Raleigh, NC","2801 West Millbrook Rd, Raleigh, NC",http://www.raleighnc.gov/arts/content/PRecParks/Articles/PlaygroundWootenMeadows.html,919-831-6640,No,No,No,No,No,No,No,No,No,No,Yes,No,No,Yes,No,No,No,No,No,No,City of Raleigh,No,35.86039605,-78.69475554,,,ac2a88b2-7bd1-447c-b4b3-87528f6c5937,2017-08-30T20:48:29.798Z,ben.strauss1,2017-09-22T13:49:58.463Z,ben.strauss1,No,No,No,No,No,No,No,No,No,No,No,No,No,No,No,No,,,,
-78.585819532423812,35.76291737684565,102,Worthdale Park,,,"1001 Cooper Rd, Raleigh, NC","1001 Cooper Rd, Raleigh, NC",http://www.raleighnc.gov/arts/content/PRecRecreation/Articles/WorthdaleMainPage.html,919-250-2730,No,Yes,No,No,No,No,No,No,Yes,Yes,No,Yes,No,Yes,No,Yes,No,Yes,No,Yes,City of Raleigh,Yes,35.7629103,-78.58581694,,,b0e39f9c-8ef7-4ea7-bb6e-62582d2f79ba,2017-08-30T20:48:29.798Z,ben.strauss1,2017-09-22T13:49:58.463Z,ben.strauss1,,No,No,No,No,No,No,No,No,No,No,No,No,No,No,No,,,,
-78.530866420338342,35.847674456636568,103,Buffaloe Road Canoe Launch,,,"4901 Elizabeth Dr, Raleigh, NC","4901 Elizabeth Dr, Raleigh, NC",http://www.raleighnc.gov/arts_parks/,919-831-6610,No,No,No,Yes,No,No,No,No,Yes,No,No,No,No,No,No,No,No,No,No,No,City of Raleigh,No,35.84766736,-78.53086384,,,96201605-e717-4164-9a37-c4bcd09a8e34,2017-08-30T20:48:29.798Z,ben.strauss1,2017-09-22T13:49:58.463Z,ben.strauss1,No,No,No,No,No,No,No,No,No,No,No,No,No,No,No,No,,,,
-78.625015353335982,35.760614655242676,104,Walnut Creek Wetland Center,Walnut Creek Park,,"950 Peterson St, Raleigh, NC","950 Peterson St, Raleigh, NC",http://www.raleighnc.gov/arts/content/PRecRecreation/Articles/WalnutCreekWetlandCenter.html,919-831-1960,No,No,No,No,No,No,Yes,No,Yes,No,No,No,No,No,No,No,No,No,No,No,City of Raleigh,Yes,35.76060758,-78.62501275,,,33a12fe7-d5be-435f-b451-dbdf5aa81a9a,2017-08-30T20:48:29.798Z,ben.strauss1,2017-09-22T13:49:58.463Z,ben.strauss1,No,No,No,No,No,No,No,No,No,No,No,No,No,No,No,No,,,,
-78.635622439795867,35.808391674661003,105,Five Points Center for Active Adults,,,"2000 Noble Rd, Raleigh, NC","2000 Noble Rd, Raleigh, NC",http://www.raleighnc.gov/arts/content/PRecRecreation/Articles/AdultFivePointsCenter.html,919-996-4730,No,No,No,No,No,No,No,No,No,No,No,No,No,No,No,No,No,No,No,No,City of Raleigh,No,35.80838459,-78.63561983,,,2e88de98-7475-4d4b-a1ce-4a87fa30549d,2017-08-30T20:48:29.798Z,ben.strauss1,2017-09-22T13:49:58.463Z,ben.strauss1,No,No,No,No,No,No,No,No,No,No,Yes,No,No,No,No,No,,,,
-78.663091505881184,35.784336318640307,106,Pullen Arts Center,Pullen Park,,"105 Pullen Rd, Raleigh, NC","105 Pullen Rd, Raleigh, NC",http://www.raleighnc.gov/arts/content/PRecRecreation/Articles/PullenArtsCenter.html,919-996-6126,Yes,Yes,No,No,No,No,No,No,No,No,No,No,No,No,No,No,No,No,No,Yes,City of Raleigh,No,35.78432924,-78.66308889,,,f5310eff-3314-4e69-b13d-e5c8ae627b75,2017-08-30T20:48:29.798Z,ben.strauss1,2017-09-22T13:49:58.463Z,ben.strauss1,No,No,No,No,No,No,No,No,No,No,No,No,No,No,No,No,,,,
-78.664471791102216,35.858775234191739,107,Sertoma Arts Center,,,"1400 W Millbrook Rd, Raleigh, NC","1400 W Millbrook Rd, Raleigh, NC",http://www.raleighnc.gov/arts/content/PRecRecreation/Articles/SertomaArtsCenter.html,919-420-2329,Yes,No,No,No,No,No,No,Yes,Yes,No,No,Yes,No,Yes,No,No,No,No,No,No,City of Raleigh,Yes,35.85876814,-78.66446917,,,e674fede-a71c-4e40-aea1-dbe204774705,2017-08-30T20:48:29.798Z,ben.strauss1,2017-09-22T13:49:58.463Z,ben.strauss1,No,No,No,No,No,No,No,No,No,No,No,No,No,No,No,No,,,,
-78.715892891808821,35.767351342897975,108,Lake Johnson Pool,,,"1416 Athens Dr, Raleigh, NC","1416 Athens Dr, Raleigh, NC",http://www.raleighnc.gov/arts_parks/,919-233-2111,No,No,No,No,No,No,No,No,Yes,No,No,No,No,No,Yes,No,No,No,No,No,City of Raleigh,Yes,35.76734427,-78.71589026,,,abc78f4c-4f5b-400b-88ce-8db3f4262ec1,2017-08-30T20:48:29.798Z,ben.strauss1,2017-09-22T13:49:58.463Z,ben.strauss1,No,No,No,No,No,No,No,No,No,No,No,No,No,No,No,No,,,,
-78.602438594496988,35.713963066334323,109,Creech Road Elementary School Park,,,"400 Creech Road, Garner NC, 27529","400 Creech Road, Garner NC, 27529",http://www.garnernc.gov/Departments/Parks%20and%20Recreation/Parks.aspx?ID=2,919-773-4442,No,Yes,No,No,No,No,No,No,Unknown,No,No,No,Yes,Yes,No,No,No,No,No,Yes,Town of Garner,Yes,35.713956,-78.602436,,,19b2d192-7c4a-4196-875c-84c588a20306,2017-08-30T20:48:29.798Z,ben.strauss1,2017-09-22T13:49:58.463Z,ben.strauss1,No,No,No,No,No,No,No,No,No,No,No,No,No,No,No,No,,,,
-78.604602592950911,35.669366056022866,110,Centennial Park,,,"1015 New Bethel Church Road, Garner NC, 27529","1015 New Bethel Church Road, Garner NC, 27529",http://www.garnernc.gov/Departments/Parks%20and%20Recreation/Parks.aspx?ID=1,919-773-4442,No,Yes,No,No,No,No,No,No,,No,No,No,Yes,Yes,No,No,No,No,No,Yes,Town of Garner,Yes,35.669359,-78.6046,,,7c4e87ba-af38-4f48-924c-af502612a167,2017-08-30T20:48:29.798Z,ben.strauss1,2017-09-22T13:49:58.463Z,ben.strauss1,No,No,No,No,No,No,No,No,No,No,No,No,No,No,No,No,,,,
-78.496203364097369,35.982091581477995,111,Ailey Young Park,,,"800 E Juniper Ave, Wake Forest, NC","800 E Juniper Ave, Wake Forest, NC",http://www.wakeforestnc.gov/ailey-young-park.aspx,919-435-9560,No,Yes,No,No,No,No,No,No,No,No,No,Yes,Yes,Yes,No,No,No,No,No,No,Town of Wake Forest,Yes,35.981442,-78.492038,,,7506fb28-1001-4bba-bf08-8d0850c2252d,2017-08-30T20:48:29.798Z,ben.strauss1,2017-09-26T16:52:45.554Z,twfgis,No,No,No,No,No,No,No,No,No,No,No,No,No,No,No,No,,,,
-78.49116257485322,35.992112129762234,112,J.B. Flaherty Park,,,"1226 N White St, Wake Forest, NC","1226 N White St, Wake Forest, NC",http://www.wakeforestnc.gov/residents-parksrecreation_facilities_flaherty.aspx,919-435-9560,No,Yes,No,No,No,Yes,No,Yes - Bank fishing only,Yes,Yes,No,Yes,Yes,No,No,Yes,No,Yes,No,Yes,Town of Wake Forest,Yes,35.992105,-78.49116,,,3e4c879c-317d-498a-ab8b-35ef19da5ecb,2017-08-30T20:48:29.798Z,ben.strauss1,2017-09-26T16:44:52.982Z,twfgis,No,No,No,No,No,No,No,No,No,No,No,No,No,No,No,No,,,,
-78.515215905028896,35.997484525826252,113,E. Carroll Joyner Park,,,"701 Harris Rd, Wake Forest, NC","701 Harris Rd, Wake Forest, NC",http://www.wakeforestnc.gov/joyner-park.aspx,919-435-9560,No,No,No,No,No,No,No,Yes Bank fishing only,Yes,No,No,No,Yes,No,No,No,No,No,No,Yes,Town of Wake Forest,Yes,35.998519,-78.51487,,,260e3631-67ff-4f3f-a1ae-752b3c8e4ee6,2017-08-30T20:48:29.798Z,ben.strauss1,2017-09-26T17:05:43.855Z,twfgis,No,No,No,No,No,No,No,No,No,No,No,No,No,No,No,No,,,,
-78.503853052529053,35.983230709692776,114,Taylor Street Park,,,"416 N Taylor St, Wake Forest, NC","416 N Taylor St, Wake Forest, NC",http://www.wakeforestnc.gov/residents-parksrecreation_facilities_taylor.aspx,919-435-9560,No,No,No,No,No,No,No,No,No,No,No,No,Yes,Yes,No,Yes,No,No,No,No,Town of Wake Forest,Yes,35.982694,-78.504344,Park has a Sprayground,,6c6ffbcc-fe2d-46b6-b390-da25bc71a19b,2017-08-30T20:48:29.798Z,ben.strauss1,2017-09-26T16:57:56.621Z,twfgis,No,No,No,No,No,No,No,No,No,No,No,No,No,No,No,No,,,,
-78.502052052258904,35.954718475718977,115,Smith Creek Soccer Center,,,"690 Heritage Lake Rd, Wake Forest, NC","690 Heritage Lake Rd, Wake Forest, NC",http://www.wakeforestnc.gov/smith-creek-soccer-center.aspx,919-435-9560,No,No,No,No,No,No,No,No,Yes,No,Yes,No,Yes,Yes,No,No,No,No,No,No,Town of Wake Forest,No,35.955823,-78.501277,,,e741d90c-4ae1-4d88-9a25-12c9342e14eb,2017-08-30T20:48:29.798Z,ben.strauss1,2017-09-26T17:05:55.094Z,twfgis,No,No,No,No,No,No,No,No,No,No,No,No,No,No,No,No,,,,
-78.509443680715933,35.969528037680163,116,Wake Forest - Kiwanis Park,,,"404 E Holding Ave, Wake Forest, NC","404 E Holding Ave, Wake Forest, NC",http://www.wakeforestnc.gov/kiwanis-park.aspx,919-435-9560,No,No,No,No,No,No,No,No,No,No,No,No,Yes,Yes,No,No,No,No,No,No,Town of Wake Forest,No,35.970094,-78.509999,,,66b1167c-19a3-468f-8dcf-121e2c6c6767,2017-08-30T20:48:29.798Z,ben.strauss1,2017-09-26T17:04:19.264Z,twfgis,No,No,No,No,No,No,No,No,No,No,No,No,No,No,No,No,,,,
-78.522494583847106,35.971823123838149,117,Tyler Run Park,,,"830 Pineview Dr, Wake Forest, NC","830 Pineview Dr, Wake Forest, NC",http://www.wakeforestnc.gov/tyler-run-park.aspx,919-435-9560,No,Yes,No,No,No,No,No,No,Yes,No,No,Yes,Yes,Yes,No,No,No,No,No,No,Town of Wake Forest,No,35.971816,-78.522492,,,bd804769-862d-42e6-ad9d-3dd0faad55cf,2017-08-30T20:48:29.798Z,ben.strauss1,2017-09-26T17:00:24.038Z,twfgis,No,No,No,No,Yes,No,No,No,No,No,No,No,No,No,No,No,,,,
-78.507252400442042,35.97515317257151,118,H.L. Miller Park,,,"401 Elm Ave, Wake Forest, NC","401 Elm Ave, Wake Forest, NC",http://www.wakeforestnc.gov/miller-park.aspx,919-435-9560,No,No,No,No,No,No,No,No,Yes,No,No,No,No,No,No,No,No,No,No,Yes,Town of Wake Forest,No,35.97512,-78.507856,,,c86a1920-5fc7-43d2-960b-929c46afc646,2017-08-30T20:48:29.798Z,ben.strauss1,2017-09-26T17:03:17.491Z,twfgis,No,No,No,No,No,No,No,No,No,No,No,No,No,No,No,No,,,,
-78.513538581739439,35.97766612583289,119,Holding Park,,,"133 W Owen Ave, Wake Forest, NC","133 W Owen Ave, Wake Forest, NC",http://www.wakeforestnc.gov/holding-park.aspx,919-435-9560,No,Yes,No,No,No,No,No,No,No,No,No,Yes,Yes,Yes,Yes,Yes,No,Yes,No,Yes,Town of Wake Forest,No,35.977659,-78.513536,,,ce88f6cc-c575-488b-a6a1-0e0f82f245d4,2017-08-30T20:48:29.798Z,ben.strauss1,2017-09-22T13:49:58.463Z,ben.strauss1,No,No,No,No,No,No,No,No,No,No,No,No,No,No,No,No,,,,
-78.548742591250218,35.969300122066905,120,Plummer Park,,,"965 Jones Wynd, Wake Forest, NC","965 Jones Wynd, Wake Forest, NC",http://www.wakeforestnc.gov/plummer-park.aspx,919-435-9560,No,No,No,No,No,No,No,No,No,No,No,No,Yes,Yes,No,No,No,No,No,No,Town of Wake Forest,No,35.969293,-78.54874,,,f3405cc0-a262-4b12-af9f-4952df5000d9,2017-08-30T20:48:29.798Z,ben.strauss1,2017-09-22T13:49:58.463Z,ben.strauss1,No,No,No,No,No,No,No,No,No,No,No,No,No,No,No,No,,,,
-78.50829371449089,35.938168702343965,121,Heritage High Park,,,"1140 Forestville Rd, Wake Forest, NC","1140 Forestville Rd, Wake Forest, NC",http://www.wakeforestnc.gov/heritage-high-park.aspx,919-435-9560,No,Yes,No,No,No,No,No,No,No,No,Yes,No,No,No,No,No,No,Yes,No,No,Town of Wake Forest,Yes,35.937762,-78.507347,,,df63cb7f-aebd-40d8-a440-b6290d17653c,2017-08-30T20:48:29.798Z,ben.strauss1,2017-09-26T17:18:19.858Z,twfgis,No,No,No,No,No,No,No,No,No,No,No,No,No,No,No,No,,,,
-78.812982202502923,35.761128596183454,122,Annie L. Jones Park,,,"1414 Tarbert Drive, Cary, NC","1414 Tarbert Drive, Cary, NC",http://www.townofcary.org/recreation-enjoyment/parks-greenways-environment/parks/annie-jones-park,,No,Yes,No,No,No,No,No,No,Yes,No,No,Yes,No,Yes,No,No,No,Yes,No,No,Town of Cary,Yes,35.761226,-78.813001,,,ab3d95f0-a2d4-4ee7-a468-b8e20b2440e0,2017-08-30T20:48:29.798Z,ben.strauss1,2017-09-22T13:49:58.463Z,ben.strauss1,No,No,No,No,No,No,No,No,No,No,No,No,,No,No,No,,,,
-78.790478552508603,35.802117905732331,123,Black Creek Greenway Trailhead,,,"2055 NW Maynard Road, Cary, NC","2055 NW Maynard Road, Cary, NC",http://www.townofcary.org/recreation-enjoyment/parks-greenways-environment/greenways/black-creek-greenway,,No,No,No,No,No,No,No,No,Yes,No,No,No,No,No,No,No,No,No,No,No,Town of Cary,No,35.801406,-78.791817,,,a605ca49-5b9d-4119-a2a1-fa3e5233cb1c,2017-08-30T20:48:29.798Z,ben.strauss1,2017-09-22T16:53:16.514Z,Pam.Simons_carync,No,No,No,No,No,No,No,No,No,No,No,No,No,No,No,No,,,,
-78.781285158128611,35.782674257960579,124,Cary Arts Center,,,"316 N Academy Street, Cary, NC","316 N Academy Street, Cary, NC",http://www.townofcary.org/Departments/Parks__Recreation___Cultural_Resources/Fac,,No,No,No,No,No,No,No,No,No,No,No,No,No,No,No,No,No,No,No,No,Town of Cary,No,35.789595,-78.78062,,,881b28c9-ae9a-4bce-b044-0966e757916c,2017-08-30T20:48:29.798Z,ben.strauss1,2017-09-22T13:49:58.463Z,ben.strauss1,No,No,No,No,No,No,No,No,No,No,No,No,No,No,No,No,,,,
-78.766251647585463,35.771515072572377,125,Cary High School Softball Field,,,"638 Walnut Street, Cary, NC","638 Walnut Street, Cary, NC",http://games.townofcarync.gov/ballfields/displaystatus.php,,No,No,No,No,No,No,No,No,No,No,No,No,No,No,No,No,No,No,No,No,Town of Cary,No,35.771508,-78.766249,,,284e1f4a-6ccc-41eb-a78e-760bfd81d1db,2017-08-30T20:48:29.798Z,ben.strauss1,2017-09-22T14:44:02.423Z,ben.strauss1,No,No,No,No,No,No,No,No,No,No,No,No,No,No,No,No,,,,
-78.862396914620049,35.803694388438863,127,Cary Tennis Park,,,"2727 Louis Stephens Drive, Cary, NC","2727 Louis Stephens Drive, Cary, NC",http://www.townofcary.org/recreation-enjoyment/facilities/cary-tennis-park,919-462-2061,No,No,No,No,No,No,No,No,No,No,No,No,No,No,No,No,No,Yes,No,No,Town of Cary,Yes,35.804949,-78.862641,,,63044229-fb60-4a2e-932e-5a2cbe154ae2,2017-08-30T20:48:29.798Z,ben.strauss1,2017-09-22T15:26:53.201Z,Pam.Simons_carync,No,No,No,No,No,No,No,No,No,No,No,No,No,No,No,No,,,,
-78.844876670606382,35.772795070283564,128,Davis Drive Park,,,"1610 Davis Drive, Cary, NC","1610 Davis Drive, Cary, NC",http://www.townofcary.org/Departments/Parks__Recreation___Cultural_Resources/Parks_and_Greenways/Parks/Davis_Drive_Park.htm,,No,No,No,No,No,No,No,No,Yes,No,No,Yes,Yes,No,No,No,No,No,No,No,Town of Cary,Yes,35.772788,-78.844874,,,7c27bcdb-b5aa-422f-89dd-e866737fc88c,2017-08-30T20:48:29.798Z,ben.strauss1,2017-09-22T13:49:58.463Z,ben.strauss1,No,No,No,No,No,No,No,No,No,No,No,No,No,No,No,No,,,,
-78.851763115092922,35.778913969620213,129,Davis Drive School Fields,,,"2101 Davis Drive, Cary, NC","2101 Davis Drive, Cary, NC",http://games.townofcarync.gov/ballfields/displaystatus.php,,No,No,No,No,No,No,No,No,No,No,No,No,No,Yes,No,No,No,No,No,No,Town of Cary,No,35.778698,-78.851224,,,3004e0d6-7c20-4c1b-ad63-630f92ef02aa,2017-08-30T20:48:29.798Z,ben.strauss1,2017-09-22T14:44:04.159Z,ben.strauss1,No,No,No,No,No,No,No,No,No,No,No,No,No,No,No,No,,,,
-78.790513654163036,35.777505072987353,130,Dorothy Park,,,"720 Griffis Street, Cary, NC","720 Griffis Street, Cary, NC",http://www.townofcary.org/Departments/Parks__Recreation___Cultural_Resources/Parks_and_Greenways/Parks/Dorothy_Park.htm,,No,No,No,No,No,No,No,No,No,No,No,No,No,No,No,No,No,No,No,No,Town of Cary,No,35.777498,-78.790511,,,a8fa6de4-0c0d-4972-92d1-d3017af560d9,2017-08-30T20:48:29.798Z,ben.strauss1,2017-09-22T13:49:58.463Z,ben.strauss1,No,No,No,No,No,No,No,No,No,No,No,No,No,No,No,No,,,,
-78.825243160939763,35.781585839977964,131,Fred G. Bond Metro Park,,,"801 High House Road, Cary, NC","801 High House Road, Cary, NC",http://www.townofcary.org/Departments/Parks__Recreation___Cultural_Resources/Parks_and_Greenways/Parks/Fred_G__Bond_Metro_Park.htm,,No,Yes,Yes,No,No,No,No,Yes,Yes,No,Yes,No,Yes,No,No,Yes,No,No,No,Yes,Town of Cary,Yes,35.790665,-78.833094,,,646d4f7d-32a9-4963-93b2-4a93daa5ad55,2017-08-30T20:48:29.798Z,ben.strauss1,2017-09-22T13:49:58.463Z,ben.strauss1,No,No,No,No,No,No,No,No,No,No,No,No,No,No,No,No,,,,
-78.860095688405863,35.805038893460384,132,Green Hope Elementary Park,,,"2750 Louis Stephens Drive, Cary, NC","2750 Louis Stephens Drive, Cary, NC",http://www.townofcary.org/recreation-enjoyment/parks-greenways-environment/parks/green-hope-elementary-park,,No,No,No,No,No,No,No,No,No,No,Yes,Yes,Yes,Yes,No,No,No,No,No,Yes,Town of Cary,Yes,35.810583,-78.86314,Sand Volleyball Courts,,928fc0cc-1939-420f-b719-f3720bea1da0,2017-08-30T20:48:29.798Z,ben.strauss1,2017-09-22T20:09:38.105Z,ben.strauss1,No,No,No,No,No,No,No,No,Yes,No,No,No,No,No,No,No,,,,
-78.86828363189403,35.806601719032216,133,Green Hope High School Fields,,,"2500 Carpenter Upchurch Road, Cary, NC","2500 Carpenter Upchurch Road, Cary, NC",http://games.townofcarync.gov/ballfields/displaystatus.php,,No,Yes,No,No,No,No,No,No,No,No,No,No,No,No,No,No,No,No,No,No,Town of Cary,No,35.80475,-78.866736,,,86800e29-23b7-4068-b96a-fc7bfddc3cef,2017-08-30T20:48:29.798Z,ben.strauss1,2017-09-22T15:19:25.935Z,Pam.Simons_carync,No,No,No,No,No,No,No,No,No,No,No,No,No,No,No,No,,,,
-78.782165871978847,35.727372076328159,134,Harold D. Ritter Park,,,"301 Lochmere Drive West, Cary, NC","301 Lochmere Drive West, Cary, NC",http://www.townofcary.org/Departments/Parks__Recreation___Cultural_Resources/Parks_and_Greenways/Parks/Harold_D__Ritter_Park.htm,,No,Yes,No,No,No,No,No,No,Yes,No,Yes,Yes,Yes,No,No,No,No,No,No,No,Town of Cary,Yes,35.729255,-78.781262,,,3a8ee3ad-d9ad-4eee-87d5-559ccc0f9f4b,2017-08-30T20:48:29.798Z,ben.strauss1,2017-09-22T13:49:58.463Z,ben.strauss1,No,No,No,No,No,No,No,No,No,No,No,No,No,No,No,No,,,,
-78.786825654053189,35.782567074105003,135,Heater Park,,,"400 S West Street, Cary, NC","400 S West Street, Cary, NC",http://www.townofcary.org/Departments/Parks__Recreation___Cultural_Resources/Parks_and_Greenways/Parks/Heater_Park.htm,,No,No,No,No,No,No,No,No,No,No,No,No,No,Yes,No,No,No,No,No,No,Town of Cary,No,35.78256,-78.786823,,,043f263d-5d19-47d4-b6a0-ca2854e78552,2017-08-30T20:48:29.798Z,ben.strauss1,2017-09-22T13:49:58.463Z,ben.strauss1,No,No,No,No,No,No,No,No,No,No,No,No,No,No,No,No,,,,
-78.78295764967433,35.723519061907147,136,Hemlock Bluffs Nature Preserve,,,"2616 Kildaire Farm Road, Cary, NC","2616 Kildaire Farm Road, Cary, NC",http://www.townofcary.org/Departments/Parks__Recreation___Cultural_Resources/Parks_and_Greenways/Parks/Stevens_Nature_Center_At_Hemlock_Bluffs_Nature_Preserve.htm,,No,No,No,No,No,No,Yes,No,No,No,No,No,No,No,No,No,No,No,No,Yes,Town of Cary,Yes,35.723512,-78.782955,,,5faa3996-6d63-4842-a3ee-d5a22c834987,2017-08-30T20:48:29.798Z,ben.strauss1,2017-09-22T13:49:58.463Z,ben.strauss1,No,No,No,No,No,No,No,No,No,No,No,No,No,No,No,No,,,,
-78.780547550646432,35.790602904168701,137,Herbert C. Young Community Center,,,"316 North Academy Street, Cary, NC","316 North Academy Street, Cary, NC",http://www.townofcary.org/Departments/Parks__Recreation___Cultural_Resources/Facilities/Community_Centers/Herbert_C__Young_Community_Center.htm,,No,No,No,No,No,No,No,No,No,No,No,No,No,No,No,Yes,No,No,No,No,Town of Cary,No,35.789595,-78.78062,,,a31ff9ca-a43f-41f8-ace1-f4bfef021e29,2017-08-30T20:48:29.798Z,ben.strauss1,2017-09-22T13:49:58.463Z,ben.strauss1,No,No,No,No,No,No,No,No,No,No,No,No,No,No,No,No,,,,
-78.795417111275853,35.729048705444931,138,Koka Booth Amphitheatre,,,"8003 Regency Parkway, Cary, NC","8003 Regency Parkway, Cary, NC",http://boothamphitheatre.com/,,No,No,No,No,No,No,No,No,Yes,No,No,No,No,No,No,No,No,No,No,Yes,Town of Cary,Yes,35.728911,-78.795393,,,c4a4a2ee-8098-4616-8f07-42efc278fcce,2017-08-30T20:48:29.798Z,ben.strauss1,2017-09-22T14:42:44.001Z,ben.strauss1,No,No,No,Yes,No,No,No,No,No,No,No,No,No,No,No,No,,,,
-78.790674844061542,35.789585929744057,139,Lexie Lane Park,,,"301 N Dixon Street, Cary, NC","301 N Dixon Street, Cary, NC",http://www.townofcary.org/Departments/Parks__Recreation___Cultural_Resources/Parks_and_Greenways/Parks/Lexie_Lane_Park.htm,,No,Yes,No,No,No,No,No,No,No,No,No,Yes,No,No,No,No,No,No,No,No,Town of Cary,Yes,35.788974,-78.789374,,,498ec21e-867c-4792-a428-1c0d9e1692ca,2017-08-30T20:48:29.798Z,ben.strauss1,2017-09-22T13:49:58.463Z,ben.strauss1,No,No,No,No,No,No,No,No,No,No,No,No,No,No,No,No,,,,
-78.769936648450908,35.773944072669906,140,Lion's Park,,,"815 Tanglewood Drive, Cary, NC","815 Tanglewood Drive, Cary, NC",http://www.townofcary.org/Departments/Parks__Recreation___Cultural_Resources/Parks_and_Greenways/Parks/Lions_Park.htm,,No,Yes,No,No,No,No,No,No,No,No,No,No,No,Yes,No,No,No,No,No,No,Town of Cary,Yes,35.773937,-78.769934,,,cde7b2e7-e6fd-4988-8fa6-677d2419cb28,2017-08-30T20:48:29.798Z,ben.strauss1,2017-09-22T13:49:58.463Z,ben.strauss1,No,No,No,No,No,No,No,No,No,No,No,No,No,No,No,No,,,,
-78.767051544986401,35.753305068548258,141,MacDonald Woods Park,,,"1601 Seabrook Avenue, Cary, NC","1601 Seabrook Avenue, Cary, NC",http://www.townofcary.org/Departments/Parks__Recreation___Cultural_Resources/Parks_and_Greenways/Parks/MacDonald_Woods_Park.htm,,No,No,No,No,No,No,No,No,Yes,No,Yes,Yes,No,No,No,No,No,No,No,No,Town of Cary,No,35.753298,-78.767124,,,4f225e45-25e1-4e11-81ad-2cc95866b6a1,2017-08-30T20:48:29.798Z,ben.strauss1,2017-09-22T13:49:58.463Z,ben.strauss1,No,No,No,No,No,No,No,No,No,No,No,No,No,No,No,No,,,,
-78.764142340149746,35.746939062406504,142,Marla Dorrel Park,,,"111 Thurston Drive, Cary, NC","111 Thurston Drive, Cary, NC",http://www.kidstogethercary.org/,,No,No,No,No,No,No,No,No,Yes,No,Yes,Yes,Yes,Yes,No,No,No,No,No,No,Town of Cary,Yes,35.745234,-78.763732,,,000c12d1-eb9b-48a0-bc93-255b5c753ddf,2017-08-30T20:48:29.798Z,ben.strauss1,2017-09-22T13:49:58.463Z,ben.strauss1,No,No,No,No,No,No,No,No,No,No,No,No,No,No,No,No,,,,
-78.764792335569879,35.666548247614692,143,Middle Creek School Park,,,"151 Middle Creek Park Avenue, Cary, NC","151 Middle Creek Park Avenue, Cary, NC",http://www.townofcary.org/Departments/Parks__Recreation___Cultural_Resources/Parks_and_Greenways/Parks/Middle_Creek_School_Park.htm,,No,Yes,No,No,Yes,No,No,No,No,No,Yes,Yes,Yes,Yes,No,Yes,No,Yes,No,Yes,Town of Cary,Yes,35.665164,-78.765015,,,95c95625-0d6a-48e2-af29-d1ea52979f7a,2017-08-30T20:48:29.798Z,ben.strauss1,2017-09-22T13:49:58.463Z,ben.strauss1,No,No,No,No,No,No,No,No,No,No,No,No,No,No,No,No,,,,
-78.897715341239632,35.815095846827553,144,Mills Park,,,"425 Mills Park Drive, Cary, NC","425 Mills Park Drive, Cary, NC",http://www.townofcary.org/recreation-enjoyment/parks-greenways-environment/parks/mills-school-park,,No,Yes,No,No,No,No,No,No,Yes,No,Yes,Yes,No,Yes,No,No,No,No,No,No,Town of Cary,Yes,35.812644,-78.902605,,,8f9f7735-0bd9-406d-aa5a-3e11225e9f4f,2017-08-30T20:48:29.798Z,ben.strauss1,2017-09-22T15:01:01.868Z,Pam.Simons_carync,No,No,No,No,No,No,No,No,No,No,No,No,No,No,No,No,,,,
-78.787317655862878,35.821397082051355,145,North Cary Park,,,"1100 Norwell Boulevard, Cary, NC","1100 Norwell Boulevard, Cary, NC",http://www.townofcary.org/recreation-enjoyment/parks-greenways-environment/parks/north-cary-park,,No,No,No,No,No,No,No,No,Yes,No,No,Yes,Yes,Yes,No,No,No,No,No,Yes,Town of Cary,Yes,35.82139,-78.787315,"Sand Volleyball Courts, Climbing Boulders",,3a960b2d-4d12-4929-a3b8-3a556130bb04,2017-08-30T20:48:29.798Z,ben.strauss1,2017-09-22T20:09:14.569Z,ben.strauss1,No,No,No,No,No,No,No,No,Yes,No,No,No,No,No,No,No,,,,
-78.779388836352126,35.788731780153306,146,Page-Walker Arts & History Center,,,"316 North Academy Street, Cary, NC","316 North Academy Street, Cary, NC",http://www.townofcary.org/Departments/Parks__Recreation___Cultural_Resources/Facilities/Cultural_Arts_Centers/Page-Walker_Arts___History_Center.htm,,Yes,No,No,No,No,No,No,No,No,No,No,No,No,Yes,No,No,No,No,No,No,Town of Cary,No,35.789595,-78.78062,,,7229943d-b0b7-4a9e-9ffc-b4e8e5f81eae,2017-08-30T20:48:29.798Z,ben.strauss1,2017-09-22T13:49:58.463Z,ben.strauss1,No,No,No,No,No,No,No,No,No,No,No,No,No,No,No,No,,,,
-78.831809208606927,35.789209992004238,147,Preston Soccer Fields,,,"801 High House Road, Cary, NC","801 High House Road, Cary, NC",http://games.townofcarync.gov/ballfields/displaystatus.php,,No,No,No,No,No,No,No,No,Yes,No,No,No,No,No,No,No,No,No,No,Yes,Town of Cary,No,35.790665,-78.833094,,,16129bbd-c8aa-4d19-b2ad-178b859fa273,2017-08-30T20:48:29.798Z,ben.strauss1,2017-09-22T14:44:07.012Z,ben.strauss1,No,No,No,No,No,No,No,No,No,No,No,No,No,No,No,No,,,,
-78.770063749693122,35.777959665262429,148,R.S. Dunham Park,,,"519 Walnut Street, Cary, NC","519 Walnut Street, Cary, NC",http://www.townofcary.org/Departments/Parks__Recreation___Cultural_Resources/Parks_and_Greenways/Parks/R__S__Dunham_Park.htm,,No,No,No,No,No,No,No,No,No,No,No,Yes,No,No,No,No,No,Yes,No,No,Town of Cary,Yes,35.77797,-78.769986,,,a3187976-9393-4213-80b8-d359e72e27da,2017-08-30T20:48:29.798Z,ben.strauss1,2017-09-22T13:49:58.463Z,ben.strauss1,No,No,No,No,No,No,No,No,No,No,No,No,No,No,No,No,,,,
-78.790780570863888,35.80054967407208,149,Robert V. Godbold Park,Sk-8 Cary Skate Park,Cary Dog Park at Goldbold Park,"2050 NW Maynard Road, Cary, NC","2050 NW Maynard Road, Cary, NC",http://www.townofcary.org/recreation-enjoyment/parks-greenways-environment/parks/robert-v-godbold-park,,No,No,No,No,No,Yes,No,No,Yes,No,No,Yes,No,Yes,No,No,No,Yes,No,Yes,Town of Cary,Yes,35.80056,-78.790735,Concession at Sk-8 Cary Skate Park,,6c71f62a-e70f-486a-a879-23a31eb6bb6e,2017-08-30T20:48:29.798Z,ben.strauss1,2017-09-22T20:08:55.326Z,ben.strauss1,No,No,No,No,No,No,No,No,No,Yes,No,No,No,No,No,No,,,,
-78.784301652787875,35.773318071736561,150,Rose Street Park,,,"110 Rose Street, Cary, NC","110 Rose Street, Cary, NC",http://www.townofcary.org/Departments/Parks__Recreation___Cultural_Resources/Parks_and_Greenways/Parks/Rose_Street_Park.htm,,No,No,No,No,No,No,No,No,No,No,No,Yes,No,Yes,No,No,No,No,No,No,Town of Cary,No,35.773311,-78.784299,,,9810f34f-0835-427c-863c-80294b70a85d,2017-08-30T20:48:29.798Z,ben.strauss1,2017-09-22T13:49:58.463Z,ben.strauss1,No,No,No,No,No,No,No,No,No,No,No,No,No,No,No,No,,,,
-78.88219787761733,35.799077951317926,151,Sears Farm Road Park,,,"5077 Sears Farm Road, Cary, NC","5077 Sears Farm Road, Cary, NC",http://www.townofcary.org/recreation-enjoyment/parks-greenways-environment/parks/sears-farm-road-park,,No,No,No,No,No,No,No,No,Yes,No,Yes,Yes,Yes,Yes,No,No,No,No,No,Yes,Town of Cary,Yes,35.79906,-78.880551,,,b82ffb8d-4c7d-47e3-89db-69552b4c5d77,2017-08-30T20:48:29.798Z,ben.strauss1,2017-09-22T15:18:16.043Z,Pam.Simons_carync,No,No,No,No,No,No,No,No,No,No,No,No,No,No,No,No,,,,
-78.893472318390664,35.793990742096547,152,Thomas E. Brooks Park,Thomas Brooks Athletic Complex,,"9008 Green Level Church Road, Cary, NC","9008 Green Level Church Road, Cary, NC",http://www.townofcary.org/recreation-enjoyment/parks-greenways-environment/parks/thomas-brooks-park,,No,No,No,No,No,No,No,No,Yes,No,No,Yes,Yes,Yes,No,No,No,No,No,Yes,Town of Cary,Yes,35.795202,-78.900379,,,4619b328-c155-4d9f-995b-20a85b31f6da,2017-08-30T20:48:29.798Z,ben.strauss1,2017-09-22T15:12:13.209Z,Pam.Simons_carync,No,No,No,No,No,No,No,No,No,No,No,No,No,No,No,No,,,,
-78.772032650144283,35.788611076015108,153,Urban Park,,,"414 E Chatham Street, Cary, NC","414 E Chatham Street, Cary, NC",http://www.townofcary.org/recreation-enjoyment/parks-greenways-environment/parks/urban-park,,No,No,No,No,No,No,No,No,No,No,No,Yes,No,Yes,No,No,No,No,No,No,Town of Cary,No,35.788604,-78.77203,,,fd535987-dea1-4038-b46c-ce8f15483424,2017-08-30T20:48:29.798Z,ben.strauss1,2018-06-25T12:42:23.370Z,leith.britt_carync,No,No,No,No,No,No,No,No,No,No,No,No,No,No,No,No,,,,
-78.891680414918198,35.798012826769579,154,USA Baseball at Brooks Park,USA Baseball National Training Center,,"7445 Green Hope School Road, Cary, NC","7445 Green Hope School Road, Cary, NC",http://www.townofcary.org/recreation-enjoyment/facilities/usa-baseball-national-training-complex,919-387-5844,No,Yes,No,No,No,No,No,No,Yes,No,No,No,No,No,No,No,No,No,No,Yes,Town of Cary,Yes,35.8022,-78.8923,"Concessions, Gift Shop",,8d1f8802-5537-4f94-b174-00e1260ab948,2017-08-30T20:48:29.798Z,ben.strauss1,2017-09-22T15:14:33.456Z,Pam.Simons_carync,No,No,No,No,No,No,No,No,No,No,No,No,No,No,No,No,,,,
-78.75435383297274,35.786582394821927,155,WakeMed Soccer Park,,,"950 E Chatham Street, Cary, NC","950 E Chatham Street, Cary, NC",http://www.townofcary.org/Departments/Parks__Recreation___Cultural_Resources/Facilities/Sports_Facilities/WakeMed_Soccer_Park.htm,,No,No,No,No,No,No,No,No,No,No,No,No,No,No,No,No,No,No,No,Yes,Town of Cary,Yes,35.790248,-78.753053,,,95357054-f9aa-4fa2-8a5a-6992415d942c,2017-08-30T20:48:29.798Z,ben.strauss1,2017-09-22T13:49:58.463Z,ben.strauss1,No,No,No,No,No,No,No,No,No,No,No,No,No,No,No,No,,,,
-78.753817185475654,35.764188248814627,156,Walnut Street Park,,,"1420 Walnut Street, Cary, NC","1420 Walnut Street, Cary, NC",http://www.townofcary.org/Departments/Parks__Recreation___Cultural_Resources/Parks_and_Greenways/Parks/Walnut_Street_Park.htm,,No,No,No,No,No,No,No,No,No,No,Yes,No,Yes,Yes,No,No,No,No,No,Yes,Town of Cary,Yes,35.764216,-78.753836,,,680c155a-f399-49f4-b066-57a84051ddbb,2017-08-30T20:48:29.798Z,ben.strauss1,2017-09-22T13:49:58.463Z,ben.strauss1,No,No,No,No,No,No,No,No,No,No,No,No,No,No,No,No,,,,
-78.859472319852642,35.775313106233625,157,White Oak Park,,,"1216 Jenks Carpenter Road, Cary, NC","1216 Jenks Carpenter Road, Cary, NC",http://www.townofcary.org/Departments/Parks__Recreation___Cultural_Resources/Parks_and_Greenways/Parks/White_Oak_Park.htm,,No,No,No,No,No,No,No,No,Yes,No,Yes,Yes,Yes,Yes,No,No,No,No,No,Yes,Town of Cary,Yes,35.775528,-78.859416,,,8ae57cc3-f27f-44c5-bfbc-971e09af668d,2017-08-30T20:48:29.798Z,ben.strauss1,2017-09-22T13:49:58.463Z,ben.strauss1,No,No,No,No,No,No,No,No,No,No,No,No,No,No,No,No,,,,
-78.76597264624553,35.759583069490269,158,White Plains Cemetery,,,"100 Tolliver Court, Cary, NC","100 Tolliver Court, Cary, NC",,,No,No,No,No,No,No,No,No,No,No,No,Yes,No,Yes,No,No,No,No,No,No,Town of Cary,No,35.759576,-78.76597,,,98654c24-a2be-41db-8800-d56c50e021bb,2017-08-30T20:48:29.798Z,ben.strauss1,2017-09-22T13:49:58.463Z,ben.strauss1,No,No,No,No,No,No,No,No,No,No,No,No,No,No,No,No,,,,
-78.600895593177171,35.713076065670606,159,Creech Road Elementary School Park,,,"400 Creech Road, Garner NC, 27529","400 Creech Road, Garner NC, 27529",http://www.garnernc.gov/Departments/Parks%20and%20Recreation/Parks.aspx?ID=2,919-773-4442,No,No,No,No,No,No,No,No,No,No,Yes,No,Yes,Yes,No,No,No,No,No,Yes,Town of Garner,Yes,35.713069,-78.600893,,,8823b1f5-3a84-4738-80da-fed1fde2e8a2,2017-08-30T20:48:29.798Z,ben.strauss1,2017-09-22T13:49:58.463Z,ben.strauss1,No,No,No,No,No,No,No,No,No,No,No,No,No,No,No,No,,,,
-78.602811593711934,35.709451064382058,160,Garner Recreational Park,,,"221 East Garner Road, Garner NC, 27529","221 East Garner Road, Garner NC, 27529",http://www.garnernc.gov/Departments/Parks%20and%20Recreation/Parks.aspx?ID=5,919-773-4443,No,Yes,No,No,No,No,No,No,No,No,No,No,No,Yes,No,No,No,Yes,No,Yes,Town of Garner,Yes,35.709444,-78.602809,,,4a757651-a098-4612-85bb-a218c0375b2f,2017-08-30T20:48:29.798Z,ben.strauss1,2017-09-22T13:49:58.463Z,ben.strauss1,No,No,No,No,No,No,No,No,No,No,No,No,No,No,No,No,,,,
-78.628398601950352,35.699077061972559,161,Garner Jaycee Park,,,"1300 Vandora Springs Road, Garner NC, 27529","1300 Vandora Springs Road, Garner NC, 27529",http://www.garnernc.gov/Departments/Parks%20and%20Recreation/Parks.aspx?ID=18,919-773-4445,No,No,No,No,No,No,No,No,No,No,No,No,Yes,Yes,No,No,No,No,No,No,Town of Garner,No,35.69907,-78.628396,,,3ff361d6-c347-4d2b-b19a-fb6714b1bc1f,2017-08-30T20:48:29.798Z,ben.strauss1,2017-09-22T13:49:58.463Z,ben.strauss1,No,No,No,No,No,No,No,No,No,No,No,No,No,No,No,No,,,,
-78.627152600073231,35.671920056147961,162,Lake Benson Park,,,"921 Buffaloe Road, Garner NC, 27529","921 Buffaloe Road, Garner NC, 27529",http://www.garnernc.gov/Departments/Parks%20and%20Recreation/Parks.aspx?ID=13,919-772-4688,No,No,Yes,No,No,Yes,No,Yes,Yes,No,Yes,No,Yes,Yes,No,No,No,No,No,Yes,Town of Garner,Yes,35.671913,-78.62715,,,9dcd43af-ee63-4ed9-b285-0a9b552f7c4c,2017-08-30T20:48:29.798Z,ben.strauss1,2017-10-02T18:53:45.502Z,ben.strauss1,No,No,No,No,No,No,No,No,No,No,No,No,No,No,No,No,,,,
-78.605123595067511,35.700688062414784,163,Rand Mill Park,,,"508 Rand Mill Road, Garner NC, 27529","508 Rand Mill Road, Garner NC, 27529",http://www.garnernc.gov/Departments/Parks%20and%20Recreation/Parks.aspx?ID=23,919-773-4442,No,Yes,No,No,No,No,No,No,No,No,No,Yes,Yes,Yes,No,No,No,No,No,No,Town of Garner,Yes,35.700681,-78.605121,,,d6205cea-75bf-4422-be44-49b4a9bb2924,2017-08-30T20:48:29.798Z,ben.strauss1,2017-09-22T13:49:58.463Z,ben.strauss1,No,No,No,No,No,No,No,No,No,No,No,No,No,No,No,No,,,,
-78.625676599615744,35.692479060642704,164,South Garner Park,,,"1210 Poole Drive, Garner NC, 27529","1210 Poole Drive, Garner NC, 27529",http://www.garnernc.gov/Departments/Parks%20and%20Recreation/Parks.aspx?ID=24,919-773-4443,No,Yes,No,No,No,No,No,No,No,No,Yes,No,No,Yes,No,No,No,Yes,No,Yes,Town of Garner,Yes,35.692472,-78.625674,,,84058ac0-2c0c-4f3c-a06a-76e4201132f8,2017-08-30T20:48:29.798Z,ben.strauss1,2017-09-22T13:49:58.463Z,ben.strauss1,No,No,No,No,No,No,No,No,No,No,No,No,No,No,No,No,,,,
-78.63311460262743,35.682323057483785,165,Thompson Road Park,,,"550 Thompson Road, Garner NC, 27529","550 Thompson Road, Garner NC, 27529",http://www.garnernc.gov/Departments/Parks%20and%20Recreation/Parks.aspx?ID=6,919-773-4444,No,No,No,No,No,No,No,No,No,No,Yes,No,No,No,No,No,No,No,No,No,Town of Garner,No,35.682316,-78.633112,,,96690bac-ed96-44ac-93e7-2d13f5ea7c7b,2017-08-30T20:48:29.798Z,ben.strauss1,2017-09-22T13:49:58.463Z,ben.strauss1,No,No,No,No,No,No,No,No,No,No,No,No,No,No,No,No,,,,
-78.622185598790566,35.680131058029211,166,White Deer Park,,,"2400 Aversboro Road, Garner NC, 27529","2400 Aversboro Road, Garner NC, 27529",http://www.garnernc.gov/Departments/Parks%20and%20Recreation/Parks.aspx?ID=25,919-661-6982,No,No,No,No,No,No,Yes,No,No,No,No,No,Yes,Yes,No,No,Yes,No,No,Yes,Town of Garner,Yes,35.680124,-78.622183,,,fe09c02a-3f15-45da-9970-2bf6c8368ea4,2017-08-30T20:48:29.798Z,ben.strauss1,2017-09-22T13:49:58.463Z,ben.strauss1,No,No,No,No,No,No,No,No,No,No,No,No,No,No,No,No,,,,
-78.946986699079488,35.71434305328971,167,American Tobacco Trail - New Hill,,,"1309 New Hill-Olive Chapel Road, Apex, NC 27502","1309 New Hill-Olive Chapel Road, Apex, NC 27502",http://www.wakegov.com/parks/att/Pages/default.aspx,919-387-2117,No,No,No,No,No,No,No,No,Yes,No,No,No,No,No,No,No,No,No,No,Yes,Wake County,Yes,35.714336,-78.946984,,,75a1ce6c-4da1-4ce3-aeb6-1265d753d61a,2017-08-30T20:48:29.798Z,ben.strauss1,2018-03-19T19:50:44.732Z,Emerson.Barker,No,No,No,No,No,No,No,No,No,No,No,No,No,No,No,No,Yes,No,No,Yes
-78.920104692862495,35.760061064322485,168,American Tobacco Trail - Wimberly Road,,,"1017 Wimberly Road, Apex, NC 27502","1017 Wimberly Road, Apex, NC 27502",http://www.wakegov.com/parks/att/Pages/directions.aspx,919-387-2117,No,No,No,No,No,No,No,No,Yes,No,No,No,No,No,No,No,No,No,No,Yes,Wake County,No,35.760054,-78.920102,,,4b908634-d850-4c00-b1d0-8aa353c88d6c,2017-08-30T20:48:29.798Z,ben.strauss1,2018-03-19T19:51:21.096Z,Emerson.Barker,No,No,No,No,No,No,No,No,No,No,No,No,No,No,No,No,Yes,No,No,Yes
-78.642752620660673,35.968924119351477,169,Blue Jay Point County Park,,,"3200 Pleasant Union Church Road, Raleigh, NC 27614","3200 Pleasant Union Church Road, Raleigh, NC 27614",http://www.wakegov.com/parks/bluejay/Pages/default.aspx,919-870-4330,No,No,No,No,No,No,Yes,Yes,No,No,Yes,No,Yes,Yes,No,No,No,No,No,Yes,Wake County,Yes,35.968917,-78.64275,,,9543ee83-e55f-4e3b-8e30-3bca4d894cf6,2017-08-30T20:48:29.798Z,ben.strauss1,2018-03-19T19:52:17.633Z,Emerson.Barker,No,No,No,No,No,No,No,No,No,No,No,No,No,No,No,No,No,No,No,No
-78.921196686853975,35.631385036762822,170,Harris Lake County Park,,,"2112 County Park Dr., New Hill, NC  27562","2112 County Park Dr., New Hill, NC  27562",http://www.wakegov.com/parks/harrislake/Pages/default.aspx,919-387-4342,No,No,No,Yes,Yes,No,Yes,Yes,No,No,Yes,No,Yes,Yes,No,No,No,No,No,Yes,Wake County,Yes,35.631378,-78.921194,,,e6c68e94-09b6-4275-ae0a-0ee1f4496b1f,2017-08-30T20:48:29.798Z,ben.strauss1,2018-03-19T19:50:23.818Z,Emerson.Barker,No,No,No,No,No,No,No,No,No,No,No,No,No,No,No,No,Yes,No,No,No
-78.569736587807753,35.770026079526886,171,Historic Oak View County Park,,,"4028 Carya Dr., Raleigh, NC  27610","4028 Carya Dr., Raleigh, NC  27610",http://www.wakegov.com/parks/oakview/Pages/default.aspx,919-250-1013,No,No,No,No,No,No,No,Yes,No,No,No,No,Yes,No,No,No,No,No,No,Yes,Wake County,Yes,35.770019,-78.569734,,,09aef557-8426-4b45-8300-d63a413494b5,2017-08-30T20:48:29.798Z,ben.strauss1,2018-03-19T19:49:29.936Z,Emerson.Barker,No,No,No,No,No,No,No,No,No,No,No,No,No,No,Yes,No,No,Yes,Yes,No
-78.686136619693045,35.718689063735972,172,Historic Yates Mill County Park,,,"4620 Lake Wheeler Rd., Raleigh, NC  27603","4620 Lake Wheeler Rd., Raleigh, NC  27603",http://www.wakegov.com/parks/yatesmill/Pages/default.aspx,919-856-6675,No,No,No,No,No,No,Yes,Yes,No,No,No,No,No,No,No,No,No,No,No,Yes,Wake County,Yes,35.718682,-78.686134,,,bc7451f8-3edf-4575-b7ac-720f6dc7258a,2017-08-30T20:48:29.798Z,ben.strauss1,2018-03-19T19:49:49.217Z,Emerson.Barker,No,No,No,No,No,No,No,No,No,No,No,No,No,No,Yes,No,No,No,Yes,No
-78.795224659120663,35.84391508740768,173,Lake Crabtree County Park,,,"1400 Aviation Pkwy., Morrisville, NC  27560","1400 Aviation Pkwy., Morrisville, NC  27560",http://www.wakegov.com/parks/lakecrabtree/Pages/default.aspx,919-460-3390,No,No,Yes,Yes,No,No,Yes,Yes,No,No,Yes,No,Yes,Yes,No,No,No,No,No,Yes,Wake County,Yes,35.843908,-78.795222,,,d26d3796-f0f2-45a4-948d-70b21ae19b88,2017-08-30T20:48:29.798Z,ben.strauss1,2018-03-19T19:51:53.807Z,Emerson.Barker,No,No,No,No,No,No,No,No,Yes,No,No,No,No,No,No,No,Yes,No,Yes,No
-78.584155598680908,35.904879107018004,174,Green Hills County Park,,,"9300 Deponie Dr., Raleigh, NC  27614","9300 Deponie Dr., Raleigh, NC  27614",http://www.wakegov.com/parks/northwake/Pages/default.aspx,919-856-6670,No,No,No,No,No,No,No,No,No,No,Yes,No,Yes,Yes,No,No,No,No,No,Yes,Wake County,Yes,35.904872,-78.584153,,,84856fa6-ee05-4c29-b8cf-9c4b84adbb57,2017-08-30T20:48:29.798Z,ben.strauss1,2018-04-17T18:20:04.015Z,Emerson.Barker,No,No,No,No,No,No,No,No,No,No,No,No,No,No,No,No,Yes,No,No,No
-78.750202648860437,35.890507098736165,175,William B. Umstead State Park,,,"8801 Glenwood Avenue, Raleigh, NC 27617","8801 Glenwood Avenue, Raleigh, NC 27617",http://www.ncparks.gov/Visit/parks/wium/main.php,919-571-4170,No,No,Yes,Yes,No,No,Yes,Yes,No,No,No,No,Yes,No,No,No,No,No,No,Yes,State of North Carolina,No,35.8905,-78.7502,,,6d806362-b40a-4418-a61c-484c427f3a7c,2017-08-30T20:48:29.798Z,ben.strauss1,2017-09-22T13:49:58.463Z,ben.strauss1,No,No,No,No,No,No,No,No,No,No,No,No,No,No,No,No,,,,
-78.760002648098776,35.834607086691584,176,William B. Umstead State Park - Reedy Creek,,,"1800 N. Harrison Ave., Cary, NC  27513","1800 N. Harrison Ave., Cary, NC  27513",http://www.ncparks.gov/Visit/parks/wium/main.php,919-571-4171,No,No,No,No,No,No,No,No,No,No,No,No,Yes,No,No,No,No,No,No,Yes,State of North Carolina,No,35.8346,-78.76,,,e5566f8c-9e62-4f08-890e-07345716b3a6,2017-08-30T20:48:29.798Z,ben.strauss1,2017-09-22T13:49:58.463Z,ben.strauss1,No,No,No,No,No,No,No,No,No,No,No,No,No,No,No,No,,,,
-78.828508714788342,35.754607407159924,177,Apex Community Park,Lake Pine,,"2200 Laura Duncan Rd., Apex, NC","1808 Lake Pine Dr., Apex, NC",http://www.apexnc.org/795/Apex-Community-Park,919-249-3402,No,Yes,No,Yes,No,No,No,Yes,Yes,No,Yes,Yes,Yes,Yes,No,No,No,Yes,No,Yes,Town of Apex,Yes,35.75461,-78.828518,,,cccb465c-92d6-4c1f-a1d9-3da5b3fd22d1,2017-08-30T20:48:29.798Z,ben.strauss1,2018-08-03T12:22:13.721Z,areincke_apexnc,No,No,No,No,No,No,No,No,Yes,No,No,No,No,No,No,No,No,,,
-78.841752666900604,35.727480060005057,178,Clairmont Park,,,"801 E. Chatham St., Apex, NC","801 E. Chatham St., Apex, NC",https://www.apexnc.org/796/Neighborhood-Parks,919-249-3402,No,No,No,No,No,No,No,No,No,No,No,Yes,Yes,Yes,No,No,No,No,No,No,Town of Apex,No,35.727473,-78.84175,,,8fcdcf3c-6f0a-407b-9978-5a66498c8531,2017-08-30T20:48:29.798Z,ben.strauss1,2017-09-22T13:49:58.463Z,ben.strauss1,No,No,No,No,No,No,No,No,No,No,No,No,No,No,No,No,,,,
-78.894813683305173,35.731707058872423,179,Kelly Road Park,,,"1609 Kelly Rd., Apex, NC","1609 Kelly Rd., Apex, NC",https://www.apexnc.org/799/Kelly-Road-Park,919-249-3402,No,Yes,No,No,No,No,No,No,Yes,No,No,No,Yes,Yes,No,No,No,Yes,No,Yes,Town of Apex,No,35.7317,-78.894811,,,9fa8ced8-2a2b-4923-8847-446fe9840223,2017-08-30T20:48:29.798Z,ben.strauss1,2017-09-22T13:49:58.463Z,ben.strauss1,No,No,No,No,No,No,No,No,No,No,No,No,No,No,No,No,,,,
-78.893127362153166,35.729204624644844,180,Kelly Glen Park,,,"1701 Kelly Glen Ln., Apex, NC","1701 Kelly Glen Ln., Apex, NC",https://www.apexnc.org/796/Neighborhood-Parks,919-249-3402,No,No,No,No,No,No,No,No,No,No,No,No,Yes,Yes,No,No,No,No,No,No,Town of Apex,No,35.729964,-78.892835,,,10ae7524-29c8-4b53-874c-11a7866f48c9,2017-08-30T20:48:29.798Z,ben.strauss1,2018-08-02T14:51:59.866Z,areincke_apexnc,No,No,No,No,No,No,No,No,No,No,No,No,No,No,No,No,,,,
-78.905355856076994,35.717097738666872,181,Nature Park,,,"2600 Evans Rd., Apex, NC","2500 Evans Rd., Apex, NC",https://www.apexnc.org/800/Nature-Park-Seymour-Athletic-Fields,919-249-3402,No,No,No,No,Yes,Yes,Yes,No,Yes,No,No,No,Yes,No,No,No,No,No,No,Yes,Town of Apex,Yes,35.717099,-78.905361,,,7e80f090-88dd-4704-966c-85162d011a9e,2017-08-30T20:48:29.798Z,ben.strauss1,2018-08-03T12:24:42.438Z,areincke_apexnc,No,No,No,Yes,No,No,No,No,No,No,No,No,No,No,No,No,,,,
-78.856101672344707,35.725956059028846,182,West Street Park,,,"108 West St., Apex, NC","108 West St., Apex, NC",https://www.apexnc.org/796/Neighborhood-Parks,919-249-3402,No,No,No,No,No,No,No,No,No,No,No,Yes,Yes,Yes,No,No,No,No,No,No,Town of Apex,No,35.725949,-78.856099,,,56385c82-fcc7-40e7-8189-e78de8bcfb89,2017-08-30T20:48:29.798Z,ben.strauss1,2017-09-22T13:49:58.463Z,ben.strauss1,No,No,No,No,No,No,No,No,No,No,No,No,No,No,No,No,,,,
-78.848999476434187,35.754861022497458,183,Salem Pond Park,,,"6112 Old Jenks Rd, Apex, NC","6112 Old Jenks Rd, Apex, NC",https://www.apexnc.org/369/Parks-Recreation-Projects,919-249-3402,No,No,No,No,No,No,No,Yes,Yes,No,Yes,No,Yes,Yes,No,No,No,No,No,Yes,Town of Apex,No,35.754866,-78.849013,,,ae2f628e-57fb-4537-bf61-05884bbe8d72,2017-08-30T20:48:29.798Z,ben.strauss1,2018-08-02T15:00:08.529Z,areincke_apexnc,No,No,No,No,No,No,No,No,No,No,No,No,No,No,No,No,,,,
-78.847889669331266,35.737473062278525,184,Hunter Street Park,,,"1250 Ambergate Station, Apex, NC","1250 Ambergate Station, Apex, NC",https://www.apexnc.org/798/Hunter-Street-Park,919-249-3402,No,Yes,No,No,No,Yes,No,No,No,No,Yes,No,Yes,Yes,No,No,No,No,No,Yes,Town of Apex,Yes,35.737466,-78.847887,,,d2eb2e6c-0ab0-46ff-8a18-84dc6f315404,2017-08-30T20:48:29.798Z,ben.strauss1,2017-09-22T13:49:58.463Z,ben.strauss1,No,No,No,No,No,No,No,No,No,No,No,No,No,No,No,No,,,,
-78.828486663074102,35.727820060532615,185,Seagroves Farm Park,,,"201 Parkfield Dr., Apex, NC","201 Parkfield Dr., Apex, NC",https://www.apexnc.org/796/Neighborhood-Parks,919-249-3402,No,No,No,No,No,No,No,Yes,No,No,Yes,No,Yes,Yes,No,No,No,No,No,Yes,Town of Apex,Yes,35.727813,-78.828484,,,01876d48-1525-4c65-b2f6-4762ead3772d,2017-08-30T20:48:29.798Z,ben.strauss1,2017-09-22T13:49:58.463Z,ben.strauss1,No,No,No,No,No,No,No,No,No,No,No,No,No,No,No,No,,,,
-78.800356475753048,35.592065185083435,186,Action Park,,,"609 Wake Chapel Road, Fuquay-Varina, NC","609 Wake Chapel Road, Fuquay-Varina, NC",http://www.fuquay-varina.org/departments-and-services/parks-recreation-and-cultural-resources/parks/action-park-description.html,919-552-1430,No,Yes,No,No,No,No,No,No,No,No,No,No,No,Yes,No,No,No,Yes,No,No,Town of Fuquay-Varina,Yes,35.591424,-78.801715,,,535e1654-f1f1-4000-9995-6ebb71392568,2017-08-30T20:48:29.798Z,ben.strauss1,2017-09-28T12:44:58.127Z,tofv,No,No,No,No,No,No,No,,No,No,No,No,No,No,No,No,,,,
-78.81360539240292,35.622879691266817,187,Alston Ridge Park,,,"6850 Hilltop-Needmore Road, Fuquay-Varina, NC","6850 Hilltop-Needmore Road, Fuquay-Varina, NC",http://www.fuquay-varina.org/departments-and-services/parks-recreation-and-cultural-resources/parks/alston-ridge-park.html,919-552-1430,No,No,No,No,No,No,No,No,No,No,No,No,Yes,Yes,No,No,No,No,Yes,Yes,Town of Fuquay-Varina,No,35.627916,-78.77952,,,0f1367be-ef70-404c-9772-510a7e93f921,2017-08-30T20:48:29.798Z,ben.strauss1,2017-09-28T12:44:58.376Z,tofv,No,No,No,No,No,No,No,No,No,No,No,No,No,No,No,No,,,,
-78.772479640704489,35.613618038056202,188,Ballentine School Park,,,"1651 North McLaurin Lane, Fuquay-Varina, NC","1651 North McLaurin Lane, Fuquay-Varina, NC",http://www.fuquay-varina.org/departments-and-services/parks-recreation-and-cultural-resources/parks/ballentine-school-park.html,919-552-1430,No,Yes,No,No,No,No,No,No,No,No,Yes,No,No,No,No,No,No,No,No,No,Town of Fuquay-Varina,Yes,35.613611,-78.772477,,,ae8cf892-51d9-4bcb-b30a-f3aa7b2d7e9e,2017-08-30T20:48:29.798Z,ben.strauss1,2017-09-28T12:44:59.590Z,tofv,No,No,No,No,No,No,No,No,No,No,No,No,No,No,No,No,,,,
-78.8070195125037,35.566109307106963,189,Carroll Howard Johnson Environmental Education Park,,,"301 Wagstaff Road, Fuquay-Varina, NC","301 Wagstaff Road, Fuquay-Varina, NC",http://www.fuquay-varina.org/departments-and-services/parks-recreation-and-cultural-resources/parks/carroll-howard-johnson-environmental-education-park.html,919-552-1430,No,No,No,No,No,No,No,No,Yes,No,No,No,Yes,No,No,No,No,No,No,Yes,Town of Fuquay-Varina,Yes,35.565054,-78.806943,Amphitheater,,d7eebb7c-4197-437a-b84b-68dc60489926,2017-08-30T20:48:29.798Z,ben.strauss1,2017-09-28T12:45:00.723Z,tofv,No,No,Yes,No,No,No,No,No,No,No,No,No,No,No,No,No,,,,
-78.804809807380636,35.582563020340189,190,Fuquay-Varina Downtown Dog Park,,,"110 Woodland Drive, Fuquay-Varina, NC","110 Woodland Drive, Fuquay-Varina, NC",http://www.fuquay-varina.org/departments-and-services/parks-recreation-and-cultural-resources/parks/dog-park.html,919-552-1430,No,No,No,No,No,Yes,No,No,No,No,No,No,No,No,No,No,No,No,No,No,Town of Fuquay-Varina,No,35.583051,-78.804481,,,a1bac43d-7262-4c80-8556-d788194d2800,2017-08-30T20:48:29.798Z,ben.strauss1,2017-09-28T12:45:01.357Z,tofv,No,No,No,No,No,No,No,No,No,No,No,No,No,No,No,No,,,,
-78.791638933015236,35.585508140164968,191,Falcon Park,,,"611 E. Academy Street, Fuquay-Varina, NC","611 E. Academy Street, Fuquay-Varina, NC",http://www.fuquay-varina.org/departments-and-services/parks-recreation-and-cultural-resources/parks/falcon-park.html,919-552-1430,No,Yes,No,No,No,No,No,No,No,No,Yes,No,Yes,Yes,No,No,No,No,No,Yes,Town of Fuquay-Varina,Yes,35.584302,-78.791004,Rental Building with Roof,,c51dd75b-071b-4bb8-a825-e1236f3c5d8d,2017-08-30T20:48:29.798Z,ben.strauss1,2017-09-28T12:45:03.235Z,tofv,No,No,No,No,No,No,No,No,No,No,No,No,No,No,No,No,,,,
-78.816226669408366,35.579654788996798,192,Fleming Loop Recreation Park,,,"301 Fleming Loop Road, Fuquay-Varina, NC","301 Fleming Loop Road, Fuquay-Varina, NC",http://www.fuquay-varina.org/departments-and-services/parks-recreation-and-cultural-resources/parks/fleming-loop-park.html,919-552-1430,No,No,No,No,No,No,No,No,No,No,Yes,No,No,No,No,No,No,No,No,No,Town of Fuquay-Varina,No,35.580688,-78.816976,,,89e1b0c2-44ca-4eb6-a16c-159676a93d3e,2017-08-30T20:48:29.798Z,ben.strauss1,2017-09-28T12:45:03.295Z,tofv,No,No,No,No,No,No,No,No,No,No,No,No,No,No,No,No,,,,
-78.800301146755643,35.579761098797128,193,Fuquay Mineral Spring Park,,,"105 West Spring Street, Fuquay-Varina, NC","105 West Spring Street, Fuquay-Varina, NC",http://www.fuquay-varina.org/departments-and-services/parks-recreation-and-cultural-resources/parks/fuquay-mineral-spring-park.html,919-552-1430,No,No,No,No,No,No,No,No,No,No,No,No,No,No,No,No,No,No,No,Yes,Town of Fuquay-Varina,No,35.580356,-78.800427,Picnic Tables (not sheltered),,dce65af9-0c1f-4f68-9dc7-fce9316b7dfe,2017-08-30T20:48:29.798Z,ben.strauss1,2017-09-28T12:45:04.701Z,tofv,No,No,No,No,No,No,No,No,No,No,No,No,No,No,No,No,,,,
-78.795248031469328,35.598940768559089,194,Fuquay-Varina High School Tennis Courts,,,"201 Bengal Blvd., Fuquay-Varina, NC","201 Bengal Blvd., Fuquay-Varina, NC",http://www.fuquay-varina.org/departments-and-services/parks-recreation-and-cultural-resources/parks/fvhs-tennis-courts.html,919-552-1430,No,No,No,No,No,No,No,No,No,No,No,No,No,No,No,No,No,Yes,No,No,Town of Fuquay-Varina,No,35.599922,-78.792503,,,b10a4401-e9fd-49bf-8934-cb80575c4cb0,2017-08-30T20:48:29.798Z,ben.strauss1,2017-09-28T12:45:05.335Z,tofv,No,No,No,No,No,No,No,No,No,No,No,No,No,No,No,No,,,,
-78.803279269134876,35.621298790616784,195,Herbert Akins Fields,,,"2255 Herbert Akins Road, Fuquay-Varina, NC","2255 Herbert Akins Road, Fuquay-Varina, NC",http://www.fuquay-varina.org/departments-and-services/parks-recreation-and-cultural-resources/parks/herbert-akins-fields.html,919-552-1430,No,No,No,No,No,No,No,No,No,No,Yes,No,No,No,No,No,No,No,No,No,Town of Fuquay-Varina,No,35.620535,-78.80343,,,15ab0c05-8be2-45bb-8a69-6db5c3bdee85,2017-08-30T20:48:29.798Z,ben.strauss1,2017-09-28T12:45:05.967Z,tofv,No,No,No,No,No,No,No,No,No,No,No,No,No,No,No,No,,,,
-78.761858755607591,35.581389598313656,196,Honeycutt Road Park,,,"101 Fitness Drive, Fuquay-Varina, NC","101 Fitness Drive, Fuquay-Varina, NC",http://www.fuquay-varina.org/departments-and-services/parks-recreation-and-cultural-resources/parks/honeycutt-road-park.html,919-552-1430,No,No,No,No,No,No,No,No,No,No,Yes,No,Yes,Yes,No,No,No,Yes,Yes,No,Town of Fuquay-Varina,Yes,35.581754,-78.762361,,,16a660fc-9d3a-448c-a806-00ed4cde9773,2017-08-30T20:48:29.798Z,ben.strauss1,2017-09-28T12:45:07.061Z,tofv,No,No,No,No,No,No,No,No,No,No,No,No,No,No,No,No,,,,
-78.803010614134536,35.577981173240566,197,Kinton Soccer Fields,,,"300 West Ransom Street, Fuquay-Varina, NC","300 West Ransom Street, Fuquay-Varina, NC",http://www.fuquay-varina.org/departments-and-services/parks-recreation-and-cultural-resources/parks/kinton-soccer-fields.html,919-552-1430,No,No,No,No,No,No,No,No,No,No,Yes,No,No,No,No,No,No,No,No,No,Town of Fuquay-Varina,No,35.577672,-78.802218,,,264db413-5cb7-41af-87ca-6c66ec5ce6ae,2017-08-30T20:48:29.798Z,ben.strauss1,2017-09-28T12:45:08.105Z,tofv,No,No,No,No,No,No,No,No,No,No,No,No,No,No,No,No,,,,
-78.805652969430383,35.588476571835592,198,William Freeman Park,,,"210 Lawrence Street, Fuquay-Varina, NC","210 Lawrence Street, Fuquay-Varina, NC",http://www.fuquay-varina.org/departments-and-services/parks-recreation-and-cultural-resources/parks/lawrence-street-park.html,919-552-1430,No,No,No,No,No,No,No,No,No,No,Yes,No,No,No,No,No,No,No,No,No,Town of Fuquay-Varina,No,35.587016,-78.805825,,,206285a1-3fde-404f-815f-f264b09befb6,2017-08-30T20:48:29.798Z,ben.strauss1,2017-09-28T12:45:08.788Z,tofv,No,No,No,No,No,No,No,No,No,No,No,No,No,No,No,No,,,,
-78.797350764226167,35.583108936872456,199,Library Park,,,"116 South Aiken Street, Fuquay-Varina, NC","116 South Aiken Street, Fuquay-Varina, NC",http://www.fuquay-varina.org/departments-and-services/parks-recreation-and-cultural-resources/parks/library-park.html,919-552-1430,No,No,No,No,No,No,No,No,No,No,No,No,Yes,Yes,No,No,No,No,No,No,Town of Fuquay-Varina,No,35.583827,-78.797043,,,dd18acd8-5e29-4933-99da-39d8b1b4da7c,2017-08-30T20:48:29.798Z,ben.strauss1,2017-09-28T12:45:09.825Z,tofv,No,No,No,No,No,No,No,No,No,No,No,No,No,No,No,No,,,,
-78.754837661425256,35.598986485621985,200,Ransdell Soccer Fields,,,"1501 Ideal Lane, Fuquay-Varina, NC","1501 Ideal Lane, Fuquay-Varina, NC",http://www.fuquay-varina.org/departments-and-services/parks-recreation-and-cultural-resources/parks/ransdell-soccer-fields.html,919-552-1430,No,No,No,No,No,No,No,No,No,No,Yes,No,No,No,No,No,No,No,No,No,Town of Fuquay-Varina,No,35.600683,-78.753437,,,d6bd7608-c183-4d36-b6cc-2cc7321e4276,2017-08-30T20:48:29.798Z,ben.strauss1,2017-09-28T12:45:10.811Z,tofv,No,No,No,No,No,No,No,No,No,No,No,No,No,No,No,No,,,,
-78.801898664936189,35.572486342502451,201,South Park,,,"900 South Main Street, Fuquay-Varina, NC","900 South Main Street, Fuquay-Varina, NC",http://www.fuquay-varina.org/departments-and-services/parks-recreation-and-cultural-resources/parks/south-park.html,919-552-1430,No,Yes,No,No,No,No,No,No,Yes,Yes,Yes,No,Yes,Yes,No,Yes,No,No,Yes,Yes,Town of Fuquay-Varina,Yes,35.571857,-78.802875,Splash Pad,,6ea0c79f-d621-46d0-ad31-9c5a8b2353db,2017-08-30T20:48:29.798Z,ben.strauss1,2017-09-28T12:45:11.728Z,tofv,No,No,No,No,No,No,No,No,No,No,No,No,No,No,No,No,,,,
-78.801342650414938,35.641448042844203,202,Bass Lake Park,,,"900 Bass Lake Rd., Holly Springs, NC","900 Bass Lake Rd., Holly Springs, NC",http://www.hollyspringsnc.us/index.aspx?NID=320,(919) 557-9600,No,No,No,No,No,No,Yes,No,Yes,No,No,No,Yes,No,No,No,No,No,No,No,Town of Holly Springs,No,35.641441,-78.80134,,,f6faf354-518a-4595-b942-a9e2b100c179,2017-08-30T20:48:29.798Z,ben.strauss1,2017-09-22T13:49:58.463Z,ben.strauss1,No,No,No,No,No,No,No,No,No,No,No,No,No,No,No,No,,,,
-78.828391971539475,35.659053454215858,203,Jones Park,,,"405 School Days Ln., Holly Springs, NC","405 School Days Ln., Holly Springs, NC",http://www.hollyspringsnc.us/index.aspx?NID=328,(919) 557-9600,No,No,No,No,No,No,No,No,No,No,No,No,No,No,No,No,No,No,No,No,Town of Holly Springs,No,35.737776,-78.902547,,,d344858b-0eb2-4c7c-8b28-7751b8af1d1c,2017-08-30T20:48:29.798Z,ben.strauss1,2018-04-06T19:20:49.808Z,ben.strauss1,No,No,No,No,No,No,No,No,No,No,No,No,No,No,No,No,,,,
-78.826876658724203,35.6433690425485,204,Parrish Womble Park,,,"1201 Grigsby Ave., Holly Springs, NC","1201 Grigsby Ave., Holly Springs, NC",http://www.hollyspringsnc.us/index.aspx?NID=332,(919) 557-9600,No,Yes,No,No,No,No,No,No,No,No,Yes,No,Yes,Yes,No,No,No,No,No,No,Town of Holly Springs,Yes,35.643362,-78.826874,,,40ccda4f-7364-40b6-97ac-5f2b1ca68d71,2017-08-30T20:48:29.798Z,ben.strauss1,2017-09-22T13:49:58.463Z,ben.strauss1,No,No,No,No,No,No,No,No,No,No,No,No,No,No,No,No,,,,
-78.827577660217088,35.662693047139818,205,Veterans Park,,,"600 Bikram Dr., Holly Springs, NC","600 Bikram Dr., Holly Springs, NC",http://www.hollyspringsnc.us/index.aspx?NID=336,(919) 557-9600,No,No,No,No,No,No,No,No,Yes,No,No,No,Yes,Yes,No,No,No,No,No,Yes,Town of Holly Springs,No,35.662686,-78.827575,,,ac2cb237-64c4-41aa-ac87-08a183d36068,2017-08-30T20:48:29.798Z,ben.strauss1,2017-09-22T13:49:58.463Z,ben.strauss1,No,No,No,No,No,No,No,No,No,No,No,No,No,No,No,No,,,,
-78.829268659824962,35.646742043140691,206,The PIT Soccer Field,,,"301 Stinson Ave., Holly Springs, NC","301 Stinson Ave., Holly Springs, NC",http://www.hollyspringsnc.us/index.aspx?NID=312,(919) 557-9601,No,No,No,No,No,No,No,No,No,No,Yes,No,No,No,No,Yes,No,No,No,No,Town of Holly Springs,No,35.646735,-78.829266,,,43cfc307-d438-4e1e-8961-968c2463cd6a,2017-08-30T20:48:29.798Z,ben.strauss1,2017-09-22T13:49:58.463Z,ben.strauss1,No,No,No,No,No,No,No,No,No,No,No,No,No,No,No,No,,,,
-78.838511662297151,35.643065042114991,207,The REX Field,,,"781 Avent Ferry Rd., Holly Springs, NC","781 Avent Ferry Rd., Holly Springs, NC",http://www.hollyspringsnc.us/index.aspx?NID=312,(919) 557-9602,No,Yes,No,No,No,No,No,No,No,No,Yes,No,No,No,No,No,No,No,No,No,Town of Holly Springs,No,35.643058,-78.838509,,,72d10311-9211-4ede-94dd-87fbd08b427b,2017-08-30T20:48:29.798Z,ben.strauss1,2017-09-22T13:49:58.463Z,ben.strauss1,No,No,No,No,No,No,No,No,No,No,No,No,No,No,No,No,,,,
-78.532801104783758,35.754829026800984,208,Poole Road Canoe Launch,,,"6451 Poole Rd, Raleigh, NC","6451 Poole Rd, Raleigh, NC",http://www.raleighnc.gov/arts_parks/,919-831-6610,No,No,No,Yes,No,No,No,No,Yes,No,No,No,No,No,No,No,No,No,No,No,City of Raleigh,No,35.75482195,-78.5327985299999,,1,03b3aaba-0c50-4b3a-b320-7c4db2f742e3,2017-08-30T20:48:29.798Z,ben.strauss1,2017-09-22T13:49:58.463Z,ben.strauss1,No,No,No,No,No,No,No,No,No,No,No,No,No,No,No,No,,,,
-78.577288265535074,35.891011884841546,209,Campbell Lodge,,,"3237 Spottswood St, Raleigh, NC","3237 Spottswood St, Raleigh, NC",http://www.raleighnc.gov/arts/content/PRecRecreation/Articles/DurantNatureParkRentalFacilities.html,919-870-2871,No,No,No,No,No,No,No,Yes,No,No,Yes,Yes,Yes,Yes,No,No,No,No,No,Yes,City of Raleigh,No,35.89100478,-78.5772856699999,,2,c3cc00d0-50c2-477e-a5cd-cad9bbf57f9a,2017-08-30T20:48:29.798Z,ben.strauss1,2017-09-22T13:49:58.463Z,ben.strauss1,No,No,No,No,No,No,No,No,Yes,No,No,No,No,No,No,No,,,,
-78.643523606831778,35.714646064781874,210,Greenbrier Park,,,"613 Winterlochen Road, Garner NC, 27529","613 Winterlochen Road, Garner NC, 27529",http://www.garnernc.gov/Departments/Parks%20and%20Recreation/Parks.aspx?ID=17,919-773-4444,No,No,No,No,No,No,No,No,No,No,No,No,Yes,Yes,No,No,No,Yes,No,No,Town of Garner,No,35.7146389999999,-78.643521,,3,8461f1cb-5ca5-414d-a700-68d33ccbe39f,2017-08-30T20:48:29.798Z,ben.strauss1,2017-09-22T13:49:58.463Z,ben.strauss1,No,No,No,No,No,No,No,No,No,No,No,No,No,No,No,No,,,,
-78.860573673545503,35.731636060683307,212,Apex Jaycee Park,,,451 W Williams St,"451 NC HWY 55, Apex, NC",https://www.apexnc.org/797/Apex-Jaycee-Park,919-249-3402,No,Yes,No,No,No,No,No,No,Yes,No,Yes,No,Yes,Yes,No,No,No,No,No,Yes,Town of Apex,No,35.7316289999999,-78.8605709999999,,5,d964a29c-22ab-4660-9e68-b703854ffa61,2017-08-30T20:48:29.798Z,ben.strauss1,2017-09-22T13:49:58.463Z,ben.strauss1,No,No,No,No,No,No,No,No,No,No,No,No,No,No,No,No,,,,
-78.849310669824391,35.720314058485606,213,Sue Helton Park,,,"201 Matney Ln., Apex, NC","703 Matney Ln., Apex, NC",http://www.apexnc.org/services/parks-recreation-cultural-resources/park-facilities/sue-helton-park,919-249-3402,No,No,No,No,No,No,No,No,No,No,No,No,Yes,Yes,No,No,No,No,No,No,Town of Apex,No,35.7203069999999,-78.8493079999999,,6,e326adca-a338-4fa0-876f-a3432da61e69,2017-08-30T20:48:29.798Z,ben.strauss1,2017-09-22T13:49:58.463Z,ben.strauss1,No,No,No,No,No,No,No,No,No,No,No,No,No,No,No,No,,,,
-78.710997891489797,35.631568068395502,214,Banks Road Fields,,,"10225 Chambers Road, Fuquay-Varina, NC","10225 Chambers Road, Fuquay-Varina, NC",http://www.fuquay-varina.org/departments-and-services/parks-recreation-and-cultural-resources/parks/banks-road.html,919-552-1430,No,No,No,No,No,No,No,No,No,No,Yes,No,No,No,No,No,No,No,No,No,Town of Fuquay-Varina,No,35.633254,-78.7099589999999,,7,e43ed1d2-6d6c-48de-b241-54ed9bbacb2b,2017-08-30T20:48:29.798Z,ben.strauss1,2017-09-28T12:45:13.079Z,tofv,No,No,No,No,No,No,No,No,No,No,No,No,No,No,No,No,,,,
-78.803481286564505,35.586926402013809,215,James A. Campbell Park,,,"115 West Jones Street, Fuquay-Varina, NC","115 West Jones Street, Fuquay-Varina, NC",http://www.fuquay-varina.org/departments-and-services/parks-recreation-and-cultural-resources/parks/west-jones-street-park.html,919-552-1430,No,No,No,No,No,No,No,No,No,No,No,No,Yes,Yes,No,No,No,No,No,No,Town of Fuquay-Varina,Yes,35.5869199999999,-78.801134,Restrooms are Portajohns,8,7f963d76-f74d-41a4-a48e-28fe368eee54,2017-08-30T20:48:29.798Z,ben.strauss1,2017-09-28T12:45:14.285Z,tofv,No,No,No,No,No,No,No,No,No,No,No,No,No,No,No,No,,,,
-78.922720309194148,35.788520775996886,218,American Tobacco Trail - White Oak,,,"1305 White Oak Church Road, Apex, NC 27523",,http://www.wakegov.com/parks/att/Pages/default.aspx,919-387-2117,No,No,No,No,No,No,No,No,Yes,No,No,No,No,No,No,No,No,No,No,Yes,Wake County,Yes,,,,,2d537ef8-93d4-43fd-8c19-37410f794b0f,2017-09-13T17:28:19.628Z,Emerson.Barker,2018-03-19T19:51:34.844Z,Emerson.Barker,No,No,No,No,No,No,No,No,No,No,No,No,No,No,No,No,Yes,No,No,Yes
-78.414186293603777,35.816969432349104,219,Robertson Millpond Preserve,,,"6333 Robertson Pond Road, Wendell, NC 27591",,http://www.wakegov.com/parks/robertsonmillpond/Pages/default.aspx,NA,No,No,Yes,Yes,No,No,No,Yes,No,No,No,No,No,No,No,No,No,No,No,No,Wake County,No,,,,,1c73b3d5-bf54-48f0-96c5-74bcbed6634f,2017-09-13T17:30:29.634Z,Emerson.Barker,2018-03-19T19:45:42.017Z,Emerson.Barker,No,No,No,No,No,No,No,No,No,No,No,No,No,No,No,No,No,No,No,No
-78.765473269462703,35.70980579805321,220,Jack Smith Park,,,"9725 Penny Road, Cary, NC","9725 Penny Road, Cary, NC",http://www.townofcary.org/recreation-enjoyment/parks-greenways-environment/parks/jack-smith-park,,No,No,No,No,No,Yes,No,No,Yes,No,No,No,Yes,Yes,No,No,No,No,No,No,Town of Cary,Yes,,,,,1bc87093-16d7-49a4-a182-a209483ae862,2017-09-14T18:20:25.859Z,Pam.Simons_carync,2017-09-22T14:18:38.786Z,ben.strauss1,No,No,No,No,No,No,No,No,No,No,No,No,No,No,No,No,,,,
-78.925968987873802,35.817628986743451,221,New Hope Church Road Trailhead Park,Access to American Tobacco Trail,,"2575 New Hope Church Road, Cary, NC","2575 New Hope Church Road, Cary, NC",http://www.townofcary.org/recreation-enjoyment/parks-greenways-environment/parks/new-hope-church-road-trailhead-park,,No,No,No,No,No,No,No,No,Yes,No,Yes,No,Yes,No,No,No,No,No,No,No,Town of Cary,Yes,,,,,b44b25ee-d652-4a4b-8bc1-095f28380584,2017-09-14T18:40:37.021Z,Pam.Simons_carync,2017-09-22T14:53:58.514Z,Pam.Simons_carync,No,No,No,No,No,No,No,No,No,No,No,No,No,No,No,No,,,,
-78.862218244005859,35.827024257213516,222,Good Hope Farm,,,"1580 Morrisville Carpenter Road, Cary, NC",,http://www.townofcary.org/recreation-enjoyment/parks-greenways-environment/community-gardens-urban-agriculture/good-hope-farm,,,,,,,,,,,,,,,,,,,,,,Town of Cary,,,,,,6b0128e4-850e-4b8a-8ee6-661d8257a9f0,2017-09-14T18:50:38.271Z,Pam.Simons_carync,2017-09-22T14:43:29.540Z,Pam.Simons_carync,No,No,No,No,No,No,No,No,No,No,No,No,No,No,No,No,,,,
-78.863033635546401,35.822970508386184,223,Carpenter Park,Carpenter Park Community Garden,Memorial to Victims of Flight 3379 & 3378,"4420 Louis Stephens Drive, Cary, NC","4420 Louis Stephens Drive, Cary, NC",http://www.townofcary.org/recreation-enjoyment/parks-greenways-environment/parks/carpenter-park,,No,No,No,No,No,No,No,No,No,No,Yes,Yes,Yes,Yes,No,No,No,Yes,No,Yes,Town of Cary,Yes,,,,,fdc91299-abec-4ee1-8eeb-f9f5cef3430d,2017-09-14T18:51:03.262Z,Pam.Simons_carync,2017-09-22T15:01:51.565Z,Pam.Simons_carync,No,No,No,No,No,No,No,No,No,No,No,No,No,No,No,No,,,,
-78.79513651619051,35.728239101562309,224,Symphony Lake Park,,,,,http://www.townofcary.org/recreation-enjoyment/parks-greenways-environment/greenways/symphony-lake-greenway,,No,No,No,No,No,No,No,No,Yes,No,No,No,No,No,No,No,No,No,No,Yes,Town of Cary,No,,,,,d4dbc9f5-3911-41be-9502-e62804b6dd7c,2017-09-14T18:59:10.314Z,Pam.Simons_carync,2017-09-22T14:39:52.171Z,ben.strauss1,No,No,No,No,No,No,No,No,No,No,No,No,No,No,No,No,,,,
-78.780618542863849,35.779698085647759,225,Meeting Place Park,,,"601 Kildaire Farm Road, Cary, NC","601 Kildaire Farm Road, Cary, NC",http://www.townofcary.org/recreation-enjoyment/parks-greenways-environment/parks/meeting-place-park,,No,No,No,No,No,No,No,No,No,No,No,No,No,No,No,No,No,No,No,Yes,Town of Cary,No,,,,,f66de17b-c13f-4419-b172-9dd27cdaf253,2017-09-14T19:17:17.076Z,Pam.Simons_carync,2017-09-22T14:27:16.674Z,ben.strauss1,No,No,No,No,No,No,No,No,No,No,No,No,No,No,No,No,,,,
-78.779744142726585,35.783836727054457,226,Downtown Park,,,"319 S. Academy Street, Cary, NC","319 S. Academy Street, Cary, NC",http://www.townofcary.org/recreation-enjoyment/parks-greenways-environment/parks/downtown-park,,Yes,No,No,No,No,No,No,No,No,No,No,No,No,No,No,No,No,No,No,No,Town of Cary,No,,,,,c8e6b471-9c1e-49db-93a1-99a7068de8cc,2017-09-14T19:20:42.532Z,Pam.Simons_carync,2017-09-22T14:29:29.653Z,ben.strauss1,No,No,No,Yes,Yes,No,No,No,No,No,No,No,No,No,No,No,,,,
-78.772614831163878,35.820644177917593,227,Veterans Freedom Park,,,"1517 N Harrison Ave, Cary, NC","1517 N Harrison Ave, Cary, NC",http://www.townofcary.org/recreation-enjoyment/parks-greenways-environment/parks/veterans-freedom-park,,No,No,No,No,No,No,No,No,No,No,No,No,No,No,No,No,No,No,No,No,Town of Cary,No,,,,,c9fd3edf-f417-4e8d-a902-22516dd05411,2017-09-14T19:23:34.508Z,Pam.Simons_carync,2017-09-22T16:51:39.623Z,Pam.Simons_carync,No,No,No,No,No,No,No,No,No,No,No,No,No,No,No,No,,,,
-78.781863586180734,35.838439908375861,229,Old Reedy Creek Road Trailhead,,,"2139 Old Reedy Creek Road, Cary, NC","2139 Old Reedy Creek Road, Cary, NC",http://www.townofcary.org/recreation-enjoyment/parks-greenways-environment/parks/old-reedy-creek-road-trailhead,,No,No,No,No,No,No,No,No,Yes,No,No,No,Yes,No,No,No,No,No,No,No,Town of Cary,Yes,,,Bike Repair Station,,5792fce2-9d8d-4d80-b54e-abcfa0de8e5b,2017-09-19T18:31:57.159Z,Pam.Simons_carync,2017-09-22T15:37:40.157Z,Pam.Simons_carync,No,No,No,No,No,No,No,No,No,No,No,No,No,No,No,No,,,,
-78.580079212968371,35.903684550849697,230,Abbotts Creek Park,Abbotts Creek Park,Abbotts Creek Park,"9950 Durant Road, Raleigh, NC",,http://www.raleighnc.gov/home/content/ParksRec/Articles/Parks/AbbottsCreek.html,,No,No,No,No,No,No,No,No,No,No,No,No,No,Yes,No,Yes,No,No,No,No,City of Raleigh,Yes,,,,,8b237549-825b-478a-9be7-17c24f7a0a88,2017-09-21T18:57:01.466Z,ben.strauss1,2017-09-22T13:49:58.463Z,ben.strauss1,No,No,No,No,No,No,No,No,No,No,No,No,No,No,No,No,,,,
-78.580985119218923,35.964632477896181,231,Forest Ridge Park,,,"2100 Old NC Hwy 98, Wake Forest, NC","2100 Old NC Hwy 98, Wake Forest, NC",https://www.raleighnc.gov/parks/content/ParksRec/Articles/Parks/ForestRidge.html,,No,No,No,No,No,No,No,No,No,No,No,No,Yes,Yes,No,No,No,No,No,Yes,City of Raleigh,Yes,,,,,f8770f21-600b-47cf-ae28-19edecfe54da,2017-09-21T19:10:54.503Z,ben.strauss1,2017-09-22T13:49:58.463Z,ben.strauss1,No,No,No,No,No,No,No,No,No,No,No,No,No,No,No,No,,,,
-78.663778615312893,35.779960723374771,232,Theatre in the Park,,,"107 Pullen Road, Raleigh, NC","107 Pullen Road, Raleigh, NC",http://www.theatreinthepark.com/,919-831-6936,No,No,No,No,No,No,No,No,No,No,No,No,No,No,No,No,No,No,No,No,City of Raleigh,No,,,,,17ac4e87-e2b4-495c-888f-38ed9d7aa4b6,2017-09-21T19:22:47.405Z,ben.strauss1,2017-09-22T13:49:58.463Z,ben.strauss1,No,No,No,Yes,No,No,No,No,No,No,No,No,No,No,No,No,,,,
-78.716757607776458,35.76796575458463,233,Thomas G. Crowder Woodland Center,,,"5611 Jaguar Park Dr, Raleigh, NC","5611 Jaguar Park Dr, Raleigh, NC",https://www.raleighnc.gov/parks/content/ParksRec/Articles/Parks/TGCWoodlandCenter.html,919-996-3141,No,No,No,No,No,No,No,No,Yes,No,No,No,No,No,No,No,No,No,No,Yes,City of Raleigh,No,,,,,bc9bac6c-6887-4001-bb53-5dcf1742fd95,2017-09-21T19:26:38.880Z,ben.strauss1,2017-09-22T13:49:58.463Z,ben.strauss1,No,No,No,No,No,No,No,No,No,No,No,No,No,No,No,No,,,,
-78.640509155485447,35.766809575967613,234,Walnut Terrace Park,,,"1256 McCauley St, Raleigh, NC","1256 McCauley St, Raleigh, NC",https://www.raleighnc.gov/parks/content/ParksRec/Articles/Parks/WalnutTerrace.html,,No,No,No,No,No,No,No,No,No,No,No,No,No,No,No,No,Yes,No,No,No,City of Raleigh,Yes,,,,,e1bf9b2c-ae12-4d1e-bbd0-47c01819a142,2017-09-21T19:30:20.449Z,ben.strauss1,2017-09-22T13:49:58.463Z,ben.strauss1,No,No,No,No,No,No,No,No,No,No,No,No,No,No,No,No,,,,
-78.633041885587772,35.766792165156104,235,Junious N. Sorrell Park,,,"416 E Lee St, Raleigh, NC","416 E Lee St, Raleigh, NC",http://www.raleighnc.gov/parks/content/ParksRec/Articles/Parks/LeeStreet.html,919-831-6640,No,No,No,No,No,No,No,No,No,No,No,No,No,Yes,No,No,No,No,No,No,City of Raleigh,No,,,,,fcd9625c-d523-40a7-b1bc-25009ef1e1da,2017-09-21T19:38:05.219Z,ben.strauss1,2017-09-22T13:49:58.463Z,ben.strauss1,No,No,No,No,No,No,No,No,No,No,No,No,No,No,No,No,,,,
-78.797723041134859,35.58361008505792,237,Fuquay-Varina Museums at Ashworth Park,,,"131 South Fuquay Avenue, Fuquay-Varina, NC","131 South Fuquay Avenue, Fuquay-Varina, NC",http://www.fuquay-varina.org/Facilities/Facility/Details/FuquayVarina-Museums-at-Ashworth-Park-14,919-552-1430,No,No,No,No,No,No,No,No,No,No,No,No,No,Yes,No,No,No,No,No,Yes,Town of Fuquay-Varina,No,,,Fuquay-Varina Town Museum adjacent to park,,90a8289f-d36c-47f4-8c9b-f155ffb6547c,2017-09-27T19:01:15.651Z,tofv,2017-09-28T12:47:55.137Z,tofv,No,,,,,,,,,,,,,,,,,,,
-78.602448815084301,35.706914210159802,239,North Garner Dog Park,,,"221 E Garner Rd, Garner, NC","221 E Garner Rd, Garner, NC",http://www.garnernc.gov/departments/parks-recreation-and-cultural-resources/parks/north-garner-dog-park,,No,No,No,No,No,Yes,No,No,No,No,No,No,No,No,No,No,No,No,No,No,Town of Garner,No,,,,,f6c4c6ab-35b6-41fa-a0d6-d46a6c887326,2017-10-02T18:50:51.992Z,ben.strauss1,2017-10-02T18:53:03.103Z,ben.strauss1,No,No,No,No,No,No,No,No,No,No,No,No,No,No,No,No,,,,
-78.471542355265186,35.795129476955431,240,Knightdale Station Park,,,"810 North First Avenue, Knightdale, NC","810 North First Avenue, Knightdale, NC",http://www.knightdalenc.gov/index.aspx?page=562,,No,Yes,No,No,No,Yes,No,No,No,No,Yes,No,Yes,Yes,No,No,No,No,No,Yes,Knightdale,,,,,,4c8202bd-98b7-46bd-af7f-9f7eabf9bbd9,2017-11-29T20:12:18.873Z,ben.strauss1,2017-11-29T20:29:22.298Z,ben.strauss1,No,No,No,No,No,No,No,No,No,No,No,No,No,No,No,No,,,,
-78.482441247564765,35.789994643250154,241,Harper Park,,,"207 Main St, Knightdale, NC","207 Main St, Knightdale, NC",http://www.knightdalenc.gov/index.aspx?page=351,919-217-2230,No,No,No,No,No,No,No,No,No,No,No,No,Yes,Yes,No,No,No,Yes,No,No,Knightdale,Yes,,,,,1eeb834a-0e1e-4ce2-958b-2f5d4a932a7a,2017-11-29T20:24:00.806Z,ben.strauss1,2017-11-29T20:29:11.967Z,ben.strauss1,No,No,No,No,No,No,No,No,No,No,No,No,No,No,No,No,,,,
-78.487526715857143,35.804996968807458,242,Knightdale Environmental Park,,,"1385 N Smithfield Rd, Knightdale, NC","1385 N Smithfield Rd, Knightdale, NC",http://www.knightdalenc.gov/index.aspx?page=350,919-217-2230,No,No,No,No,No,No,No,No,No,No,No,No,Yes,No,No,No,No,No,No,Yes,Knightdale,No,,,,,c2b25565-bc0e-4505-99c6-8e3c6c511c79,2017-11-29T20:27:12.188Z,ben.strauss1,2017-11-29T20:28:59.475Z,ben.strauss1,No,No,No,No,No,No,No,No,No,No,No,No,No,No,No,No,,,,
-78.473684755494617,35.809413080482983,243,Knightdale Community Park,,,"1137 Old Knight Rd, Knightdale, NC","1137 Old Knight Rd, Knightdale, NC",http://www.knightdalenc.gov/index.aspx?page=347,919-217-2231,No,Yes,No,No,No,No,No,No,No,No,Yes,No,No,No,No,No,No,No,No,No,Knightdale,No,,,,,81b414d2-07c3-4ba0-86e6-b5d13da1dec7,2017-11-29T20:32:07.166Z,ben.strauss1,2017-11-29T20:33:30.153Z,ben.strauss1,No,No,No,No,No,No,No,No,No,No,No,No,No,No,No,No,,,,
-78.494498697450723,35.790547637010931,244,Mingo Creek Park,,,"100 Parkside Commons Drive, Knightdale, NC","100 Parkside Commons Drive, Knightdale, NC",http://www.knightdalenc.gov/index.aspx?page=354,919-217-2230,No,No,No,No,No,No,No,No,Yes,No,No,Yes,No,No,No,No,No,No,No,Yes,Knightdale,No,,,,,35f96770-0576-4d5d-a604-b763a99f3a1e,2017-11-29T20:34:11.173Z,ben.strauss1,2017-11-29T20:35:57.043Z,ben.strauss1,No,No,No,No,No,No,No,No,No,No,No,No,No,No,No,No,,,,
-78.461732659131002,35.925229293358676,245,Rolesville Main Street Park,,,"200 South Main St, Rolesville, NC","200 South Main St, Rolesville, NC",http://rolesvillenc.gov/town-departments/parks-recreation/parks-facilities/,919.554.6582,No,No,No,No,No,No,No,No,Yes,No,Yes,No,Yes,Yes,No,No,No,No,No,Yes,Rolesville,No,,,,,ca5e58c0-58b4-4fa7-9342-40b34666d669,2017-11-29T20:45:37.729Z,ben.strauss1,2017-11-29T20:48:24.363Z,ben.strauss1,No,No,No,No,No,No,No,No,No,No,No,No,No,No,No,No,,,,
-78.484928402692418,35.934177460935643,246,Mill Bridge Nature Park,,,"425 Nature Park Drive, Wake Forest, NC","425 Nature Park Drive, Wake Forest, NC",http://rolesvillenc.gov/town-departments/parks-recreation/parks-facilities/,919.554.6582,No,No,No,No,No,No,No,No,Yes,No,No,No,No,No,No,No,No,No,No,Yes,Rolesville,No,,,,,ce030064-95d3-45c5-8dc0-3819c95253a7,2017-11-29T20:49:54.354Z,ben.strauss1,2017-11-29T20:51:24.965Z,ben.strauss1,No,No,No,Yes,No,No,No,No,No,No,No,No,No,No,No,No,,,,
-78.462848458081268,35.916592917081481,247,Rolesville Community School Park,,,"121 Redford Place Drive, Rolesville, NC","121 Redford Place Drive, Rolesville, NC",http://rolesvillenc.gov/town-departments/parks-recreation/parks-facilities/,919.554.6582,No,Yes,No,No,No,No,No,No,No,No,No,No,Yes,No,No,No,No,No,No,No,Rolesville,No,,,,,7fd27b92-5f1e-4b29-8ca5-c6f6a25c57bd,2017-11-29T20:53:06.210Z,ben.strauss1,2017-11-29T20:54:53.052Z,ben.strauss1,No,No,No,No,No,No,No,No,No,No,No,No,No,No,No,No,,,,
-78.381032923420292,35.782260746957064,248,Wendell Park,,,"601 W. Third Street, Wendell, NC","601 W. Third Street, Wendell, NC",http://www.townofwendell.com/departments/parks-and-recreation,(919) 366-2266,No,Yes,No,No,Yes,Yes,No,No,Yes,No,Yes,No,Yes,Yes,No,Yes,No,Yes,No,Yes,Wendell,Yes,,,,,7c2213eb-81bf-4655-b5fe-fa3e3bce8a82,2017-11-29T21:27:09.469Z,ben.strauss1,2017-11-29T21:29:48.755Z,ben.strauss1,No,No,No,No,No,No,No,No,No,No,No,No,No,No,No,No,,,,
-78.370733240802835,35.780728878638172,249,J Ashley Wall Town Square,,,"14 W Third St, Wendell, NC","14 W Third St, Wendell, NC",http://www.townofwendell.com/departments/parks-and-recreation/facilites/town-square,,No,No,No,No,No,No,No,No,No,No,No,No,Yes,No,No,No,No,No,No,No,Wendell,No,,,,,595d5f9b-f0dc-448f-985a-2d81ac415f71,2017-11-29T21:34:18.476Z,ben.strauss1,2018-04-09T15:21:30.007Z,ben.strauss1,No,No,No,No,No,No,No,No,No,No,No,No,No,No,No,No,,,,
-78.87445699570398,35.84228351528396,250,Northwest Park,,,998 Parkside Vally Drive,"Morrisville, NC 27560",http://www.townofmorrisville.org/government/departments-services/parks-recreation-cultural-resources/parks-and-greenways/northwest-park,919-463-7110,No,No,No,No,No,No,No,No,No,No,No,No,Yes,Yes,No,No,No,No,No,Yes,Town of Morrisville,Yes,,,,,0aa32f9d-fa94-4635-b399-852e4e819f48,2018-01-30T14:40:30.297Z,rwadkins_morrisvillenc,2018-04-09T15:18:39.756Z,rwadkins_morrisvillenc,No,No,No,No,No,No,No,No,No,No,No,No,No,No,No,No,,,,
-78.82070552704424,35.82412150469564,251,Cedar Fork District Park,,,228 Aviation Parkway,"Morrisville, NC 27560",http://www.townofmorrisville.org/government/departments-services/parks-recreation-cultural-resources/parks-and-greenways/cedar-fork-district-park,919-463-7110,No,No,No,No,No,No,No,No,Yes,No,Yes,No,Yes,No,No,No,No,No,No,No,Town of Morrisville,Yes,,,,,6089c1f0-7a9e-4556-9e1d-448f5be12df8,2018-01-30T14:57:28.573Z,rwadkins_morrisvillenc,2018-04-09T15:22:31.855Z,ben.strauss1,No,No,No,No,No,No,No,No,No,No,No,No,No,No,No,No,,,,
-78.84368669388445,35.845831557576567,252,Church Street Park,,,5800 Cricket Pitch Way,"Morrisville, NC 27560",http://www.townofmorrisville.org/government/departments-services/parks-recreation-cultural-resources/parks-and-greenways/church-street-park,919-463-7110,No,No,No,No,No,No,No,No,Yes,No,Yes,No,Yes,Yes,No,No,No,Yes,No,Yes,Town of Morrisville,Yes,,,,,2d28ee04-f540-4a24-b61b-63d0900a15eb,2018-01-30T15:05:34.231Z,rwadkins_morrisvillenc,2018-04-09T15:15:53.441Z,rwadkins_morrisvillenc,No,No,No,No,No,No,No,No,No,No,No,No,No,No,No,No,,,,
-78.820963019109655,35.821442128105396,253,Crabtree Creek Nature Park,,,151 Keybridge Drive,"Morrisville, NC 27560",http://www.townofmorrisville.org/government/departments-services/parks-recreation-cultural-resources/parks-and-greenways/crabtree-creek-nature-park,919-463-7110,No,No,No,No,No,No,No,No,Yes,No,Yes,No,No,No,No,No,No,No,No,No,Town of Morrisville,No,,,,,1bbcc625-9779-43cd-a526-7d110f3b1fdb,2018-01-30T15:10:47.839Z,rwadkins_morrisvillenc,2018-04-09T15:16:44.030Z,rwadkins_morrisvillenc,No,No,No,No,No,No,No,No,No,No,No,No,No,No,No,No,,,,
-78.829460257269076,35.821981490403942,254,Indian Creek Greenway and Trailhead,,,101 Town Hall Drive,"Morrisville, NC 27560",http://www.townofmorrisville.org/government/departments-services/parks-recreation-cultural-resources/parks-and-greenways/indian-creek-greenway-and-trailhead,919-463-7110,No,No,No,No,No,No,No,No,Yes,No,No,No,Yes,Yes,No,No,No,No,No,No,Town of Morrisville,Yes,,,,,35a9ac14-beab-401b-9406-cb80de681faa,2018-01-30T15:16:48.584Z,rwadkins_morrisvillenc,2018-04-09T15:17:38.310Z,rwadkins_morrisvillenc,No,No,No,No,No,No,No,No,No,No,No,No,No,No,No,No,,,,
-78.84563934204732,35.816117903628182,255,Morrisville Community Park,,,1520 Morrisville Parkway,"Morrisville, NC 27560",http://www.townofmorrisville.org/government/departments-services/parks-recreation-cultural-resources/parks-and-greenways/morrisville-community-park,919-463-7110,No,Yes,No,No,No,No,No,No,Yes,No,Yes,No,Yes,Yes,No,No,No,No,No,No,Town of Morrisville,Yes,,,,,91c28759-023e-441e-b548-92c231588147,2018-01-30T15:32:34.664Z,rwadkins_morrisvillenc,2018-04-09T15:19:39.663Z,rwadkins_morrisvillenc,No,No,No,No,No,No,No,No,No,No,No,No,No,No,No,No,,,,
-78.842678183294808,35.851536418924042,257,Shiloh Park/Luther Green Center,,,922 Church Street,"Morrisville, NC 27560",http://www.townofmorrisville.org/government/departments-services/parks-recreation-cultural-resources/parks-and-greenways/shiloh-park-luther-green-center,919-463-7110,No,Yes,No,No,No,No,No,No,No,No,Yes,Yes,Yes,Yes,No,Yes,Yes,No,No,Yes,Town of Morrisville,Yes,,,Tobacco Barn and batting cage,,a97a92e9-faed-46d0-9967-063ed1f239a9,2018-01-30T15:42:49.467Z,rwadkins_morrisvillenc,2018-04-09T15:20:49.943Z,rwadkins_morrisvillenc,No,No,No,No,No,No,No,No,No,No,No,No,No,No,Yes,No,,,,
-78.404243242778051,35.745338013469286,258,Turnipseed Nature Preserve,Hunt Valley Entrance,,7100 Hunt Valley Trail,"Wendell, NC 27591",http://www.wakegov.com/parks/turnipseed/Pages/default.aspx,,No,No,No,No,No,No,No,No,No,No,Yes,No,No,No,No,No,No,No,No,Yes,Wake County,No,,,,,b372dec8-9b53-44a6-8ca8-5b82af3338aa,2018-02-09T16:54:16.743Z,Emerson.Barker,2018-03-19T19:47:03.069Z,Emerson.Barker,No,No,No,No,No,No,No,No,No,No,No,No,No,No,No,No,No,No,No,No
-78.658528609190085,36.004386621290813,263,Falls Lake State Recreation Area - Beaverdam Lake,,,"14600 Creedmoor Rd, Wake Forest","14600 Creedmoor Rd, Wake Forest",https://www.ncparks.gov/falls-lake-state-recreation-area,919-676-1027,,,,Yes,,,,Yes,,,,,Yes,Yes,,,,,,Yes,State of North Carolina,Yes,,,,,53e848dd-776c-4e01-b852-26fdf5c0b7e3,2018-04-19T12:53:39.957Z,ben.strauss1,2018-04-19T13:01:36.120Z,ben.strauss1,No,,,,,,,,,,,,,,,,Yes,,,
-78.62457988343381,35.99580109137657,264,Falls Lake State Recreation Area - B.W. Wells,,,"1630 Bent Rd, Wake Forest","1630 Bent Rd, Wake Forest",https://www.ncparks.gov/falls-lake-state-recreation-area,919-676-1027,,,,Yes,,,,,,,,,,,,,,,,Yes,State of North Carolina,,,,,,0f03759e-603f-4a26-9297-411da227657a,2018-04-19T13:05:31.785Z,ben.strauss1,2018-04-19T13:10:17.472Z,ben.strauss1,No,,,Yes,,,,,,,,,,,,,No,,,
-78.657389446594081,36.010144484665098,265,Falls Lake State Recreation Area - Holly Point,,,14424 New Light Rd. Wake Forest,14424 New Light Rd. Wake Forest,https://www.ncparks.gov/falls-lake-state-recreation-area,919-676-1027,,,,Yes,,,,,,,,,Yes,Yes,,,,,,Yes,State of North Carolina,Yes,,,,,d2416475-ee5d-405b-a519-a9a584d2bc73,2018-04-19T13:08:04.237Z,ben.strauss1,2018-04-19T13:09:32.683Z,ben.strauss1,No,,,Yes,,,,,,,,,,,,,No,,,
-78.688766472389446,36.011670716326165,266,Falls Lake State Recreation Area - Highway 50,,,"13900 Creedmoor Road, Wake Forest","13900 Creedmoor Road, Wake Forest",https://www.ncparks.gov/falls-lake-state-recreation-area,(919) 676-1027,,,,Yes,,,,,,,,,Yes,,,,,,,Yes,State of North Carolina,Yes,,,,,d660b731-b555-481d-8ed3-662395ff91e9,2018-04-19T13:10:53.399Z,ben.strauss1,2018-04-19T13:11:59.793Z,ben.strauss1,No,,,,,,,,,,,,,,,,No,,,
-78.698655392696111,36.042448804009368,267,Falls Lake State Recreation Area - Sandling Beach,,,"14813 Creedmoor Rd, Wake Forest","14813 Creedmoor Rd, Wake Forest",https://www.ncparks.gov/falls-lake-state-recreation-area,(919) 676-1027,,,,,,,,,,,,,Yes,Yes,,,,,,Yes,State of North Carolina,Yes,,,,,71511b1a-1941-4156-924c-678ffaadfbeb,2018-04-19T13:14:20.684Z,ben.strauss1,2018-04-19T13:15:30.678Z,ben.strauss1,No,,,,,,,,,,,,,,,,No,,,
-78.659416268684168,35.99381628226476,268,Falls Lake State Recreation Area - Shinleaf,,,"13708 New Light Road, Wake Forest","13708 New Light Road, Wake Forest",https://www.ncparks.gov/falls-lake-state-recreation-area,(919) 676-1027,,,,Yes,,,,,,,,,,,,,,,,Yes,State of North Carolina,Yes,,,,,6c3ca44f-e7b3-4c54-a92e-776f5353d955,2018-04-19T13:16:16.746Z,ben.strauss1,2018-04-19T13:17:24.047Z,ben.strauss1,No,,,Yes,,,,,,,,,,,,,No,,,
-78.902966098523692,35.719428322544275,270,Nature Park (Seymour Athletic Fields),,,2500 Evans Road,2600 Evan Road,,,No,No,No,No,No,No,No,No,Yes,No,Yes,Yes,Yes,Yes,No,No,No,Yes,No,Yes,Apex,Yes,35.719409,-78.903012,,,cb59b8e8-f0c0-4596-b9aa-aaaf8650035c,2018-08-02T14:25:49.170Z,areincke_apexnc,2018-08-03T12:27:17.187Z,areincke_apexnc,No,No,No,No,No,No,No,No,Yes,No,No,No,No,No,No,No,No,,,
-78.848186669043457,35.735806344117293,271,Rodgers Family Skate Plaza at Trackside,Hunter Street Park,,1290 Ambergate Station,,https://www.apexnc.org/485/Trackside-Skate-Plaza,919-249-3402,No,No,No,No,No,No,No,No,Yes,No,No,No,No,No,No,No,No,No,No,No,Apex,Yes,35.735807,-78.848187,,,e9d09a7e-e12b-48df-b1da-1fafbf522bbe,2018-08-02T14:52:03.971Z,areincke_apexnc,2018-08-03T12:12:43.885Z,areincke_apexnc,No,No,No,No,No,No,No,No,No,Yes,No,No,No,No,No,No,No,No,No,No
-78.815903566054999,35.746934259441346,272,APEX COMMUNITY PARK (Lake Pine),,,2101 Lake Pine Drive,2000 Laura Duncan Road,https://www.apexnc.org/795/Apex-Community-Park,919-249-3402,No,No,No,Yes,No,No,No,Yes,Yes,No,No,No,No,No,No,No,No,No,No,Yes,Apex,Yes,35.746843,-78.815963,,,a69d2df6-05e5-4f40-9fb4-1a689d70123d,2018-08-02T15:14:49.002Z,areincke_apexnc,2018-08-02T18:51:47.124Z,areincke_apexnc,No,,,,,,,,,,,,,,,,Yes,,,
-78.822949768640996,35.753595849938897,273,Elevate Fitness Course,,,2200 Laura Duncan Road,,http://www.apexnc.org/1187/Elevate-Fitness-Course,919-249-2304,,,,,,,,,,Yes,,,,,,,,,,,Apex,Yes,35.753613,-78.823003,,,c32b6440-829b-47b0-9ad8-219ec3c72f94,2018-08-03T12:14:03.733Z,areincke_apexnc,2018-08-03T12:17:16.341Z,areincke_apexnc,No,,,,,,,,,,,,,,,No,No,,,
-78.845951052050395,35.733917023121542,274,APEX COMMUNITY CENTER,,,53 Hunter Street,,http://www.apexnc.org/513/Program-Guides,919-249-3402,No,No,No,No,No,No,No,No,No,No,No,No,No,No,No,Yes,No,No,No,Yes,Apex,Yes,35.733917,-78845943,,,9b9a38a0-13d0-4c02-b2c7-98670f1ec303,2018-08-03T12:29:37.004Z,areincke_apexnc,2018-08-03T12:33:04.252Z,areincke_apexnc,No,No,No,No,Yes,No,Yes,No,No,No,Yes,No,No,No,No,No,No,,,
-78.850336463791734,35.732653254288529,275,HALLE CULTURAL ARTS CENTER,,,237 N Salem Street,,http://www.apexnc.org/454/Halle-Cultural-Arts-Center,919-249-1120,Yes,No,No,No,No,No,No,No,No,No,No,No,No,No,No,No,No,No,No,No,Apex,Yes,35.7326473,-78.8503311,,,a94d45d2-a126-4ad7-9e28-ff46ea8e8f77,2018-08-03T12:37:38.423Z,areincke_apexnc,2018-08-03T12:40:40.416Z,areincke_apexnc,No,No,No,Yes,No,No,No,No,No,No,No,No,No,No,No,No,No,,,
-78.765552166873022,35.693521781858806,276,Crowder County Park,,,4709 Ten Ten Road,"Apex, NC 27539",http://www.wakegov.com/parks/crowder/Pages/default.aspx,919-662-2850,No,No,No,No,No,No,No,No,No,No,Yes,No,Yes,Yes,No,No,No,No,No,Yes,Wake County,Yes,,,,,d5e019da-2a81-470b-a768-f7e65ab78bb5,2019-04-02T14:30:14.357Z,Emerson.Barker,2019-04-02T14:36:01.898Z,Emerson.Barker,No,No,No,No,No,No,No,No,Yes,No,No,No,No,No,No,No,No,No,Yes,No
-78.837822958858993,35.667981482266754,277,Ting Park,,,1151 N. Main St.,"Holly Springs, NC 27540",https://www.hollyspringsnc.us/607/Ting-Park,(919) 746-8300,,Yes,,,,,,,,,Yes,Yes,,,,,,Yes,,,Holly Springs,,,,,,9c975aa4-793d-432b-8c5d-fb97cd34ae35,2019-06-27T15:31:23.465Z,ben.strauss1,2019-06-27T15:33:19.851Z,ben.strauss1,No,,,,,,,,,,,,,,,,No,,,
