X,Y,OBJECTID,TAG,NAME,GRADELEVEL,PHONE,CALENDAR,ADDRESSNUM,ADDRESS,CITY,ZIPCODE,MAGNETPROGRAM,WEBSITE,DISTRICT,TYPE
2079034.349892899394035,726189.156737625598907,1,568,Swift Creek Elementary,Elementary,919-233-4320,Traditional,5601,Tryon Rd,Raleigh,27606,N/A,http://www.wcpss.net/swiftcreekes,5,Elementary Schools
2063089.617674812674522,734826.331720471382141,2,340,Briarcliff Elementary,Elementary,919-460-3443,Traditional,1220,Pond St,Cary,27511,N/A,http://www.wcpss.net/briarcliffes,9,Elementary Schools
2066875.759380728006363,730870.613582044839859,3,414,Farmington Woods Elementary,Elementary,919-460-3469,Traditional,1413,Hampton Valley Rd,Cary,27511,International Baccalaureate Programme,http://www.wcpss.net/farmingtonwoodses,9,Magnet Elementary School
2069263.761166393756866,736058.347301051020622,4,368,Cary High,High,919-460-3549,Traditional,638,Walnut St,Cary,27511,N/A,http://www.wcpss.net/caryhs,9,High School
2070549.47677081823349,737890.926641136407852,5,304,Adams Elementary,Elementary,919-460-3431,Year-Round,805,Cary Towne Blvd,Cary,27511,N/A,http://www.wcpss.net/adamses,9,Elementary Schools
2042533.408459231257439,717373.978173792362213,6,308,Apex Elementary,Elementary,919-387-2150,Traditional,700,Tingen Rd,Apex,27502,N/A,http://www.wcpss.net/apexes,8,Elementary Schools
2048185.794464141130447,726157.985868215560913,7,316,Apex High,High,919-387-2208,Traditional,1501,Laura Duncan Rd,Apex,27502,N/A,http://www.wcpss.net/apexhs,8,High School
2065777.279950395226479,743672.857662543654442,8,460,Kingswood Elementary,Elementary,919-460-3481,Traditional,200,E Johnson St,Cary,27513,Montessori Program grades PK-5,http://www.wcpss.net/kingswoodes,9,Magnet Elementary School
2062329.891175895929337,744446.473241299390793,9,520,Northwoods Elementary,Elementary,919-460-3491,Traditional,8850,Chapel Hill Rd,Cary,27513,N/A,http://www.wcpss.net/northwoodses,9,Elementary Schools
2088523.440822809934616,737156.967807218432426,10,376,Combs Elementary,Elementary,919-233-4300,Traditional,2001,Lorimer Rd,Raleigh,27606,Leadership,http://www.wcpss.net/combses,5,Magnet Elementary School
2085719.866377472877502,734753.640264794230461,11,318,Athens Drive High,High,919-233-4050,Traditional,1420,Athens Dr,Raleigh,27606,Center for Medical Sciences and Global Health Initiatives,http://www.wcpss.net/athensdrivehs,5,Magnet High School
2103088.36116798222065,742765.226603791117668,12,348,Broughton High,High,919-856-7810,Traditional,723,St Mary's St,Raleigh,27605,Global Studies / Language Immersion,http://www.wcpss.net/broughtonhs,6,Magnet High School
2117609.511259481310844,744636.270433887839317,13,536,Powell Elementary,Elementary,919-856-7737,Traditional,1130,Marlborough Rd,Raleigh,27610,Center for Play and Ingenuity,http://www.wcpss.net/powelles,4,Magnet Elementary School
2113800.079245805740356,742081.852970540523529,14,528,Mary E. Phillips High School,High,919-856-7710,Traditional,1923,Milburnie Rd,Raleigh,27610,N/A,http://www.wcpss.net/phillipshs,4,Special / Optional Schools
2110823.125882148742676,735812.311047717928886,15,472,Ligon Middle,Middle,919-856-7929,Traditional,706,E Lenoir St,Raleigh,27601,AIG Basics Program - Wake County AIG Identification Required,http://www.wcpss.net/ligonms,4,Magnet Middle School
2105970.614589810371399,734440.135314375162125,16,596,Washington Elementary,Elementary,919-856-7960,Traditional,1000,Fayetteville St,Raleigh,27601,"Gifted and Talented grades 9-12;  IB Diploma Programme available at grades 11-12",http://www.wcpss.net/washingtones,5,Magnet Elementary School
2110385.330825984477997,732501.957104131579399,17,356,Carnage Middle,Middle,919-856-7600,Traditional,1425,Carnage Dr,Raleigh,27610,AIG Basics Program - Wake County AIG Identification Required,http://www.wcpss.net/carnagems,4,Magnet Middle School
2101776.546206310391426,751064.421291470527649,18,388,Daniels Middle,Middle,919-881-4860,Traditional,2816,Oberlin Rd,Raleigh,27608,Global Studies / Language Immersion,http://www.wcpss.net/danielsms,6,Magnet Middle School
2103627.521178901195526,755562.822071552276611,19,548,Root Elementary,Elementary,919-881-4940,Traditional,3202,Northampton St,Raleigh,27609,N/A,http://www.wcpss.net/rootes,6,Elementary Schools
2098232.030985653400421,772059.434419468045235,20,488,Lynn Road Elementary,Elementary,919-870-4074,Traditional,1601,Lynn Rd,Raleigh,27612,N/A,http://www.wcpss.net/lynnroades,6,Elementary Schools
2102382.422291144728661,762615.584868878126144,21,344,Brooks Elementary,Elementary,919-881-1350,Traditional,700,Northbrook Dr,Raleigh,27609,GT/AIG/Museums,http://www.wcpss.net/brookses,6,Magnet Elementary School
2106202.70730148255825,762001.974219471216202,22,360,Carroll Middle,Middle,919-881-1370,Traditional,4520,Six Forks Rd,Raleigh,27609,Leadership and World Languages,http://www.wcpss.net/carrollms,6,Magnet Middle School
2109963.243743643164635,760981.530066132545471,23,396,Douglas Elementary,Elementary,919-881-4894,Traditional,600,Ortega Rd,Raleigh,27609,Creative Arts and Science Program,http://www.wcpss.net/douglases,6,Magnet Elementary School
2115345.92129847407341,764309.218620717525482,24,496,Millbrook Elementary,Elementary,919-850-8700,Traditional,1520,E Millbrook Rd,Raleigh,27609,Environmental Connections,http://www.wcpss.net/millbrookes,6,Magnet Elementary School
2126550.083929479122162,754350.14831580221653,25,616,Wilburn Elementary,Elementary,919-850-8738,"Year-Round, Track 4 Only",3707,Marsh Creek Rd,Raleigh,27604,N/A,http://www.wcpss.net/wilburnes,4,Elementary Schools
2125516.110931813716888,766985.366811707615852,26,408,East Millbrook Middle,Middle,919-850-8755,Traditional,3801,Spring Forest Rd,Raleigh,27616,Academy for Visual and Performing Arts,http://www.wcpss.net/eastmillbrookms,3,Magnet Middle School
2131786.121357649564743,772949.732835710048676,27,415,Fox Road Elementary,Elementary,919-850-8845,Traditional,7101,Fox Rd,Raleigh,27616,International Baccalaureate Programme,http://www.wcpss.net/foxroades,3,Magnet Elementary School
2101800.565515235066414,779731.868877708911896,28,470,Lead Mine Elementary,Elementary,919-870-4120,Traditional,8301,Old Lead Mine Rd,Raleigh,27615,N/A,http://www.wcpss.net/leadminees,7,Elementary Schools
2109912.189383819699287,794883.534112378954887,29,334,Brassfield Elementary,Elementary,919-870-4080,Year-Round,2001,Brassfield Rd,Raleigh,27614,N/A,http://www.wcpss.net/brassfieldes,3,Elementary Schools
2096711.402793318033218,800995.674447134137154,30,531,Pleasant Union Elementary,Elementary,919-870-4230,Year-Round,1900,Pleasant Union Ch Rd,Raleigh,27614,N/A,http://www.wcpss.net/pleasantuniones,3,Elementary Schools
2061232.715876817703247,668121.158700630068779,31,424,Fuquay-Varina Middle,Middle,919-557-2727,Traditional,109,N Ennis St,Fuquay-Varina,27526,N/A,http://www.wcpss.net/fuquayvarinams,2,Middle School
2113640.301350146532059,693321.682118386030197,32,540,Rand Road Elementary,Elementary,919-662-2275,"Year-Round, Track 4 Only",300,Arbor Greene Dr,Garner,27529,N/A,http://www.wcpss.net/randroades,2,Elementary Schools
2122792.009424641728401,733920.893570721149445,33,352,Bugg Elementary,Elementary,919-250-4750,Traditional,825,Cooper Rd,Raleigh,27610,Center for Design and Computer Science,http://www.wcpss.net/bugges,4,Magnet Elementary School
2152663.706242814660072,747763.657223716378212,34,480,Lockhart Elementary,Elementary,919-266-8525,"Year-Round, Track 4 Only",1320,N Smithfield Rd,Knightdale,27545,N/A,http://www.wcpss.net/lockhartes,1,Elementary Schools
2170800.454089984297752,750818.672439128160477,35,411,East Wake High,High,919-365-2625,Traditional,5101,Rolesville Rd,Wendell,27591,N/A,http://www.wcpss.net/eastwakehs,1,High School
2186301.477877900004387,741338.897107377648354,36,600,Wendell Elementary,Elementary,919-365-2660,Traditional,3355,Wendell Blvd,Wendell,27591,Creative Arts and Science Program,http://www.wcpss.net/wendelles,1,Magnet Elementary School
2203781.980646476149559,758335.310949131846428,37,636,Zebulon Middle,Middle,919-404-3630,Traditional,1000,Shepard School Rd,Zebulon,27597,"Gifted and Talented grades 9-12;  IB Diploma Programme available at grades 11-12",http://www.wcpss.net/zebulonms,1,Magnet Middle School
2147730.740715056657791,755978.430820375680923,38,410,East Wake Middle,Middle,919-266-8500,Modified,2700,Old Milburnie Rd,Raleigh,27604,N/A,http://www.wcpss.net/eastwakems,1,Middle School
2159130.288453981280327,789726.651053458452225,39,544,Rolesville Elementary,Elementary,919-554-8686,Traditional,307,S Main St,Rolesville,27571,N/A,http://www.wcpss.net/rolesvillees,1,Elementary Schools
2143818.800704315304756,810635.537057131528854,40,584,Wake Forest Elementary,Elementary,919-554-8655,Traditional,136,W Sycamore Ave,Wake Forest,27587,N/A,http://www.wcpss.net/wakeforestes,1,Elementary Schools
2139527.976936891674995,802473.521885126829147,41,592,Wake Forest Middle,Middle,919-554-8440,Traditional,1800,S Main St,Wake Forest,27587,N/A,http://www.wcpss.net/wakeforestms,1,Middle School
2124283.999222815036774,782800.895876124501228,42,398,Durant Road Elementary,Elementary,919-870-4220,Year-Round,9901,Durant Rd,Raleigh,27614,N/A,http://www.wcpss.net/durantroades,3,Elementary Schools
2091249.620409816503525,759302.811966881155968,43,564,Stough Elementary,Elementary,919-881-4950,Traditional,4210,Edwards Mill Rd,Raleigh,27612,Chinese Immersion,http://www.wcpss.net/stoughes,6,Magnet Elementary School
2093709.710633978247643,765475.16510771214962,44,628,York Elementary,Elementary,919-881-4960,Traditional,5201,Brookhaven Dr,Raleigh,27612,N/A,http://www.wcpss.net/yorkes,7,Elementary Schools
2094427.388988643884659,770995.627491965889931,45,452,Jeffreys Grove Elementary,Elementary,919-881-4910,Traditional,6119,Creedmoor Rd,Raleigh,27612,Spanish Immersion,http://www.wcpss.net/jeffreysgrovees,7,Magnet Elementary School
2070839.047713980078697,695807.499653294682503,46,606,West Lake Elementary,Elementary,919-662-2300,Year-Round,4500,West Lake Rd,Apex,27539,N/A,http://www.wcpss.net/westlakees,5,Elementary Schools
2039314.501183152198792,747972.770322546362877,47,441,Green Hope High,High,919-380-3700,Traditional,2500,Carpenter Upchurch Rd,Cary,27519,N/A,http://www.wcpss.net/greenhopehs,9,High School
2117541.47924330830574,726552.361719876527786,48,562,Southeast Raleigh High,High,919-856-2800,Modified,2600,Rock Quarry Rd,Raleigh,27610,"University Connections: Design, Art and Engineering",http://www.wcpss.net/southeastraleighhs,4,Magnet High School
2116199.76801598072052,731767.396237298846245,49,010,Rock Quarry Service Center,Administrative,919-856-8120, ,1551,Rock Quarry Rd,Raleigh,27610,N/A, ,4,Administration
2031342.351116985082626,722381.606281876564026,50,523,Olive Chapel Elementary,Elementary,919-387-4440,Year-Round,1751,Olive Chapel Rd,Apex,27502,N/A,http://www.wcpss.net/olivechapeles,8,Elementary Schools
2181783.890128314495087,743372.508197635412216,51,362,Carver Elementary,Elementary,919-365-2680,Modified,291,Liles-Dean Rd,Wendell,27591,N/A,http://www.wcpss.net/carveres,1,Elementary Schools
2063935.523135229945183,715127.806485041975975,52,522,Oak Grove Elementary,Elementary,919-387-4490,Year-Round,10401,Penny Rd,Raleigh,27606,N/A,http://www.wcpss.net/oakgrovees,8,Elementary Schools
2045012.492083728313446,719244.817936047911644,53,312,Apex Middle,Middle,919-387-2181,Traditional,400,E Moore St,Apex,27502,N/A,http://www.wcpss.net/apexms,8,Middle School
2043198.709293976426125,723196.998679965734482,54,328,Baucom Elementary,Elementary,919-387-2168,Traditional,400,Hunter St,Apex,27502,N/A,http://www.wcpss.net/baucomes,8,Elementary Schools
2119582.514859393239021,757420.511925712227821,55,336,Brentwood Elementary,Elementary,919-850-8720,Traditional,3426,Ingram Dr,Raleigh,27604,School of Engineering,http://brentwoodes.wix.com/brentwoodes,6,Magnet Elementary School
2069267.454072400927544,738793.497670635581017,56,402,East Cary Middle,Middle,919-466-4377,Traditional,1111,SE Maynard Rd,Cary,27511,N/A,http://www.wcpss.net/eastcaryms,9,Middle School
2117508.048535898327827,740661.689800381660461,57,412,Enloe High,High,919-856-7918,Traditional,128,Clarendon Crescent,Raleigh,27610,"Gifted and Talented grades 9-12;  IB Diploma Programme available at grades 11-12",http://www.wcpss.net/enloehs,4,Magnet High School
2154511.689423486590385,740875.91082863509655,58,464,Knightdale Elementary,Elementary,919-266-8540,Traditional,109,Ridge St,Knightdale,27545,N/A,http://www.wcpss.net/knightdalees,1,Elementary Schools
2117255.99785889685154,769954.161070957779884,59,500,Millbrook High,High,919-850-8787,Traditional,2201,Spring Forest Rd,Raleigh,27615,International Baccalaureate Programme,http://www.wcpss.net/millbrookhs,3,Magnet High School
2111692.404655396938324,776250.588766798377037,60,516,North Ridge Elementary,Elementary,919-870-4100,Traditional,7120,Harps Mill Rd,Raleigh,27615,N/A,http://www.wcpss.net/northridgees,3,Elementary Schools
2104571.067848235368729,768358.52252995967865,61,552,Sanderson High,High,919-881-4800,Traditional,5500,Dixon Dr,Raleigh,27609,N/A,http://www.wcpss.net/sandersonhs,6,High School
2045529.02418714761734,750286.272913381457329,62,504,Morrisville Elementary,Elementary,919-460-3400,Year-Round,1519,Morrisville Pkwy,Morrisville,27560,N/A,http://www.wcpss.net/morrisvillees,7,Elementary Schools
2060991.726857483386993,747071.994236961007118,63,604,West Cary Middle,Middle,919-460-3528,Traditional,1000,Evans Rd,Cary,27513,N/A,http://www.wcpss.net/westcaryms,9,Middle School
2109036.835491478443146,780351.614029303193092,64,608,West Millbrook Middle,Middle,919-870-4050,Traditional,8115,Strickland Rd,Raleigh,27615,International Baccalaureate Programme,http://www.wcpss.net/westmillbrookms,3,Middle School
2092978.245889559388161,750679.661562293767929,65,492,Martin Middle,Middle,919-881-4970,Traditional,1701,Ridge Rd,Raleigh,27607,"Gifted and Talented grades 9-12;  IB Diploma Programme available at grades 11-12",http://www.wcpss.net/martinms,6,Magnet Middle School
2096350.915653392672539,743962.011939883232117,66,524,Olds Elementary,Elementary,919-856-7699,Traditional,204,Dixie Trl,Raleigh,27607,N/A,http://www.wcpss.net/oldses,6,Elementary Schools
2143415.524936065077782,813697.634279385209084,67,588,Wake Forest High,High,919-554-8611,Traditional,420,W Stadium Dr,Wake Forest,27587,N/A,http://www.wcpss.net/wakeforesths,1,High School
2103380.136503055691719,740847.449927553534508,68,620,Wiley Elementary,Elementary,919-856-7723,Traditional,301,St Mary's St,Raleigh,27605,International Studies,http://www.wcpss.net/wileyes,6,Magnet Elementary School
2132785.984515398740768,780551.837710216641426,69,618,Wildwood Forest Elementary,Elementary,919-713-0600,Traditional,8401,Wild Wood Forest Dr,Raleigh,27616,N/A,http://www.wcpss.net/wildwoodforestes,3,Elementary Schools
2080434.704047560691833,723528.801165968179703,70,626,Yates Mill Elementary,Elementary,919-233-4244,Traditional,5993,Yates Mill Pond Rd,Raleigh,27606,N/A,http://www.wcpss.net/yatesmilles,5,Elementary Schools
2104488.494850650429726,742532.582384049892426,71,525,Partnership Elementary,Elementary,919-856-8200,Modified,601,Devereux St,Raleigh,27605,Interactive Community,http://www.wcpss.net/partnershipes,6,Magnet Elementary School
2092487.331188976764679,730981.073334887623787,72,370,Centennial Campus Middle,Middle,919-233-4217,Modified,1900,Main Campus Dr,Raleigh,27606,University Connections and Leadership,http://www.wcpss.net/centennialms,5,Magnet Middle School
2041496.21171472966671,747277.844875127077103,73,439,Green Hope Elementary,Elementary,919-388-5270,Traditional,2700,Louis Stephens Dr,Cary,27519,N/A,http://www.wcpss.net/greenhopees,9,Elementary Schools
2144670.708449319005013,800723.484046638011932,74,444,Heritage Middle,Middle,919-562-6204,Year-Round,3400,Rogers Rd,Wake Forest,27587,N/A,http://www.wcpss.net/heritagems,1,Middle School
2108365.289918556809425,737611.324510052800179,75,506,Moore Square Middle,Middle,919-664-5737,Modified,301,S Person St,Raleigh,27601,GT/AIG/Museums,http://www.wcpss.net/mooresquarems,5,Magnet Middle School
2099212.465048402547836,786040.130867466330528,76,326,Baileywick Road Elementary,Elementary,919-518-0090,Traditional,9425,Baileywick Rd,Raleigh,27615,N/A,http://www.wcpss.net/baileywickroades,3,Elementary Schools
2071049.631938472390175,697612.708641290664673,77,495,Middle Creek High,High,919-773-3838,Traditional,123,Middle Creek Park Ave,Apex,27539,N/A,http://www.wcpss.net/middlecreekhs,5,High School
2050359.073254063725471,717166.570452123880386,78,484,Lufkin Road Middle,Middle,919-387-4465,Year-Round,1002,Lufkin Rd,Apex,27539,N/A,http://www.wcpss.net/lufkinroadms,8,Middle School
2037029.99033223092556,736155.694547295570374,79,571,Turner Creek Elementary,Elementary,919-363-1391,Year-Round,6801,Turner Creek Rd,Cary,27519,N/A,http://www.wcpss.net/turnercreekes,8,Elementary Schools
2044405.160293146967888,730243.960635885596275,80,550,Salem Elementary,Elementary,919-363-2865,Year-Round,6116,Old Jenks Rd,Apex,27523,N/A,http://www.wcpss.net/salemes,9,Elementary Schools
2045051.901125639677048,730946.369007959961891,81,551,Salem Middle,Middle,919-363-1870,Year-Round,6150,Old Jenks Rd,Apex,27523,N/A,http://www.wcpss.net/salemms,9,Middle School
2034325.602696388959885,746446.171013548970222,82,443,Highcroft Drive Elementary,Elementary,919-460-3527,Traditional,5415,Highcroft Dr,Cary,27519,N/A,http://www.wcpss.net/highcroftdrivees,8,Elementary Schools
2044270.192059144377708,737944.914722129702568,83,391,Davis Drive Middle,Middle,919-387-3033,Traditional,2101,Davis Dr,Cary,27519,N/A,http://www.wcpss.net/davisdrivems,9,Middle School
2044391.156056061387062,738843.949341386556625,84,390,Davis Drive Elementary,Elementary,919-387-2130,Traditional,2151,Davis Dr,Cary,27519,N/A,http://www.wcpss.net/davisdrivees,9,Elementary Schools
2144493.342662319540977,799786.669319212436676,85,454,Heritage Elementary,Elementary,919-562-6000,Year-Round,3500,Rogers Rd,Wake Forest,27587,N/A,http://www.wcpss.net/heritagees,1,Elementary Schools
2047577.044041231274605,759544.597900629043579,86,369,Cedar Fork Elementary,Elementary,919-388-5240,Traditional,1050,Town Hall Dr,Morrisville,27560,N/A,http://www.wcpss.net/cedarforkes,7,Elementary Schools
2032894.573406234383583,757241.376129135489464,87,526,Panther Creek High,High,919-463-8656,Traditional,6770,McCrimmon Pkwy,Cary,27519,N/A,http://www.wcpss.net/panthercreekhs,7,High School
2064855.218802392482758,739506.603199794888496,88,364,Cary Elementary,Elementary,919-460-3455,Traditional,400,Kildaire Farm Rd,Cary,27511,N/A,http://www.wcpss.net/caryes,9,Elementary Schools
2044880.032046809792519,683472.449848383665085,89,455,Holly Springs High,High,919-577-1444,Traditional,5329,Cass Holt Rd,Holly Springs,27540,N/A,http://www.wcpss.net/hollyspringshs,8,High School
2057879.486690893769264,782982.940459549427032,90,342,Brier Creek Elementary,Elementary,919-484-4747,Year-Round,9801,Brier Creek Pkwy,Raleigh,27617,N/A,http://www.wcpss.net/briercreekes,7,Elementary Schools
2122129.540277153253555,783971.758363798260689,91,399,Durant Road Middle,Middle,919-870-4098,Year-Round,10401,Durant Rd,Raleigh,27614,N/A,http://www.wcpss.net/durantroadms,3,Middle School
2055918.153999403119087,743344.112257048487663,92,598,Weatherstone Elementary,Elementary,919-380-6988,Traditional,1000,Olde Weatherstone Way,Cary,27513,N/A,http://www.wcpss.net/weatherstonees,9,Elementary Schools
2115066.392329975962639,715694.524839803576469,93,512,North Garner Middle,Middle,919-662-2434,"Year-Round, Track 4 Only",720,Powell Dr,Garner,27529,N/A,http://www.wcpss.net/northgarnerms,2,Middle School
2084768.440786898136139,773558.24999138712883,94,442,Hilburn Drive Academy,Elementary/Middle,919-571-6800,Traditional,7100,Hilburn Dr,Raleigh,27613,N/A,http://www.wcpss.net/hilburnacademy,7,Academies
2111794.490737318992615,744895.727920219302177,95,380,Conn Elementary,Elementary,919-856-7637,Traditional,1220,Brookside Dr,Raleigh,27604,Entrepreneurial Design,http://www.wcpss.net/connes,4,Magnet Elementary School
2105238.510739058256149,747222.423726126551628,96,572,Underwood Elementary,Elementary,919-856-7663,Traditional,1614,Glenwood Ave,Raleigh,27608,"Gifted and Talented grades 9-12;  IB Diploma Programme available at grades 11-12",http://www.wcpss.net/underwoodes,6,Magnet Elementary School
2083237.717142313718796,742810.096592798829079,97,508,Mount Vernon Middle-Bridges Program,Elementary/Middle,919-233-4313,Traditional,5418,Chapel Hill Rd,Raleigh,27607,N/A,http://www.wcpss.net/mtvernonms,6,Special / Optional Schools
2156402.672518149018288,801114.976373881101608,98,453,Jones Dairy Elementary,Elementary,919-562-6181,Year-Round,1100,Jones Dairy Rd,Wake Forest,27587,N/A,http://www.wcpss.net/jonesdairyes,1,Elementary Schools
2127865.240091815590858,798903.703893542289734,99,593,Wakefield Elementary,Elementary,919-562-3555,Traditional,2400,Wakefield Pines Dr,Raleigh,27614,N/A,http://www.wcpss.net/wakefieldes,3,Elementary Schools
2127447.778656393289566,799432.386563211679459,100,594,Wakefield Middle,Middle,919-562-3500,Traditional,2300,Wakefield Pines Dr,Raleigh,27614,N/A,http://www.wcpss.net/wakefieldms,3,Middle School
2127144.624078974127769,800114.18670879304409,101,595,Wakefield High,High,919-562-3600,Traditional,2200,Wakefield Pines Dr,Raleigh,27614,N/A,http://www.wcpss.net/wakefieldhs,3,High School
2105506.189009472727776,766127.964655131101608,102,440,Green Elementary,Elementary,919-431-8141,Traditional,5307,Six Forks Rd,Raleigh,27609,Leadership and World Languages,http://www.wcpss.net/greenes,6,Magnet Elementary School
2155165.320662140846252,750508.149766221642494,103,466,Knightdale High,High,919-217-5350,Traditional,100,Bryan Chalk Ln,Knightdale,27545,N/A,http://www.wcpss.net/knightdalehs,1,High School
2153632.344725474715233,750193.166144207119942,104,413,Forestville Road Elementary,Elementary,919-266-8487,Traditional,100,Lawson Ridge Rd,Knightdale,27545,N/A,http://www.wcpss.net/forestvilleroades,1,Elementary Schools
2039548.878995224833488,751369.556507959961891,105,358,Carpenter Elementary,Elementary, 919-462-6780,Year-Round,2100,Morrisville Pkwy,Cary,27519,N/A,http://www.wcpss.net/carpenteres,7,Elementary Schools
2068617.390411898493767,750810.225933715701103,106,542,Reedy Creek Elementary,Elementary,919-380-3660,Traditional,940,Reedy Creek Rd,Cary,27513,N/A,http://www.wcpss.net/reedycreekes,9,Elementary Schools
2069512.236719310283661,750851.011285215616226,107,400,Reedy Creek Middle,Middle,919-460-3504,Traditional,930,Reedy Creek Rd,Cary,27513,Center for Digital Sciences,http://www.wcpss.net/reedycreekms,9,Magnet Middle School
2144588.598049223423004,773109.916570469737053,108,451,Harris Creek Elementary,Elementary,919-217-5100,Year-Round,3829,Forestville Rd,Raleigh,27616,N/A,http://www.wcpss.net/harriscreekes,1,Elementary Schools
2081641.149797394871712,729007.41816146671772,109,394,Dillard Drive Middle,Middle,919-233-4228,Traditional,5200,Dillard Dr,Raleigh,27606,N/A,http://www.wcpss.net/dillarddrivems,5,Middle School
2082194.498756319284439,728845.389286041259766,110,393,Dillard Drive Elementary,Elementary,919-233-4200,Traditional,5018,Dillard Dr,Raleigh,27606,N/A,http://www.wcpss.net/dillarddrivees,5,Elementary Schools
2078130.002292141318321,728983.238747879862785,111,003,Harriet B Webster At Crossroads II Adm,Administrative,919-431-7400, ,110,Corning Rd,Cary,27518,N/A, ,9,Administration
2126407.6216159760952,767348.740428790450096,112,221,Spring Forest Road Modular Site,U, , ,3851,Spring Forest Rd,Raleigh,27616,N/A, ,1,Future Sites
2122947.182342648506165,710633.595001041889191,113,404,East Garner Middle,Middle,919-662-2339,Traditional,6301,Jones Sausage Rd,Garner,27529,International Baccalaureate Programme,http://www.wcpss.net/eastgarnerms,2,Magnet Middle School
2122683.307542309165001,712718.688927963376045,114,403,East Garner Elementary,Elementary,919-773-7411,Modified,5545,Jones Sausage Rd,Garner,27529,N/A,http://www.wcpss.net/eastgarneres,2,Elementary Schools
2134179.029301479458809,802441.523917630314827,115,514,North Forest Pines Elementary,Elementary,919-570-2220,Year-Round,11501,Forest Pines Dr,Raleigh,27614,N/A,http://www.wcpss.net/northforestpineses,3,Elementary Schools
2130989.395916983485222,745453.902328804135323,116,438,River Oaks Middle,Middle,919-231-5600,Traditional,4700,New Bern Ave,Raleigh,27610,N/A,http://www.wcpss.net/riveroaksms,4,Special / Optional Schools
2141612.816271141171455,737853.637345626950264,117,446,Hodge Road Elementary,Elementary,919-266-8599,"Year-Round, Track 4 Only",2128,Mingo Bluff Blvd,Knightdale,27545,Spanish Dual Language Immersion,http://www.wcpss.net/hodgeroades,4,Magnet Elementary School
2056564.563139647245407,669683.267124965786934,118,476,Lincoln Heights Elementary,Elementary,919-557-2587,Traditional,307,Bridge St,Fuquay-Varina,27526,Environmental Connections,http://www.wcpss.net/lincolnheightses,2,Magnet Elementary School
2071531.985304474830627,699085.900904878973961,119,494,Middle Creek Elementary,Elementary,919-773-9555,Year-Round,110,Middle Creek Park Ave,Apex,27539,N/A,http://www.wcpss.net/middlecreekes,5,Elementary Schools
2133163.288878902792931,721597.272548720240593,120,329,Barwell Road Elementary,Elementary,919-661-5405,"Year-Round, Track 4 Only",3925,Barwell Rd,Raleigh,27610,N/A,http://www.wcpss.net/barwellroades,2,Elementary Schools
2068143.100349977612495,678328.602196469902992,121,327,Ballentine Elementary,Elementary,919-557-1120,Year-Round,1651,N  McLaurin Ln,Fuquay-Varina,27526,N/A,http://www.wcpss.net/ballentinees,2,Elementary Schools
2072209.06761172413826,674533.458540052175522,122,420,Fuquay-Varina Elementary,Elementary,919-557-2566,Traditional,6600,Johnson Pond Rd,Fuquay-Varina,27526,N/A,http://www.wcpss.net/fuquayvarinaes,2,Elementary Schools
2118467.409478068351746,715373.173776462674141,123,384,Creech Road Elementary,Elementary,919-662-2359,Traditional,450,Creech Rd,Garner,27529,N/A,http://www.wcpss.net/creechroades,2,Elementary Schools
2102812.944067895412445,714240.324008047580719,124,560,Smith Elementary,Elementary,919-662-2458,Traditional,1101,Maxwell Dr,Raleigh,27603,International Baccalaureate Programme,http://www.wcpss.net/smithes,2,Magnet Elementary School
2060313.77381706237793,715701.733158707618713,125,530,Penny Road Elementary,Elementary,919-387-2136,Traditional,10900,Penny Rd,Cary,27518,N/A,http://www.wcpss.net/pennyroades,8,Elementary Schools
2133894.596143305301666,802081.090255305171013,126,417,Forest Pines Drive Elementary,Elementary,919-562-6262,Traditional,11455,Forest Pines Dr,Raleigh,27614,N/A,http://www.wcpss.net/forestpinesdrivees,3,Elementary Schools
2111365.664167150855064,729886.41935621201992,127,416,Fuller Elementary,Elementary,919-856-7625,Traditional,806,Calloway Dr,Raleigh,27610,AIG Basics Program - Wake County AIG Identification Required,http://www.wcpss.net/fulleres,4,Magnet Elementary School
2111905.339268893003464,737031.248570457100868,128,448,Hunter Elementary,Elementary,919-856-7676,Traditional,1018,E Davie St,Raleigh,27601,AIG Basics Program - Wake County AIG Identification Required,http://www.wcpss.net/hunteres,4,Magnet Elementary School
2108119.589294478297234,706310.002270296216011,129,570,Timber Drive Elementary,Elementary,919-773-9500,"Year-Round, Track 4 Only",1601,Timber Dr,Garner,27529,N/A,http://www.wcpss.net/timberdrivees,2,Elementary Schools
2051043.986582398414612,693682.67877171933651,130,447,Holly Springs Elementary,Elementary,919-557-2660,Year-Round,401,Holly Springs Rd,Holly Springs,27540,N/A,http://www.wcpss.net/hollyspringses,8,Elementary Schools
2108225.97097148001194,713828.836970135569572,131,436,Garner High,High,919-662-2379,Traditional,2101,Spring Dr,Garner,27529,International Baccalaureate Programme,http://www.wcpss.net/garnerhs,2,Magnet High School
2054422.892554223537445,693072.348627552390099,132,449,Holly Ridge Elementary,Elementary,919-577-1300,Traditional,900,Holly Springs Rd,Holly Springs,27540,N/A,http://www.wcpss.net/hollyridgees,8,Elementary Schools
2055013.589535564184189,693231.740697219967842,133,450,Holly Ridge Middle,Middle,919-577-1335,Traditional,950,Holly Springs Rd,Holly Springs,27540,N/A,http://www.wcpss.net/hollyridgems,8,Middle School
2044451.138875722885132,684871.938847303390503,134,457,Holly Grove Elementary,Elementary, 919-577-1700,Year-Round,1451,Avent Ferry Rd,Holly Springs,27540,N/A,http://www.wcpss.net/hollygrovees,8,Elementary Schools
2060545.184771567583084,672594.513599053025246,135,428,Fuquay-Varina High,High,919-557-2511,Traditional,201,Bengal Blvd,Fuquay-Varina,27526,N/A,http://www.wcpss.net/fuquayvarinahs,8,High School
2201588.231096982955933,761197.610342636704445,136,632,Zebulon Elementary,Elementary,919-404-3680,Traditional,700,Proctor St,Zebulon,27597,"Gifted and Talented grades 9-12;  IB Diploma Programme available at grades 11-12",http://www.wcpss.net/zebulones,1,Magnet Elementary School
2116891.84110689163208,736707.511357054114342,137,532,Poe Elementary,Elementary,919-250-4777,Traditional,400,Peyton St,Raleigh,27610,AIG Basics Program - Wake County AIG Identification Required,http://www.wcpss.net/poees,4,Magnet Elementary School
2115688.271007478237152,741048.280234545469284,138,324,Longview School,Middle/High,919-856-7691,Traditional,318,N King Charles Rd,Raleigh,27610,N/A,http://www.wcpss.net/longview,4,Special / Optional Schools
2110157.220061734318733,709536.173639461398125,139,580,Vandora Springs Elementary,Elementary,919-662-2486,Traditional,1300,Vandora Springs Rd,Garner,27529,N/A,http://www.wcpss.net/vandoraspringses,2,Elementary Schools
2122847.957475483417511,740698.090974301099777,140,583,Wake Early College Of Health And Sciences,High,919-212-5800,Early College,2901,Holston Ln,Raleigh,27610,Wake Early College of Health and Sciences grades 9-13,http://www.wcpss.net/healthscienceec,4,Magnet High School
2114258.911989569664001,705980.471105217933655,141,320,Aversboro Elementary,Elementary,919-662-2325,Traditional,1605,Aversboro Rd,Garner,27529,N/A,http://www.wcpss.net/aversboroes,2,Elementary Schools
2159430.602157816290855,792886.86684587597847,142,554,Sanford Creek Elementary,Elementary,919-570-2100,Year-Round,701,Granite Falls Blvd,Rolesville,27571,N/A,http://www.wcpss.net/sanfordcreekes,1,Elementary Schools
2196652.563802972435951,766613.668408125638962,143,597,Wakelon Elementary,Elementary,919-404-3844,Traditional,8921,Pippin Rd,Zebulon,27597,N/A,http://www.wcpss.net/wakelones,1,Elementary Schools
2030678.952837482094765,749912.594526886940002,144,501,Mills Park Elementary,Elementary,919-466-1466,Traditional,509,Mills Park Dr,Cary,27519,N/A,http://www.wcpss.net/millsparkes,8,Elementary Schools
2078883.66515488922596,789360.239056631922722,145,569,Sycamore Creek Elementary,Elementary,919-841-4333,Year-Round,10921,Leesville Rd,Raleigh,27613,N/A,http://www.wcpss.net/sycamorecreekes,7,Elementary Schools
2051395.138767227530479,731118.150816634297371,146,467,Laurel Park Elementary,Elementary,919-290-2333,Year-Round,2450,Laura Duncan Rd,Apex,27523,N/A,http://www.wcpss.net/laurelparkes,9,Elementary Schools
2122138.29747748374939,697166.226266548037529,147,349,Bryan Road Elementary,Elementary, ,Traditional,8317,Bryan Rd,Garner,27529,N/A, ,2,Elementary Schools
2121076.127685815095901,698035.002416133880615,148,350,Bryan Road Middle Site,Middle, ,TBD,8317,Bryan Rd,Garner,27529,N/A, ,2,Future Sites
2169214.596041232347488,732484.754710718989372,149,474,Lake Myra Elementary,Elementary,919-365-8990,"Year-Round, Track 4 Only",1300,Elk Falls Rd,Wendell,27591,N/A,http://www.wcpss.net/lakemyraes,1,Elementary Schools
2034679.456319391727448,717623.052150711417198,150,557,Scotts Ridge Elementary,Elementary,919-694-0300,Traditional,6601,Apex Barbecue Rd,Apex,27502,N/A,http://www.wcpss.net/scottsridgees,8,Elementary Schools
2058407.897707566618919,680658.531591713428497,151,306,Herbert Akins Road Elementary,Elementary,919-567-4100,Year-Round,2255,Herbert Akins Rd,Fuquay-Varina,27526,N/A,http://www.wcpss.net/herbertakinsroades,8,Elementary Schools
2148184.520319312810898,814162.891879051923752,152,202,Dubois Center,U,919-554-8400, ,530,E Perry Ave,Wake Forest,27587,N/A, ,1,Future Sites
2137344.875660061836243,770027.551672220230103,153,302,River Bend Elementary,Elementary,919-431-8010,Traditional,6710,Perry Creek Rd,Raleigh,27616,N/A,http://www.wcpss.net/riverbendes,6,Elementary Schools
2169968.37602972984314,751593.749957218766212,154,E29,Wendell Area Elementary and Pre-K Site,Elementary, ,TBD,5101,Rolesville Rd,Wendell,27591,N/A, ,1,Future Sites
2086115.968275561928749,684872.59337355196476,155,325,Banks Road Elementary,Elementary,919-890-7333,Year-Round,10225,Chambers Rd,Raleigh,27603,N/A,http://www.wcpss.net/banksroades,2,Elementary Schools
2098622.444574892520905,693510.621701136231422,156,576,Vance Elementary,Elementary,919-662-2472,"Year-Round, Track 4 Only",8808,Old Stage Rd,Raleigh,27603,N/A,http://www.wcpss.net/vancees,2,Elementary Schools
2108719.323003143072128,751681.709098875522614,157,456,Joyner Elementary,Elementary,919-856-7650,Traditional,2300,Lowden St,Raleigh,27608,Center for Spanish Language / International Baccalaureate Primary Years Programme,http://www.wcpss.net/joyneres,6,Magnet Elementary School
2122205.676935896277428,726562.073314636945724,158,599,Walnut Creek Elementary,Elementary,919-857-9500,"Year-Round, Track 4 Only",2600,Sunnybrook Rd,Raleigh,27610,N/A,http://www.wcpss.net/walnutcreekes,4,Elementary Schools
2134600.198406651616096,770485.26827646791935,159,232,Wake Early College North Campus HS,High,919-532-5660,Early College,6600,Louisburg Rd,Raleigh,27616,N/A,http://healthscienceec.wcpss.net/#,1,Future Sites
2179648.095187306404114,748235.298996970057487,160,601,Wendell Middle,Middle,919-365-1667,Traditional,3409,NC 97 Hwy,Wendell,27591,N/A,http://www.wcpss.net/wendellms,1,Middle School
2080614.405787900090218,671085.201328963041306,161,624,Willow Springs Elementary,Elementary,919-557-2770,Year-Round,6800,Dwight Rowland Rd,Willow Springs,27592,N/A,http://www.wcpss.net/willowspringses,2,Elementary Schools
2029798.793180480599403,767846.940875962376595,162,307,Alston Ridge Elementary,Elementary, 919-544-2474,Year-Round,11555,Green Level Church Rd,Cary,27519,N/A,http://www.wcpss.net/alstonridgees,8,Elementary Schools
2045044.521875306963921,684679.410360962152481,163,458,Holly Grove Middle,Middle,919-567-4177,Year-Round,1401,Avent Ferry Rd,Holly Springs,27540,N/A,http://www.wcpss.net/hollygrovems,8,Middle School
2030820.66351206600666,750746.10795171558857,164,502,Mills Park Middle,Middle,919-466-1500,Traditional,441,Mills Park Dr,Cary,27519,N/A,http://www.wcpss.net/millsparkms,8,Middle School
2071135.649154901504517,695321.462239548563957,165,607,West Lake Middle,Middle,919-662-2900,Year-Round,4600,West Lake Rd,Apex,27539,N/A,http://www.wcpss.net/westlakems,5,Middle School
2144904.328060805797577,797984.298252046108246,166,445,Heritage High,High,919-570-5600,Traditional,1150,Forestville Rd,Wake Forest,27587,N/A,http://www.wcpss.net/heritagehs,1,High School
2098995.453999474644661,735994.425184801220894,167,582,Wake Stem  Early College High School,High,919-515-2255,Early College,715,Barbour Dr,Raleigh,27603,Wake NCSU STEM Early College grades 9-13,http://www.wcpss.net/stemec,5,Magnet High School
2109891.733059898018837,738440.054807960987091,168,585,Wake Young Men's Leadership Academy,Middle/High,919-664-5644,Early College,567,E Hargett St,Raleigh,27601,Wake Young Men's Leadership Academy grades 6-13,http://www.wcpss.net/wakeyoungmen,5,Academies
2101156.917524307966232,738598.431131631135941,169,586,Wake Young Women's Leadership Academy,Middle/High,919-508-9088,Early College,303,Ashe Ave,Raleigh,27606,Wake Young Women's Leadership Academy grades 6-13,http://www.wcpss.net/wywla,5,Academies
2142991.40931448340416,821445.814977213740349,170,543,Richland Creek Elementary,Elementary,919-554-6333,Traditional,840,Wallridge Drive,Wake Forest,27587,N/A,http://www.wcpss.net/richlandcreekes,1,Elementary Schools
2094951.764252230525017,751315.006092131137848,171,468,Lacy Elementary,Elementary,919-881-4920,Traditional,2001,Lake Boone Trl,Raleigh,27607,N/A,http://www.wcpss.net/lacyes,6,Elementary Schools
2154209.445605397224426,787962.744476303458214,172,545,Rolesville Middle,Middle,919-570-2260,Year-Round,4700,Burlington Mills Rd,Rolesville,27571,N/A,http://www.wcpss.net/rolesvillems,1,Middle School
2124832.846550315618515,783563.620728626847267,173,303,Abbotts Creek Elementary,Elementary, 919-694-0555,Traditional,9900,Durant Rd,Raleigh,27614,N/A,http://www.wcpss.net/abbottscreekes,3,Elementary Schools
2078162.948092401027679,729516.846932634711266,174,001,Wcpss  At Crossroads I Adm,Administrative,919-431-7400, ,5625,Dillard Dr,Cary,27518,N/A,http://www.wcpss.net/,9,Administration
2083269.786631986498833,779207.284953132271767,175,473,Leesville Road High,High,919-870-4250,Traditional,8410,Pride Way,Raleigh,27613,N/A,http://www.wcpss.net/leesvilleroadhs,7,High School
2083441.691143810749054,778646.395983040332794,176,471,Leesville Road Middle,Middle,919-870-4141,Traditional,8406,Pride Way,Raleigh,27613,N/A,http://www.wcpss.net/leesvilleroadms,7,Middle School
2083283.582864224910736,778146.609909132122993,177,469,Leesville Road Elementary,Elementary,919-870-4200,Traditional,8402,Pride Way,Raleigh,27613,N/A,http://www.wcpss.net/leesvilleroades,7,Elementary Schools
2105900.994650319218636,729122.449427470564842,178,581,Vernon Malone College & Career Academy,High,919-856-8119,Early College,2200,S Wilmington St,Raleigh,27603,Career and Technical Education grades 9 - 12,http://www.wcpss.net/vernonmalonecca,5,Magnet High School
2165080.490464314818382,785342.30286680161953,179,546,Rolesville High,High,919-554-6303,Traditional,1099,E Young St,Rolesville,27571,N/A,http://www.wcpss.net/rolesvillehs,1,High School
2053041.623335152864456,777893.133381962776184,180,533,Pleasant Grove Elementary,Elementary,919-694-8770,Traditional,3605,Pleasant Grove Church Rd,Morrisville,27560,N/A,http://www.wcpss.net/pleasantgrovees,7,Elementary Schools
2139889.787236899137497,754136.997823461890221,181,332,Beaverdam Elementary,Elementary,919-694-0222,Traditional,3591,Tarheel Club Rd,Raleigh,27604,N/A,http://www.wcpss.net/beaverdames,1,Elementary Schools
2039568.623378306627274,695753.153961464762688,182,521,Oakview Elementary,Elementary,919-694-8885,Traditional,11500,Holly Springs New Hill Rd,Apex,27539,N/A,http://www.wcpss.net/oakviewes,8,Elementary Schools
2079047.00570747256279,785527.489504292607307,183,529,Pine Hollow Middle,Middle,919-694-8880,Year-Round,5365,Bartram Place,Raleigh,27617,N/A,http://www.wcpss.net/pinehollowms,7,Middle School
2023225.187233224511147,739068.785177797079086,184,614,White Oak Elementary,Elementary,919-694-0202,Traditional,1512,White Oak Church Rd,Apex,27523,N/A,http://www.wcpss.net/whiteoakes,8,Elementary Schools
2026209.583495393395424,710501.01652604341507,185,317,Apex Friendship High,High,919-694-0500,Traditional,7801,Humie Olive Rd,Apex,27502,N/A,http://www.wcpss.net/apexfriendshiphs,8,High School
2077671.344744890928268,729685.50407563149929,186,386,Crossroads Flex High,High,919-694-8515,Traditional,5651,Dillard Dr,Cary,27518,Online and Onsite Learning,http://www.wcpss.net/crossroadsflexhs,9,Magnet High School
2027590.522990733385086,761344.945021718740463,187,459,Hortons Creek Elementary,Elementary,919-694-8660,Traditional,7615,O'Kelly Chapel Rd,Cary,27519,N/A,http://www.wcpss.net/hortonscreekes,8,Elementary Schools
2134248.919581651687622,738214.59462895989418,188,547,Rogers Lane Elementary,Elementary, ,Traditional, 201,N. Rogers Ln,Raleigh,27610,N/A,http://www.wcpss.net/rogerslanees,4,Elementary Schools
2138738.608764976263046,769026.437860801815987,189,549,River Bend Middle,Middle, ,Traditional,6620,Perry Creek Rd,Raleigh,27616,N/A,http://www.wcpss.net/riverbendms,6,Middle School
2135562.270629480481148,810598.40327313542366,190,518,North Wake College & Career Academy,High,919-694-8650,Early College,931,Durham Rd,Wake Forest,27587,Career and Technical Education grades 9 - 12,http://www.wcpss.net/northwakecca,1,Magnet High School
2076559.92734831571579,734083.978874459862709,191,381,Connections Academy,Middle, ,Traditional,1280,Buck Jones Rd,Raleigh,27606,N/A, ,9,Special / Optional Schools
2077511.359828650951385,729731.816647052764893,192,556,SCORE Academy: Cary,High, ,Traditional,5651,Dillard Dr,Cary,27518,N/A, ,9,Special / Optional Schools
2124927.58750256896019,694250.262610301375389,193,561,South Garner High,High, ,Traditional,8228,Hebron Church Rd,Garner,27529,N/A, ,2,High School
2029710.795653060078621,736189.892969712615013,194,437,Green Level High,High,919-387-2208,Traditional,7612,Roberts Rd,Cary,27519,N/A, ,8,High School
2042661.755315393209457,761831.741948381066322,195,527,Parkside Elementary,Elementary, ,Year-Round,100,Little Dr,Morrisville,27560,N/A, ,7,Elementary Schools
2028119.501919642090797,766371.06554688513279,196,309,Alston Ridge Middle Site,Middle, ,Year-Round,120,Winding Pine Trail,Cary,27519,N/A, ,8,Middle School
2090091.883880153298378,785564.276504218578339,197,330,Barton Pond ES Site,Elementary, ,TBD,12004,Strickland Rd,Raleigh,27613,N/A, ,7,Future Sites
2055635.733632475137711,705609.017451792955399,198,H12,H12 High Site,High, ,TBD,8550,Stephenson Rd,Apex,27539,N/A, ,8,Future Sites
2113964.881737723946571,731964.630422875285149,199,563,Southeast Raleigh Elementary,Elementary, ,Traditional,1436,Rock Quarry Rd,Raleigh,27610,N/A, ,4,Elementary Schools
2113510.36230556666851,747698.444755718111992,200,H15,Capital Boulevard High Site,High, ,TBD,1820,Capital Blvd,Raleigh,27604,N/A, ,4,Future Sites
2046091.144125893712044,680205.705069541931152,201,351,Buckhorn Creek Elementary,Elementary, ,Traditional,5651,Honeycutt Rd,Holly Springs,27540,N/A, ,8,Elementary Schools
2058396.067678734660149,681136.00865513086319,202,M14,M14 Middle Site,Middle, ,TBD,2255,Herbert Akins Rd,Fuquay-Varina,27526,N/A, ,8,Future Sites
2078234.723539397120476,664533.876833215355873,203,625,Willow Spring High Site,High, ,TBD,1704,Old Honeycutt Road,Fuquay-Varina,27526,N/A, ,2,Future Sites
2075638.132275894284248,667114.728626877069473,204,E35,South Lakes Elementary Site,Elementary, ,TBD,0,Old Honeycutt Road,Fuquay-Varina,27526,N/A, ,2,Future Sites
2027504.555314898490906,709734.917664542794228,205,315,Apex Friendship Middle,Middle, ,Traditional,7701,Humie Olive Rd,Apex,27502,N/A, ,8,Middle School
2025403.917455807328224,709112.049815803766251,206,E41,Apex Friendship Elementary Site,Elementary, ,TBD,7701,Humie Olive Rd,Apex,27502,N/A, ,8,Future Sites
2166356.557794064283371,784926.378829881548882,207,E42,E42 ES Site,Elementary, ,TBD,1099,E Young St,Rolesville,27571,N/A, ,1,Future Sites
2078131.886802807450294,684500.371348962187767,208,E44,E44 ES Site,Elementary, ,TBD,4551,Hilltop Needmore Rd,Fuquay Varina,27526,N/A, ,2,Future Sites
2137361.71978648006916,729620.893312469124794,209,534,Poole Road ES Site,Elementary, ,TBD,6120,Poole Rd,Raleigh,27610,N/A, ,4,Future Sites
2136615.552315562963486,729918.004266798496246,210,M17,M17 Middle Site,Middle, ,TBD,6120,Poole Rd,Raleigh,27610,N/A, ,4,Future Sites
2063374.942235395312309,659760.787954211235046,211,E49,E49 ES Site,Elementary, ,TBD, , , ,0,N/A, ,2,Future Sites
2102179.797696396708488,717989.035670712590218,212,556,SCORE Academy: Garner,High, ,Traditional, , , ,0,N/A, ,0,Special / Optional Schools
2130844.165892481803894,745445.026690378785133,213,556,SCORE Academy: River Oaks,High, ,Traditional, , , ,0,N/A, ,0,Special / Optional Schools
2124725.867433562874794,738935.540365547058173,214, ,Infinity Program,Middle/High, ,Traditional, , , ,0,N/A, ,0,Special / Optional Schools
